#id	title	latitude	longitude	othernames	category	subcategory	subsubcategory	Addresscode_1	AddressCode_2	AddressCode_3	Detailed_address	BusinessHours	closingdays	parkingLot	cost	publicTransportationAccess	satisfaction	spendingTime	placeURL
daum.7912085	비자림	33.48397154	126.8057408		여행	관광/명소	휴양림/숲길걷기	대한민국	제주특별자치도	제주시	구좌읍 평대리 산3164-1 	{""weekDayOpen"":""9:00"",""weekDayOpenHour"":9.0,""weekDayClose"":""18:00"",""weekDayCloseHour"":18.0,""saturdayOpen"":""9:00"",""saturdayOpenHour"":9.0,""saturdayClose"":""18:00"",""saturdayCloseHour"":18.0,""sundayOpen"":""9:00"",""sundayOpenHour"":9.0,""sundayClose"":""18:00"",""sundayCloseHour"":18.0}	{""weeklyClosingDays"":[],""monthlyClosingDayOfWeeks"":[],""yearlyClosingDays"":[]}	-1	1500	[]	8.7	1	0.333333333	http://place.map.daum.net/7912085
daum.8463314	요트투어샹그릴라	33.24334082	126.4163728		여행	관광/명소	투어버스/유람선/관광열차	대한민국	제주특별자치도	서귀포시	색달동 2950-5 	{""weekDayOpen"":""7:30"",""weekDayOpenHour"":7.5,""weekDayClose"":""18:00"",""weekDayCloseHour"":18.0,""saturdayOpen"":""7:30"",""saturdayOpenHour"":7.5,""saturdayClose"":""18:00"",""saturdayCloseHour"":18.0,""sundayOpen"":""7:30"",""sundayOpenHour"":7.5,""sundayClose"":""18:00"",""sundayCloseHour"":18.0}	{""weeklyClosingDays"":[],""monthlyClosingDayOfWeeks"":[],""yearlyClosingDays"":[]}	-1	60000	[]	9.8	1	0.5	http://place.map.daum.net/8463314
daum.12354187	용연구름다리	33.51488321	126.5143922		여행	관광/명소	자연경관	대한민국	제주특별자치도	제주시	용담2동	{""weekDayOpen"":""5:30"",""weekDayOpenHour"":5.5,""weekDayClose"":""19:30"",""weekDayCloseHour"":19.5,""saturdayOpen"":""5:30"",""saturdayOpenHour"":5.5,""saturdayClose"":""19:30"",""saturdayCloseHour"":19.5,""sundayOpen"":""5:30"",""sundayOpenHour"":5.5,""sundayClose"":""19:30"",""sundayCloseHour"":19.5}	{""weeklyClosingDays"":[],""monthlyClosingDayOfWeeks"":[],""yearlyClosingDays"":[]}	-1	0	[]	10	0.25	0.083333333	http://place.map.daum.net/12354187
daum.17110921	미로공원	33.53653188	126.7722353		여행	관광/명소	테마파크	대한민국	제주특별자치도	제주시	구좌읍 김녕리 산16 	{""weekDayOpen"":""8:30"",""weekDayOpenHour"":8.5,""weekDayClose"":""17:30"",""weekDayCloseHour"":17.5,""saturdayOpen"":""8:30"",""saturdayOpenHour"":8.5,""saturdayClose"":""17:30"",""saturdayCloseHour"":17.5,""sundayOpen"":""8:30"",""sundayOpenHour"":8.5,""sundayClose"":""17:30"",""sundayCloseHour"":17.5}	{""weeklyClosingDays"":[],""monthlyClosingDayOfWeeks"":[],""yearlyClosingDays"":[]}	-1	3300	[]	8.6	0.6	0.333333333	http://place.map.daum.net/17110921
daum.11792904	올레길 8코스월평대평올레	33.24341946	126.4584764		여행	관광/명소	도보여행	대한민국	제주특별자치도	서귀포시	월평동	{""weekDayOpenHour"":0.0,""weekDayCloseHour"":0.0,""saturdayOpenHour"":0.0,""saturdayCloseHour"":0.0,""sundayOpenHour"":0.0,""sundayCloseHour"":0.0}	{""weeklyClosingDays"":[],""monthlyClosingDayOfWeeks"":[],""yearlyClosingDays"":[]}	-1	-1	[]	7	1	0.0256	http://place.map.daum.net/11792904
daum.8004227	여미지식물원	33.25260678	126.4142595		여행	관광/명소	관광/명소	대한민국	제주특별자치도	서귀포시	색달동 2484-1 중문단지 내 	{""weekDayOpen"":""9:00"",""weekDayOpenHour"":9.0,""weekDayClose"":""18:00"",""weekDayCloseHour"":18.0,""saturdayOpen"":""9:00"",""saturdayOpenHour"":9.0,""saturdayClose"":""18:00"",""saturdayCloseHour"":18.0,""sundayOpen"":""9:00"",""sundayOpenHour"":9.0,""sundayClose"":""18:00"",""sundayCloseHour"":18.0}	{""weeklyClosingDays"":[],""monthlyClosingDayOfWeeks"":[],""yearlyClosingDays"":[]}	-1	9000	[]	3.3	1.5	0.25	http://place.map.daum.net/8004227
daum.20127314	교래자연휴양림	33.44030903	126.6589483		여행	관광/명소	자연휴양림	대한민국	제주특별자치도	제주시	조천읍 교래리 산119 	{""weekDayOpenHour"":0.0,""weekDayCloseHour"":0.0,""saturdayOpenHour"":0.0,""saturdayCloseHour"":0.0,""sundayOpenHour"":0.0,""sundayCloseHour"":0.0}	{""weeklyClosingDays"":[],""monthlyClosingDayOfWeeks"":[],""yearlyClosingDays"":[]}	-1	-1	[]	10	1	0.0256	http://place.map.daum.net/20127314
daum.8350843	따라비오름	33.38870699	126.7528584		여행	관광/명소	산봉우리/등산로	대한민국	제주특별자치도	서귀포시	표선면 가시리 62 	{""weekDayOpen"":""8:00"",""weekDayOpenHour"":8.0,""weekDayClose"":""18:00"",""weekDayCloseHour"":18.0,""saturdayOpen"":""8:00"",""saturdayOpenHour"":8.0,""saturdayClose"":""18:00"",""saturdayCloseHour"":18.0,""sundayOpen"":""8:00"",""sundayOpenHour"":8.0,""sundayClose"":""18:00"",""sundayCloseHour"":18.0}	{""weeklyClosingDays"":[],""monthlyClosingDayOfWeeks"":[],""yearlyClosingDays"":[]}	-1	0	[]	0	0.666666667	0.25	http://place.map.daum.net/8350843
daum.14493485	사려니숲길	33.42213658	126.6265184		여행	관광/명소	휴양림/숲길걷기	대한민국	제주특별자치도	제주시	조천읍 교래리 	{""weekDayOpen"":""8:00"",""weekDayOpenHour"":8.0,""weekDayClose"":""18:30"",""weekDayCloseHour"":18.5,""saturdayOpen"":""8:00"",""saturdayOpenHour"":8.0,""saturdayClose"":""18:30"",""saturdayCloseHour"":18.5,""sundayOpen"":""8:00"",""sundayOpenHour"":8.0,""sundayClose"":""18:30"",""sundayCloseHour"":18.5}	{""weeklyClosingDays"":[],""monthlyClosingDayOfWeeks"":[],""yearlyClosingDays"":[]}	-1	0	[]	8.3	3	1	http://place.map.daum.net/14493485
daum.10474738	성산일출봉	33.46210092	126.9362026		여행	관광/명소	산봉우리/등산로	대한민국	제주특별자치도	서귀포시	성산읍 성산리 114 	{""weekDayOpen"":""5:30"",""weekDayOpenHour"":5.5,""weekDayClose"":""19:30"",""weekDayCloseHour"":19.5,""saturdayOpen"":""5:30"",""saturdayOpenHour"":5.5,""saturdayClose"":""19:30"",""saturdayCloseHour"":19.5,""sundayOpen"":""5:30"",""sundayOpenHour"":5.5,""sundayClose"":""19:30"",""sundayCloseHour"":19.5}	{""weeklyClosingDays"":[],""monthlyClosingDayOfWeeks"":[],""yearlyClosingDays"":[]}	-1	2000	[]	8.8	0.916666667	0.25	http://place.map.daum.net/10474738
daum.9401924	제주공룡랜드	33.44177999	126.4339879		여행	관광/명소	테마파크	대한민국	제주특별자치도	제주시	애월읍 광령리 2677-1 	{""weekDayOpen"":""9:00"",""weekDayOpenHour"":9.0,""weekDayClose"":""17:00"",""weekDayCloseHour"":17.0,""saturdayOpen"":""9:00"",""saturdayOpenHour"":9.0,""saturdayClose"":""17:00"",""saturdayCloseHour"":17.0,""sundayOpen"":""9:00"",""sundayOpenHour"":9.0,""sundayClose"":""17:00"",""sundayCloseHour"":17.0}	{""weeklyClosingDays"":[],""monthlyClosingDayOfWeeks"":[],""yearlyClosingDays"":[]}	-1	9000	[]	7	1.5	0.25	http://place.map.daum.net/9401924
daum.8025182	우도	33.50441997	126.9555823		여행	관광/명소	섬	대한민국	제주특별자치도	제주시	우도면 연평리 	{""weekDayOpen"":""8:00"",""weekDayOpenHour"":8.0,""weekDayClose"":""17:30"",""weekDayCloseHour"":17.5,""saturdayOpen"":""8:00"",""saturdayOpenHour"":8.0,""saturdayClose"":""17:30"",""saturdayCloseHour"":17.5,""sundayOpen"":""8:00"",""sundayOpenHour"":8.0,""sundayClose"":""17:30"",""sundayCloseHour"":17.5}	{""weeklyClosingDays"":[],""monthlyClosingDayOfWeeks"":[],""yearlyClosingDays"":[]}	-1	5500	[]	8.9	3	0.833333333	http://place.map.daum.net/8025182
daum.12684289	제주서광다원	33.3083756	126.3067324		여행	관광/명소		대한민국	제주특별자치도	서귀포시	안덕면 서광리 1241 	{""weekDayOpenHour"":0.0,""weekDayCloseHour"":0.0,""saturdayOpenHour"":0.0,""saturdayCloseHour"":0.0,""sundayOpenHour"":0.0,""sundayCloseHour"":0.0}	{""weeklyClosingDays"":[],""monthlyClosingDayOfWeeks"":[],""yearlyClosingDays"":[]}	-1	-1	[]	0	1	0.0256	http://place.map.daum.net/12684289
daum.8025188	우도팔경유람선	33.47289056	126.9346541		여행	관광/명소	투어버스/유람선/관광열차	대한민국	제주특별자치도	서귀포시	성산읍 성산리 	{""weekDayOpen"":""14:40"",""weekDayOpenHour"":14.666666666666666,""weekDayClose"":""16:20"",""weekDayCloseHour"":16.333333333333332,""saturdayOpen"":""14:40"",""saturdayOpenHour"":14.666666666666666,""saturdayClose"":""16:20"",""saturdayCloseHour"":16.333333333333332,""sundayOpen"":""14:40"",""sundayOpenHour"":14.666666666666666,""sundayClose"":""16:20"",""sundayCloseHour"":16.333333333333332}	{""weeklyClosingDays"":[],""monthlyClosingDayOfWeeks"":[],""yearlyClosingDays"":[]}	-1	15000	[]	0	1	0.083333333	http://place.map.daum.net/8025188
daum.12979413	붉은오름자연휴양림	33.401436	126.6753706		여행	관광/명소	휴양림/숲길걷기	대한민국	제주특별자치도	서귀포시	표선면 가시리 산158 	{""weekDayOpen"":""9:00"",""weekDayOpenHour"":9.0,""weekDayClose"":""18:00"",""weekDayCloseHour"":18.0,""saturdayOpen"":""9:00"",""saturdayOpenHour"":9.0,""saturdayClose"":""18:00"",""saturdayCloseHour"":18.0,""sundayOpen"":""9:00"",""sundayOpenHour"":9.0,""sundayClose"":""18:00"",""sundayCloseHour"":18.0}	{""weeklyClosingDays"":[],""monthlyClosingDayOfWeeks"":[],""yearlyClosingDays"":[]}	-1	1000	[]	0	0.833333333	0.166666667	http://place.map.daum.net/12979413
daum.11023307	금능석물원	33.38516946	126.2272094		여행	관광/명소	미술관/박물관	대한민국	제주특별자치도	제주시	한림읍 금능리 1282-9 	{""weekDayOpen"":""8:30"",""weekDayOpenHour"":8.5,""weekDayClose"":""18:00"",""weekDayCloseHour"":18.0,""saturdayOpen"":""8:30"",""saturdayOpenHour"":8.5,""saturdayClose"":""18:00"",""saturdayCloseHour"":18.0,""sundayOpen"":""8:30"",""sundayOpenHour"":8.5,""sundayClose"":""18:00"",""sundayCloseHour"":18.0}	{""weeklyClosingDays"":[],""monthlyClosingDayOfWeeks"":[],""yearlyClosingDays"":[]}	-1	4000	[]	10	1	0.166666667	http://place.map.daum.net/11023307
daum.12721319	노루생태관찰원	33.44435985	126.6266727		여행	관광/명소	테마파크	대한민국	제주특별자치도	제주시	봉개동 산51-2 	{""weekDayOpen"":""9:00"",""weekDayOpenHour"":9.0,""weekDayClose"":""17:00"",""weekDayCloseHour"":17.0,""saturdayOpen"":""9:00"",""saturdayOpenHour"":9.0,""saturdayClose"":""17:00"",""saturdayCloseHour"":17.0,""sundayOpen"":""9:00"",""sundayOpenHour"":9.0,""sundayClose"":""17:00"",""sundayCloseHour"":17.0}	{""weeklyClosingDays"":[],""monthlyClosingDayOfWeeks"":[],""yearlyClosingDays"":[]}	-1	0	[]	0	0.666666667	0.083333333	http://place.map.daum.net/12721319
daum.8577982	제주미니랜드	33.43341894	126.6743784		여행	관광/명소	테마파크	대한민국	제주특별자치도	제주시	조천읍 교래리 산56-4 	{""weekDayOpenHour"":0.0,""weekDayCloseHour"":0.0,""saturdayOpenHour"":0.0,""saturdayCloseHour"":0.0,""sundayOpenHour"":0.0,""sundayCloseHour"":0.0}	{""weeklyClosingDays"":[],""monthlyClosingDayOfWeeks"":[],""yearlyClosingDays"":[]}	-1	-1	[]	8.2	1	0.0256	http://place.map.daum.net/8577982
daum.8092604	천제연폭포	33.25148486	126.4172673		여행	관광/명소	폭포/계곡	대한민국	제주특별자치도	서귀포시	색달동 3381-1 중문관광단지 내 	{""weekDayOpen"":""8:00"",""weekDayOpenHour"":8.0,""weekDayClose"":""18:00"",""weekDayCloseHour"":18.0,""saturdayOpen"":""8:00"",""saturdayOpenHour"":8.0,""saturdayClose"":""18:00"",""saturdayCloseHour"":18.0,""sundayOpen"":""8:00"",""sundayOpenHour"":8.0,""sundayClose"":""18:00"",""sundayCloseHour"":18.0}	{""weeklyClosingDays"":[],""monthlyClosingDayOfWeeks"":[],""yearlyClosingDays"":[]}	-1	2500	[]	7	0.666666667	0.2	http://place.map.daum.net/8092604
daum.8086164	신산공원	33.50697814	126.5331758		여행	관광/명소	공원	대한민국	제주특별자치도	제주시	일도2동 879 	{""weekDayOpen"":""7:30"",""weekDayOpenHour"":7.5,""weekDayClose"":""18:00"",""weekDayCloseHour"":18.0,""saturdayOpen"":""7:30"",""saturdayOpenHour"":7.5,""saturdayClose"":""18:00"",""saturdayCloseHour"":18.0,""sundayOpen"":""7:30"",""sundayOpenHour"":7.5,""sundayClose"":""18:00"",""sundayCloseHour"":18.0}	{""weeklyClosingDays"":[],""monthlyClosingDayOfWeeks"":[],""yearlyClosingDays"":[]}	-1	0	[]	7.5	0.5	0.083333333	http://place.map.daum.net/8086164
daum.11255609	제주중문관광단지	33.24582086	126.4207385		여행	관광/명소	관광단지	대한민국	제주특별자치도	서귀포시	중문동 2571 	{""weekDayOpenHour"":0.0,""weekDayCloseHour"":0.0,""saturdayOpenHour"":0.0,""saturdayCloseHour"":0.0,""sundayOpenHour"":0.0,""sundayCloseHour"":0.0}	{""weeklyClosingDays"":[],""monthlyClosingDayOfWeeks"":[],""yearlyClosingDays"":[]}	-1	-1	[]	0	1	0.0256	http://place.map.daum.net/11255609
daum.8178347	휴애리	33.3093023	126.6354231		여행	관광/명소	테마파크	대한민국	제주특별자치도	서귀포시	남원읍 신례리 2081 	{""weekDayOpen"":""9:00"",""weekDayOpenHour"":9.0,""weekDayClose"":""16:00"",""weekDayCloseHour"":16.0,""saturdayOpen"":""9:00"",""saturdayOpenHour"":9.0,""saturdayClose"":""16:00"",""saturdayCloseHour"":16.0,""sundayOpen"":""9:00"",""sundayOpenHour"":9.0,""sundayClose"":""16:00"",""sundayCloseHour"":16.0}	{""weeklyClosingDays"":[],""monthlyClosingDayOfWeeks"":[],""yearlyClosingDays"":[]}	-1	11000	[]	7.6	1.5	0.25	http://place.map.daum.net/8178347
daum.10516904	색달해안갯깍 주상절리대	33.24143135	126.3978705		여행	관광/명소	바위	대한민국	제주특별자치도	서귀포시	색달동	{""weekDayOpenHour"":0.0,""weekDayCloseHour"":0.0,""saturdayOpenHour"":0.0,""saturdayCloseHour"":0.0,""sundayOpenHour"":0.0,""sundayCloseHour"":0.0}	{""weeklyClosingDays"":[],""monthlyClosingDayOfWeeks"":[],""yearlyClosingDays"":[]}	-1	-1	[]	0	1	0.0256	http://place.map.daum.net/10516904
daum.8228030	녹하지악	33.30446216	126.4308909		여행	관광/명소	오름	대한민국	제주특별자치도	서귀포시	중문동 산5 	{""weekDayOpenHour"":0.0,""weekDayCloseHour"":0.0,""saturdayOpenHour"":0.0,""saturdayCloseHour"":0.0,""sundayOpenHour"":0.0,""sundayCloseHour"":0.0}	{""weeklyClosingDays"":[],""monthlyClosingDayOfWeeks"":[],""yearlyClosingDays"":[]}	-1	-1	[]	0	1	0.0256	http://place.map.daum.net/8228030
daum.8335690	동백동산	33.5164508	126.7160285		여행	관광/명소	산봉우리/등산로	대한민국	제주특별자치도	제주시	조천읍 선흘리 산12 	{""weekDayOpen"":""9:00"",""weekDayOpenHour"":9.0,""weekDayClose"":""18:00"",""weekDayCloseHour"":18.0,""saturdayOpen"":""9:00"",""saturdayOpenHour"":9.0,""saturdayClose"":""18:00"",""saturdayCloseHour"":18.0,""sundayOpen"":""9:00"",""sundayOpenHour"":9.0,""sundayClose"":""18:00"",""sundayCloseHour"":18.0}	{""weeklyClosingDays"":[],""monthlyClosingDayOfWeeks"":[],""yearlyClosingDays"":[]}	-1	0	[]	10	2	0.333333333	http://place.map.daum.net/8335690
daum.17758090	한화아쿠아플라넷 제주	33.43305363	126.9278792		여행	문화시설	아쿠아리움	대한민국	제주특별자치도	서귀포시	성산읍 고성리 127-1 	{""weekDayOpen"":""10:00"",""weekDayOpenHour"":10.0,""weekDayClose"":""19:00"",""weekDayCloseHour"":19.0,""saturdayOpen"":""10:00"",""saturdayOpenHour"":10.0,""saturdayClose"":""19:00"",""saturdayCloseHour"":19.0,""sundayOpen"":""10:00"",""sundayOpenHour"":10.0,""sundayClose"":""19:00"",""sundayCloseHour"":19.0}	{""weeklyClosingDays"":[],""monthlyClosingDayOfWeeks"":[],""yearlyClosingDays"":[]}	-1	39200	[]	4.4	1	0.166666667	http://place.map.daum.net/17758090
daum.8064310	유리의성	33.31466396	126.2736897		여행	관광/명소	테마파크	대한민국	제주특별자치도	제주시	한경면 저지리 3135-1 	{""weekDayOpen"":""9:00"",""weekDayOpenHour"":9.0,""weekDayClose"":""19:00"",""weekDayCloseHour"":19.0,""saturdayOpen"":""9:00"",""saturdayOpenHour"":9.0,""saturdayClose"":""19:00"",""saturdayCloseHour"":19.0,""sundayOpen"":""9:00"",""sundayOpenHour"":9.0,""sundayClose"":""19:00"",""sundayCloseHour"":19.0}	{""weeklyClosingDays"":[],""monthlyClosingDayOfWeeks"":[],""yearlyClosingDays"":[]}	-1	11000	[]	7	1.5	0.25	http://place.map.daum.net/8064310
daum.17809089	베릿네오름	33.24733194	126.4215055		여행	관광/명소	오름	대한민국	제주특별자치도	서귀포시	중문동 3712 	{""weekDayOpenHour"":0.0,""weekDayCloseHour"":0.0,""saturdayOpenHour"":0.0,""saturdayCloseHour"":0.0,""sundayOpenHour"":0.0,""sundayCloseHour"":0.0}	{""weeklyClosingDays"":[],""monthlyClosingDayOfWeeks"":[],""yearlyClosingDays"":[]}	-1	-1	[]	0	1	0.0256	http://place.map.daum.net/17809089
daum.13723603	금능으뜸원해변	33.38991463	126.2352325		여행	관광/명소	해수욕장,해변	대한민국	제주특별자치도	제주시	한림읍 협재리 	{""weekDayOpenHour"":0.0,""weekDayCloseHour"":0.0,""saturdayOpenHour"":0.0,""saturdayCloseHour"":0.0,""sundayOpenHour"":0.0,""sundayCloseHour"":0.0}	{""weeklyClosingDays"":[],""monthlyClosingDayOfWeeks"":[],""yearlyClosingDays"":[]}	-1	-1	[]	9.7	1	0.0256	http://place.map.daum.net/13723603
daum.17600274	월정리해수욕장	33.55646939	126.7958051		여행	관광/명소	해수욕장/해변	대한민국	제주특별자치도	제주시	구좌읍 월정리 33-3 	{""weekDayOpen"":""7:30"",""weekDayOpenHour"":7.5,""weekDayClose"":""20:00"",""weekDayCloseHour"":20.0,""saturdayOpen"":""7:30"",""saturdayOpenHour"":7.5,""saturdayClose"":""20:00"",""saturdayCloseHour"":20.0,""sundayOpen"":""7:30"",""sundayOpenHour"":7.5,""sundayClose"":""20:00"",""sundayCloseHour"":20.0}	{""weeklyClosingDays"":[],""monthlyClosingDayOfWeeks"":[],""yearlyClosingDays"":[]}	-1	1000	[]	10	0.833333333	0.166666667	http://place.map.daum.net/17600274
daum.12721329	천제연난대림	33.25287509	126.4176358		여행	관광/명소	숲	대한민국	제주특별자치도	서귀포시	중문동 2785-1 	{""weekDayOpenHour"":0.0,""weekDayCloseHour"":0.0,""saturdayOpenHour"":0.0,""saturdayCloseHour"":0.0,""sundayOpenHour"":0.0,""sundayCloseHour"":0.0}	{""weeklyClosingDays"":[],""monthlyClosingDayOfWeeks"":[],""yearlyClosingDays"":[]}	-1	-1	[]	0	1	0.0256	http://place.map.daum.net/12721329
daum.8067847	제주마방목지	33.42725344	126.6030774		여행	관광/명소	테마파크	대한민국	제주특별자치도	제주시	용강동	{""weekDayOpen"":""7:30"",""weekDayOpenHour"":7.5,""weekDayClose"":""18:00"",""weekDayCloseHour"":18.0,""saturdayOpen"":""7:30"",""saturdayOpenHour"":7.5,""saturdayClose"":""18:00"",""saturdayCloseHour"":18.0,""sundayOpen"":""7:30"",""sundayOpenHour"":7.5,""sundayClose"":""18:00"",""sundayCloseHour"":18.0}	{""weeklyClosingDays"":[],""monthlyClosingDayOfWeeks"":[],""yearlyClosingDays"":[]}	-1	0	[]	0	0.5	0.083333333	http://place.map.daum.net/8067847
daum.19763694	환상숲곶자왈공원	33.32290672	126.2630279		여행	관광/명소	공원	대한민국	제주특별자치도	제주시	한경면 저지리 2848-2 	{""weekDayOpen"":""9:00"",""weekDayOpenHour"":9.0,""weekDayClose"":""18:00"",""weekDayCloseHour"":18.0,""saturdayOpen"":""9:00"",""saturdayOpenHour"":9.0,""saturdayClose"":""18:00"",""saturdayCloseHour"":18.0,""sundayOpen"":""9:00"",""sundayOpenHour"":9.0,""sundayClose"":""18:00"",""sundayCloseHour"":18.0}	{""weeklyClosingDays"":[],""monthlyClosingDayOfWeeks"":[],""yearlyClosingDays"":[]}	-1	5000	[]	9.6	1	0.166666667	http://place.map.daum.net/19763694
daum.8523750	이중섭거리	33.24565245	126.564181		여행	관광/명소	테마거리	대한민국	제주특별자치도	서귀포시	서귀동 512 일대 	{""weekDayOpenHour"":0.0,""weekDayCloseHour"":0.0,""saturdayOpenHour"":0.0,""saturdayCloseHour"":0.0,""sundayOpenHour"":0.0,""sundayCloseHour"":0.0}	{""weeklyClosingDays"":[],""monthlyClosingDayOfWeeks"":[],""yearlyClosingDays"":[]}	-1	-1	[]	4	1	0.0256	http://place.map.daum.net/8523750
daum.8559375	테디베어뮤지엄 제주점	33.25029595	126.4121631		여행	관광/명소	미술관/박물관	대한민국	제주특별자치도	서귀포시	색달동 2889 중문관광단지내 	{""weekDayOpen"":""9:00"",""weekDayOpenHour"":9.0,""weekDayClose"":""17:30"",""weekDayCloseHour"":17.5,""saturdayOpen"":""9:00"",""saturdayOpenHour"":9.0,""saturdayClose"":""17:30"",""saturdayCloseHour"":17.5,""sundayOpen"":""9:00"",""sundayOpenHour"":9.0,""sundayClose"":""17:30"",""sundayCloseHour"":17.5}	{""weeklyClosingDays"":[],""monthlyClosingDayOfWeeks"":[],""yearlyClosingDays"":[]}	-1	7500	[]	6	1	0.166666667	http://place.map.daum.net/8559375
daum.8008273	엉또폭포	33.26855019	126.4999654		여행	관광/명소	폭포/계곡	대한민국	제주특별자치도	서귀포시	강정동 1587 	{""weekDayOpen"":""9:00"",""weekDayOpenHour"":9.0,""weekDayClose"":""18:00"",""weekDayCloseHour"":18.0,""saturdayOpen"":""9:00"",""saturdayOpenHour"":9.0,""saturdayClose"":""18:00"",""saturdayCloseHour"":18.0,""sundayOpen"":""9:00"",""sundayOpenHour"":9.0,""sundayClose"":""18:00"",""sundayCloseHour"":18.0}	{""weeklyClosingDays"":[],""monthlyClosingDayOfWeeks"":[],""yearlyClosingDays"":[]}	-1	0	[]	9	0.333333333	0.083333333	http://place.map.daum.net/8008273
daum.8100102	천지연폭포	33.24719429	126.5545246		여행	관광/명소	폭포/계곡	대한민국	제주특별자치도	서귀포시	서귀동 973-1 	{""weekDayOpen"":""7:30"",""weekDayOpenHour"":7.5,""weekDayClose"":""20:00"",""weekDayCloseHour"":20.0,""saturdayOpen"":""7:30"",""saturdayOpenHour"":7.5,""saturdayClose"":""20:00"",""saturdayCloseHour"":20.0,""sundayOpen"":""7:30"",""sundayOpenHour"":7.5,""sundayClose"":""20:00"",""sundayCloseHour"":20.0}	{""weeklyClosingDays"":[],""monthlyClosingDayOfWeeks"":[],""yearlyClosingDays"":[]}	-1	2000	[]	8	0.666666667	0.166666667	http://place.map.daum.net/8100102
daum.25274725	새별오름	33.36619365	126.3577119		여행	관광/명소	산봉우리/등산로	대한민국	제주특별자치도	제주시	애월읍 봉성리 산59-3 	{""weekDayOpen"":""7:30"",""weekDayOpenHour"":7.5,""weekDayClose"":""18:00"",""weekDayCloseHour"":18.0,""saturdayOpen"":""7:30"",""saturdayOpenHour"":7.5,""saturdayClose"":""18:00"",""saturdayCloseHour"":18.0,""sundayOpen"":""7:30"",""sundayOpenHour"":7.5,""sundayClose"":""18:00"",""sundayCloseHour"":18.0}	{""weeklyClosingDays"":[],""monthlyClosingDayOfWeeks"":[],""yearlyClosingDays"":[]}	-1	0	[]	9.2	1	0.166666667	http://place.map.daum.net/25274725
daum.7863269	만장굴	33.52811025	126.7698977		여행	관광/명소	동굴	대한민국	제주특별자치도	제주시	구좌읍 월정리 산41-35 	{""weekDayOpen"":""9:00"",""weekDayOpenHour"":9.0,""weekDayClose"":""18:00"",""weekDayCloseHour"":18.0,""saturdayOpen"":""9:00"",""saturdayOpenHour"":9.0,""saturdayClose"":""18:00"",""saturdayCloseHour"":18.0,""sundayOpen"":""9:00"",""sundayOpenHour"":9.0,""sundayClose"":""18:00"",""sundayCloseHour"":18.0}	{""weeklyClosingDays"":[],""monthlyClosingDayOfWeeks"":[],""yearlyClosingDays"":[]}	-1	2000	[]	6.7	0.5	0.166666667	http://place.map.daum.net/7863269
daum.8413659	섭지코지	33.42393807	126.9306092		여행	관광/명소	자연경관	대한민국	제주특별자치도	서귀포시	성산읍 고성리 87 	{""weekDayOpen"":""10:00"",""weekDayOpenHour"":10.0,""weekDayClose"":""18:00"",""weekDayCloseHour"":18.0,""saturdayOpen"":""10:00"",""saturdayOpenHour"":10.0,""saturdayClose"":""18:00"",""saturdayCloseHour"":18.0,""sundayOpen"":""10:00"",""sundayOpenHour"":10.0,""sundayClose"":""18:00"",""sundayCloseHour"":18.0}	{""weeklyClosingDays"":[],""monthlyClosingDayOfWeeks"":[],""yearlyClosingDays"":[]}	-1	1000	[]	8.7	0.833333333	0.166666667	http://place.map.daum.net/8413659
daum.8148451	함덕서우봉해변	33.54364392	126.669887		여행	관광/명소	해수욕장/해변	대한민국	제주특별자치도	제주시	조천읍 함덕리 	{""weekDayOpen"":""5:30"",""weekDayOpenHour"":5.5,""weekDayClose"":""19:30"",""weekDayCloseHour"":19.5,""saturdayOpen"":""5:30"",""saturdayOpenHour"":5.5,""saturdayClose"":""19:30"",""saturdayCloseHour"":19.5,""sundayOpen"":""5:30"",""sundayOpenHour"":5.5,""sundayClose"":""19:30"",""sundayCloseHour"":19.5}	{""weeklyClosingDays"":[],""monthlyClosingDayOfWeeks"":[],""yearlyClosingDays"":[]}	-1	0	[]	7.8	0.75	0.25	http://place.map.daum.net/8148451
daum.10574639	한라산 어승생악	33.39638105	126.489307		여행	관광/명소	산봉우리/등산로	대한민국	제주특별자치도	제주시	해안동 산218 	{""weekDayOpen"":""7:30"",""weekDayOpenHour"":7.5,""weekDayClose"":""18:00"",""weekDayCloseHour"":18.0,""saturdayOpen"":""7:30"",""saturdayOpenHour"":7.5,""saturdayClose"":""18:00"",""saturdayCloseHour"":18.0,""sundayOpen"":""7:30"",""sundayOpenHour"":7.5,""sundayClose"":""18:00"",""sundayCloseHour"":18.0}	{""weeklyClosingDays"":[],""monthlyClosingDayOfWeeks"":[],""yearlyClosingDays"":[]}	-1	0	[]	10	1	0.166666667	http://place.map.daum.net/10574639
daum.13095815	메이즈랜드	33.48825545	126.8008719		여행	관광/명소	테마파크	대한민국	제주특별자치도	제주시	구좌읍 평대리 3322 	{""weekDayOpen"":""9:00"",""weekDayOpenHour"":9.0,""weekDayClose"":""17:30"",""weekDayCloseHour"":17.5,""saturdayOpen"":""9:00"",""saturdayOpenHour"":9.0,""saturdayClose"":""17:30"",""saturdayCloseHour"":17.5,""sundayOpen"":""9:00"",""sundayOpenHour"":9.0,""sundayClose"":""17:30"",""sundayCloseHour"":17.5}	{""weeklyClosingDays"":[],""monthlyClosingDayOfWeeks"":[],""yearlyClosingDays"":[]}	-1	9000	[]	8	1	0.5	http://place.map.daum.net/13095815
daum.10399499	일출랜드	33.38336291	126.8415984		여행	관광/명소	테마파크	대한민국	제주특별자치도	서귀포시	성산읍 삼달리 1010 	{""weekDayOpen"":""8:30"",""weekDayOpenHour"":8.5,""weekDayClose"":""18:00"",""weekDayCloseHour"":18.0,""saturdayOpen"":""8:30"",""saturdayOpenHour"":8.5,""saturdayClose"":""18:00"",""saturdayCloseHour"":18.0,""sundayOpen"":""8:30"",""sundayOpenHour"":8.5,""sundayClose"":""18:00"",""sundayCloseHour"":18.0}	{""weeklyClosingDays"":[],""monthlyClosingDayOfWeeks"":[],""yearlyClosingDays"":[]}	-1	9000	[]	6.5	3	0.333333333	http://place.map.daum.net/10399499
daum.8192179	국립제주박물관	33.51359629	126.5488761		여행	문화시설	미술관/박물관	대한민국	제주특별자치도	제주시	건입동 261 	{""weekDayOpen"":""9:00"",""weekDayOpenHour"":9.0,""weekDayClose"":""18:00"",""weekDayCloseHour"":18.0,""saturdayOpen"":""9:00"",""saturdayOpenHour"":9.0,""saturdayClose"":""18:00"",""saturdayCloseHour"":18.0,""sundayOpen"":""9:00"",""sundayOpenHour"":9.0,""sundayClose"":""18:00"",""sundayCloseHour"":18.0}	{""weeklyClosingDays"":[""Monday""],""monthlyClosingDayOfWeeks"":[],""yearlyClosingDays"":[""1월1일 휴관""]}	-1	0	[]	7.2	0.666666667	0.083333333	http://place.map.daum.net/8192179
daum.7964906	소정방폭포	33.24522641	126.5776345		여행	관광/명소	폭포/계곡	대한민국	제주특별자치도	서귀포시	서귀동	{""weekDayOpen"":""7:30"",""weekDayOpenHour"":7.5,""weekDayClose"":""18:00"",""weekDayCloseHour"":18.0,""saturdayOpen"":""7:30"",""saturdayOpenHour"":7.5,""saturdayClose"":""18:00"",""saturdayCloseHour"":18.0,""sundayOpen"":""7:30"",""sundayOpenHour"":7.5,""sundayClose"":""18:00"",""sundayCloseHour"":18.0}	{""weeklyClosingDays"":[],""monthlyClosingDayOfWeeks"":[],""yearlyClosingDays"":[]}	-1	0	[]	10	0.5	0.166666667	http://place.map.daum.net/7964906
daum.10801589	제주도립미술관	33.45258465	126.4896447		여행	문화시설	미술관/박물관	대한민국	제주특별자치도	제주시	연동 680-7 	{""weekDayOpen"":""9:00"",""weekDayOpenHour"":9.0,""weekDayClose"":""18:00"",""weekDayCloseHour"":18.0,""saturdayOpen"":""9:00"",""saturdayOpenHour"":9.0,""saturdayClose"":""18:00"",""saturdayCloseHour"":18.0,""sundayOpen"":""9:00"",""sundayOpenHour"":9.0,""sundayClose"":""18:00"",""sundayCloseHour"":18.0}	{""weeklyClosingDays"":[""Monday""],""monthlyClosingDayOfWeeks"":[],""yearlyClosingDays"":[""추석"",""1월1일"",""설날 및 추석연휴""]}	-1	1000	[]	8	0.833333333	0.166666667	http://place.map.daum.net/10801589
daum.8552559	이호테우해변	33.49717732	126.4516203		여행	관광/명소	해수욕장/해변	대한민국	제주특별자치도	제주시	이호1동 1600 	{""weekDayOpen"":""7:30"",""weekDayOpenHour"":7.5,""weekDayClose"":""20:00"",""weekDayCloseHour"":20.0,""saturdayOpen"":""7:30"",""saturdayOpenHour"":7.5,""saturdayClose"":""20:00"",""saturdayCloseHour"":20.0,""sundayOpen"":""7:30"",""sundayOpenHour"":7.5,""sundayClose"":""20:00"",""sundayCloseHour"":20.0}	{""weeklyClosingDays"":[],""monthlyClosingDayOfWeeks"":[],""yearlyClosingDays"":[]}	-1	1000	[]	9.7	0.5	0.166666667	http://place.map.daum.net/8552559
daum.23972751	감귤 박물관	33.27156161	126.607467		여행	문화시설	미술관/박물관	대한민국	제주특별자치도	서귀포시	신효동 산4 	{""weekDayOpen"":""9:00"",""weekDayOpenHour"":9.0,""weekDayClose"":""18:00"",""weekDayCloseHour"":18.0,""saturdayOpen"":""9:00"",""saturdayOpenHour"":9.0,""saturdayClose"":""18:00"",""saturdayCloseHour"":18.0,""sundayOpen"":""9:00"",""sundayOpenHour"":9.0,""sundayClose"":""18:00"",""sundayCloseHour"":18.0}	{""weeklyClosingDays"":[],""monthlyClosingDayOfWeeks"":[],""yearlyClosingDays"":[""추석"",""설날"",""공휴일"",""매주 토일요일"",""1월1일""]}	-1	1500	[]	7.8	1	0.166666667	http://place.map.daum.net/23972751
daum.14794381	대정향교	33.23954399	126.288384		여행	관광/명소	역사유적	대한민국	제주특별자치도	서귀포시	안덕면 사계리 3126-1 	{""weekDayOpen"":""9:00"",""weekDayOpenHour"":9.0,""weekDayClose"":""17:30"",""weekDayCloseHour"":17.5,""saturdayOpen"":""9:00"",""saturdayOpenHour"":9.0,""saturdayClose"":""17:30"",""saturdayCloseHour"":17.5,""sundayOpen"":""9:00"",""sundayOpenHour"":9.0,""sundayClose"":""17:30"",""sundayCloseHour"":17.5}	{""weeklyClosingDays"":[],""monthlyClosingDayOfWeeks"":[],""yearlyClosingDays"":[]}	-1	0	[]	0	0.5	0.166666667	http://place.map.daum.net/14794381
daum.10706886	용머리해안	33.23165676	126.3147366		여행	관광/명소	자연경관	대한민국	제주특별자치도	서귀포시	안덕면 사계리 	{""weekDayOpen"":""9:00"",""weekDayOpenHour"":9.0,""weekDayClose"":""17:30"",""weekDayCloseHour"":17.5,""saturdayOpen"":""9:00"",""saturdayOpenHour"":9.0,""saturdayClose"":""17:30"",""saturdayCloseHour"":17.5,""sundayOpen"":""9:00"",""sundayOpenHour"":9.0,""sundayClose"":""17:30"",""sundayCloseHour"":17.5}	{""weeklyClosingDays"":[],""monthlyClosingDayOfWeeks"":[],""yearlyClosingDays"":[]}	-1	2500	[]	9	0.5	0.166666667	http://place.map.daum.net/10706886
daum.8641180	한라수목원	33.46973703	126.4932621		여행	관광/명소	수목원/식물원	대한민국	제주특별자치도	제주시	연동 산63-2 	{""weekDayOpen"":""9:00"",""weekDayOpenHour"":9.0,""weekDayClose"":""18:00"",""weekDayCloseHour"":18.0,""saturdayOpen"":""9:00"",""saturdayOpenHour"":9.0,""saturdayClose"":""18:00"",""saturdayCloseHour"":18.0,""sundayOpen"":""9:00"",""sundayOpenHour"":9.0,""sundayClose"":""18:00"",""sundayCloseHour"":18.0}	{""weeklyClosingDays"":[],""monthlyClosingDayOfWeeks"":[],""yearlyClosingDays"":[]}	-1	0	[]	9.3	1	0.166666667	http://place.map.daum.net/8641180
daum.11280008	산굼부리	33.43255986	126.6939095		여행	관광/명소	산봉우리/등산로	대한민국	제주특별자치도	제주시	조천읍 교래리 산38 	{""weekDayOpen"":""9:00"",""weekDayOpenHour"":9.0,""weekDayClose"":""17:00"",""weekDayCloseHour"":17.0,""saturdayOpen"":""9:00"",""saturdayOpenHour"":9.0,""saturdayClose"":""17:00"",""saturdayCloseHour"":17.0,""sundayOpen"":""9:00"",""sundayOpenHour"":9.0,""sundayClose"":""17:00"",""sundayCloseHour"":17.0}	{""weeklyClosingDays"":[],""monthlyClosingDayOfWeeks"":[],""yearlyClosingDays"":[]}	-1	6000	[]	8	0.666666667	0.166666667	http://place.map.daum.net/11280008
daum.14080134	산방산사랑의유람선	33.23701554	126.3352602		여행	관광/명소	투어버스/유람선/관광열차	대한민국	제주특별자치도	서귀포시	안덕면 화순리 636-15 	{""weekDayOpen"":""11:20"",""weekDayOpenHour"":11.333333333333334,""weekDayClose"":""16:30"",""weekDayCloseHour"":16.5,""saturdayOpen"":""11:20"",""saturdayOpenHour"":11.333333333333334,""saturdayClose"":""16:30"",""saturdayCloseHour"":16.5,""sundayOpen"":""11:20"",""sundayOpenHour"":11.333333333333334,""sundayClose"":""16:30"",""sundayCloseHour"":16.5}	{""weeklyClosingDays"":[],""monthlyClosingDayOfWeeks"":[],""yearlyClosingDays"":[]}	-1	15000	[]	10	1	0.5	http://place.map.daum.net/14080134
daum.10773441	지미봉	33.49960787	126.9030165		여행	관광/명소	산봉우리/등산로	대한민국	제주특별자치도	제주시	구좌읍 종달리 산3-1 	{""weekDayOpen"":""7:30"",""weekDayOpenHour"":7.5,""weekDayClose"":""18:00"",""weekDayCloseHour"":18.0,""saturdayOpen"":""7:30"",""saturdayOpenHour"":7.5,""saturdayClose"":""18:00"",""saturdayCloseHour"":18.0,""sundayOpen"":""7:30"",""sundayOpenHour"":7.5,""sundayClose"":""18:00"",""sundayCloseHour"":18.0}	{""weeklyClosingDays"":[],""monthlyClosingDayOfWeeks"":[],""yearlyClosingDays"":[]}	-1	0	[]	10	1	0.166666667	http://place.map.daum.net/10773441
daum.8318319	백약이오름	33.43680941	126.7897582		여행	관광/명소	산봉우리/등산로	대한민국	제주특별자치도	서귀포시	표선면 성읍리 산1 	{""weekDayOpen"":""7:30"",""weekDayOpenHour"":7.5,""weekDayClose"":""18:00"",""weekDayCloseHour"":18.0,""saturdayOpen"":""7:30"",""saturdayOpenHour"":7.5,""saturdayClose"":""18:00"",""saturdayCloseHour"":18.0,""sundayOpen"":""7:30"",""sundayOpenHour"":7.5,""sundayClose"":""18:00"",""sundayCloseHour"":18.0}	{""weeklyClosingDays"":[],""monthlyClosingDayOfWeeks"":[],""yearlyClosingDays"":[]}	-1	0	[]	8.8	1	0.166666667	http://place.map.daum.net/8318319
daum.11294440	남원큰엉해안경승지	33.27333215	126.7037144		여행	관광/명소	자연경관	대한민국	제주특별자치도	서귀포시	남원읍 남원리 	{""weekDayOpen"":""7:30"",""weekDayOpenHour"":7.5,""weekDayClose"":""18:00"",""weekDayCloseHour"":18.0,""saturdayOpen"":""7:30"",""saturdayOpenHour"":7.5,""saturdayClose"":""18:00"",""saturdayCloseHour"":18.0,""sundayOpen"":""7:30"",""sundayOpenHour"":7.5,""sundayClose"":""18:00"",""sundayCloseHour"":18.0}	{""weeklyClosingDays"":[],""monthlyClosingDayOfWeeks"":[],""yearlyClosingDays"":[]}	-1	0	[]	0	0.5	0.083333333	http://place.map.daum.net/11294440
daum.10147984	곽지과물해변	33.45094384	126.304929		여행	관광/명소	해수욕장/해변	대한민국	제주특별자치도	제주시	애월읍 곽지리 	{""weekDayOpen"":""7:30"",""weekDayOpenHour"":7.5,""weekDayClose"":""20:00"",""weekDayCloseHour"":20.0,""saturdayOpen"":""7:30"",""saturdayOpenHour"":7.5,""saturdayClose"":""20:00"",""saturdayCloseHour"":20.0,""sundayOpen"":""7:30"",""sundayOpenHour"":7.5,""sundayClose"":""20:00"",""sundayCloseHour"":20.0}	{""weeklyClosingDays"":[],""monthlyClosingDayOfWeeks"":[],""yearlyClosingDays"":[]}	-1	1000	[]	9.4	0.5	0.166666667	http://place.map.daum.net/10147984
daum.8222476	김영갑갤러리두모악	33.37189523	126.8541359		여행	문화시설	미술관/박물관	대한민국	제주특별자치도	서귀포시	성산읍 삼달리 437-5 	{""weekDayOpen"":""9:30"",""weekDayOpenHour"":9.5,""weekDayClose"":""18:00"",""weekDayCloseHour"":18.0,""saturdayOpen"":""9:30"",""saturdayOpenHour"":9.5,""saturdayClose"":""18:00"",""saturdayCloseHour"":18.0,""sundayOpen"":""9:30"",""sundayOpenHour"":9.5,""sundayClose"":""18:00"",""sundayCloseHour"":18.0}	{""weeklyClosingDays"":[""Wednesday""],""monthlyClosingDayOfWeeks"":[],""yearlyClosingDays"":[""설날"",""추석 당일""]}	-1	3000	[]	9.7	0.5	0.083333333	http://place.map.daum.net/8222476
daum.21627093	한라산국립공원 돈내코탐방로	33.33632146	126.5534785		여행	관광/명소	산봉우리/등산로	대한민국	제주특별자치도	서귀포시	토평동	{""weekDayOpen"":""6:30"",""weekDayOpenHour"":6.5,""weekDayClose"":""18:00"",""weekDayCloseHour"":18.0,""saturdayOpen"":""6:30"",""saturdayOpenHour"":6.5,""saturdayClose"":""18:00"",""saturdayCloseHour"":18.0,""sundayOpen"":""6:30"",""sundayOpenHour"":6.5,""sundayClose"":""18:00"",""sundayCloseHour"":18.0}	{""weeklyClosingDays"":[],""monthlyClosingDayOfWeeks"":[],""yearlyClosingDays"":[]}	-1	1800	[]	0	7	0.7	http://place.map.daum.net/21627093
daum.21627095	한라산국립공원 영실탐방로	33.35971337	126.5114438		여행	관광/명소	산봉우리/등산로	대한민국	제주특별자치도	서귀포시	토평동	{""weekDayOpen"":""6:30"",""weekDayOpenHour"":6.5,""weekDayClose"":""18:00"",""weekDayCloseHour"":18.0,""saturdayOpen"":""6:30"",""saturdayOpenHour"":6.5,""saturdayClose"":""18:00"",""saturdayCloseHour"":18.0,""sundayOpen"":""6:30"",""sundayOpenHour"":6.5,""sundayClose"":""18:00"",""sundayCloseHour"":18.0}	{""weeklyClosingDays"":[],""monthlyClosingDayOfWeeks"":[],""yearlyClosingDays"":[]}	-1	1800	[]	0	5	0.5	http://place.map.daum.net/21627095
daum.21627094	한라산국립공원 관음사탐방로	33.39083768	126.5380065		여행	관광/명소	산봉우리/등산로	대한민국	제주특별자치도	서귀포시	토평동	{""weekDayOpen"":""6:30"",""weekDayOpenHour"":6.5,""weekDayClose"":""18:00"",""weekDayCloseHour"":18.0,""saturdayOpen"":""6:30"",""saturdayOpenHour"":6.5,""saturdayClose"":""18:00"",""saturdayCloseHour"":18.0,""sundayOpen"":""6:30"",""sundayOpenHour"":6.5,""sundayClose"":""18:00"",""sundayCloseHour"":18.0}	{""weeklyClosingDays"":[],""monthlyClosingDayOfWeeks"":[],""yearlyClosingDays"":[]}	-1	1800	[]	0	10	1	http://place.map.daum.net/21627094
daum.21627096	한라산국립공원 어리목탐방로	33.36898409	126.508336		여행	관광/명소	산봉우리/등산로	대한민국	제주특별자치도	서귀포시	토평동	{""weekDayOpen"":""6:30"",""weekDayOpenHour"":6.5,""weekDayClose"":""18:00"",""weekDayCloseHour"":18.0,""saturdayOpen"":""6:30"",""saturdayOpenHour"":6.5,""saturdayClose"":""18:00"",""saturdayCloseHour"":18.0,""sundayOpen"":""6:30"",""sundayOpenHour"":6.5,""sundayClose"":""18:00"",""sundayCloseHour"":18.0}	{""weeklyClosingDays"":[],""monthlyClosingDayOfWeeks"":[],""yearlyClosingDays"":[]}	-1	1800	[]	0	6	0.6	http://place.map.daum.net/21627096
daum.25035440	외돌개	33.23939228	126.545251		여행	관광/명소	자연경관	대한민국	제주특별자치도	서귀포시	서홍동 791 	{""weekDayOpen"":""7:30"",""weekDayOpenHour"":7.5,""weekDayClose"":""18:00"",""weekDayCloseHour"":18.0,""saturdayOpen"":""7:30"",""saturdayOpenHour"":7.5,""saturdayClose"":""18:00"",""saturdayCloseHour"":18.0,""sundayOpen"":""7:30"",""sundayOpenHour"":7.5,""sundayClose"":""18:00"",""sundayCloseHour"":18.0}	{""weeklyClosingDays"":[],""monthlyClosingDayOfWeeks"":[],""yearlyClosingDays"":[]}	-1	1000	[]	8	0.5	0.166666667	http://place.map.daum.net/25035440
daum.10549277	쇠소깍	33.25460108	126.622923		여행	관광/명소	자연경관	대한민국	제주특별자치도	서귀포시	하효동	{""weekDayOpen"":""9:00"",""weekDayOpenHour"":9.0,""weekDayClose"":""17:30"",""weekDayCloseHour"":17.5,""saturdayOpen"":""9:00"",""saturdayOpenHour"":9.0,""saturdayClose"":""17:30"",""saturdayCloseHour"":17.5,""sundayOpen"":""9:00"",""sundayOpenHour"":9.0,""sundayClose"":""17:30"",""sundayCloseHour"":17.5}	{""weeklyClosingDays"":[],""monthlyClosingDayOfWeeks"":[],""yearlyClosingDays"":[]}	-1	6000	[]	10	0.666666667	0.333333333	http://place.map.daum.net/10549277
daum.12211943	산방산탄산온천	33.24888606	126.2987812		여행	관광/명소	온천	대한민국	제주특별자치도	서귀포시	안덕면 사계리 981 	{""weekDayOpen"":""5:00"",""weekDayOpenHour"":5.0,""weekDayClose"":""23:59"",""weekDayCloseHour"":23.983333333333334,""saturdayOpen"":""5:00"",""saturdayOpenHour"":5.0,""saturdayClose"":""23:59"",""saturdayCloseHour"":23.983333333333334,""sundayOpen"":""5:00"",""sundayOpenHour"":5.0,""sundayClose"":""23:59"",""sundayCloseHour"":23.983333333333334}	{""weeklyClosingDays"":[],""monthlyClosingDayOfWeeks"":[],""yearlyClosingDays"":[]}	-1	11000	[]	3.8	1.5	0.5	http://place.map.daum.net/12211943
daum.10941032	한림공원	33.3893688	126.2403102		여행	관광/명소	테마파크	대한민국	제주특별자치도	제주시	한림읍 협재리 2487 	{""weekDayOpen"":""8:30"",""weekDayOpenHour"":8.5,""weekDayClose"":""18:00"",""weekDayCloseHour"":18.0,""saturdayOpen"":""8:30"",""saturdayOpenHour"":8.5,""saturdayClose"":""18:00"",""saturdayCloseHour"":18.0,""sundayOpen"":""8:30"",""sundayOpenHour"":8.5,""sundayClose"":""18:00"",""sundayCloseHour"":18.0}	{""weeklyClosingDays"":[],""monthlyClosingDayOfWeeks"":[],""yearlyClosingDays"":[]}	-1	10000	[]	8.6	1.75	0.25	http://place.map.daum.net/10941032
daum.10289213	두산봉	33.47962407	126.8853895		여행	관광/명소	산봉우리/등산로	대한민국	제주특별자치도	제주시	구좌읍 종달리 산13-1 	{""weekDayOpen"":""7:30"",""weekDayOpenHour"":7.5,""weekDayClose"":""18:00"",""weekDayCloseHour"":18.0,""saturdayOpen"":""7:30"",""saturdayOpenHour"":7.5,""saturdayClose"":""18:00"",""saturdayCloseHour"":18.0,""sundayOpen"":""7:30"",""sundayOpenHour"":7.5,""sundayClose"":""18:00"",""sundayCloseHour"":18.0}	{""weeklyClosingDays"":[],""monthlyClosingDayOfWeeks"":[],""yearlyClosingDays"":[]}	-1	0	[]	6	1	0.166666667	http://place.map.daum.net/10289213
daum.8063566	제주민속촌박물관	33.32239234	126.842293		여행	문화시설	미술관/박물관	대한민국	제주특별자치도	서귀포시	표선면 표선리 40-1 	{""weekDayOpen"":""8:30"",""weekDayOpenHour"":8.5,""weekDayClose"":""17:00"",""weekDayCloseHour"":17.0,""saturdayOpen"":""8:30"",""saturdayOpenHour"":8.5,""saturdayClose"":""17:00"",""saturdayCloseHour"":17.0,""sundayOpen"":""8:30"",""sundayOpenHour"":8.5,""sundayClose"":""17:00"",""sundayCloseHour"":17.0}	{""weeklyClosingDays"":[],""monthlyClosingDayOfWeeks"":[],""yearlyClosingDays"":[]}	-1	10000	[]	10	1.5	0.25	http://place.map.daum.net/8063566
daum.17360759	별빛누리 공원	33.44518148	126.5494069		여행	관광/명소	공원	대한민국	제주특별자치도	제주시	오등동 산34 	{""weekDayOpen"":""14:00"",""weekDayOpenHour"":14.0,""weekDayClose"":""22:00"",""weekDayCloseHour"":22.0,""saturdayOpen"":""14:00"",""saturdayOpenHour"":14.0,""saturdayClose"":""22:00"",""saturdayCloseHour"":22.0,""sundayOpen"":""14:00"",""sundayOpenHour"":14.0,""sundayClose"":""22:00"",""sundayCloseHour"":22.0}	{""weeklyClosingDays"":[],""monthlyClosingDayOfWeeks"":[],""yearlyClosingDays"":[]}	-1	5000	[]	8.3	1.333333333	0.333333333	http://place.map.daum.net/17360759
daum.15786539	제주현대미술관	33.33966279	126.2655893		여행	문화시설	미술관/박물관	대한민국	제주특별자치도	제주시	한경면 저지리 2114-63 저지문화예술인마을 내 	{""weekDayOpen"":""9:00"",""weekDayOpenHour"":9.0,""weekDayClose"":""18:00"",""weekDayCloseHour"":18.0,""saturdayOpen"":""9:00"",""saturdayOpenHour"":9.0,""saturdayClose"":""18:00"",""saturdayCloseHour"":18.0,""sundayOpen"":""9:00"",""sundayOpenHour"":9.0,""sundayClose"":""18:00"",""sundayCloseHour"":18.0}	{""weeklyClosingDays"":[""Wednesday""],""monthlyClosingDayOfWeeks"":[],""yearlyClosingDays"":[""1월1일,설날,추석""]}	-1	1000	[]	9	0.833333333	0.166666667	http://place.map.daum.net/15786539
daum.14819290	도순설록다원	33.27307489	126.4828604		여행	관광/명소	관광농원	대한민국	제주특별자치도	서귀포시	도순동 1-1 	{""weekDayOpen"":""9:00"",""weekDayOpenHour"":9.0,""weekDayClose"":""18:00"",""weekDayCloseHour"":18.0,""saturdayOpen"":""9:00"",""saturdayOpenHour"":9.0,""saturdayClose"":""18:00"",""saturdayCloseHour"":18.0,""sundayOpen"":""9:00"",""sundayOpenHour"":9.0,""sundayClose"":""18:00"",""sundayCloseHour"":18.0}	{""weeklyClosingDays"":[],""monthlyClosingDayOfWeeks"":[],""yearlyClosingDays"":[]}	-1	0	[]	0	0.333333333	0.083333333	http://place.map.daum.net/14819290
daum.8042880	다랑쉬	33.47766962	126.8215274		여행	관광/명소	산봉우리/등산로	대한민국	제주특별자치도	제주시	구좌읍 세화리 산6 	{""weekDayOpen"":""7:30"",""weekDayOpenHour"":7.5,""weekDayClose"":""18:00"",""weekDayCloseHour"":18.0,""saturdayOpen"":""7:30"",""saturdayOpenHour"":7.5,""saturdayClose"":""18:00"",""saturdayCloseHour"":18.0,""sundayOpen"":""7:30"",""sundayOpenHour"":7.5,""sundayClose"":""18:00"",""sundayCloseHour"":18.0}	{""weeklyClosingDays"":[],""monthlyClosingDayOfWeeks"":[],""yearlyClosingDays"":[]}	-1	0	[]	10	1.333333333	0.25	http://place.map.daum.net/8042880
daum.25186462	군산	33.25313318	126.3699625		여행	관광/명소	오름	대한민국	제주특별자치도	서귀포시	안덕면 창천리 564 	{""weekDayOpenHour"":0.0,""weekDayCloseHour"":0.0,""saturdayOpenHour"":0.0,""saturdayCloseHour"":0.0,""sundayOpenHour"":0.0,""sundayCloseHour"":0.0}	{""weeklyClosingDays"":[],""monthlyClosingDayOfWeeks"":[],""yearlyClosingDays"":[]}	-1	-1	[]	9.5	0.5	0.1	http://place.map.daum.net/25186462
daum.8085765	차귀도	33.31155496	126.1476252		여행	관광/명소	섬	대한민국	제주특별자치도	제주시	한경면 고산리 125 	{""weekDayOpen"":""9:30"",""weekDayOpenHour"":9.5,""weekDayClose"":""17:00"",""weekDayCloseHour"":17.0,""saturdayOpen"":""9:30"",""saturdayOpenHour"":9.5,""saturdayClose"":""17:00"",""saturdayCloseHour"":17.0,""sundayOpen"":""9:30"",""sundayOpenHour"":9.5,""sundayClose"":""17:00"",""sundayCloseHour"":17.0}	{""weeklyClosingDays"":[],""monthlyClosingDayOfWeeks"":[],""yearlyClosingDays"":[]}	-1	8000	[]	10	2	0.666666667	http://place.map.daum.net/8085765
daum.7996275	알뜨르비행장	33.20469817	126.2715318		여행	관광/명소	역사유적	대한민국	제주특별자치도	서귀포시	대정읍 상모리 	{""weekDayOpen"":""7:30"",""weekDayOpenHour"":7.5,""weekDayClose"":""18:00"",""weekDayCloseHour"":18.0,""saturdayOpen"":""7:30"",""saturdayOpenHour"":7.5,""saturdayClose"":""18:00"",""saturdayCloseHour"":18.0,""sundayOpen"":""7:30"",""sundayOpenHour"":7.5,""sundayClose"":""18:00"",""sundayCloseHour"":18.0}	{""weeklyClosingDays"":[],""monthlyClosingDayOfWeeks"":[],""yearlyClosingDays"":[]}	-1	0	[]	0	0.333333333	0.083333333	http://place.map.daum.net/7996275
daum.8166457	협재해변	33.39438113	126.2402279		여행	관광/명소	해수욕장/해변	대한민국	제주특별자치도	제주시	한림읍 협재리 2497-1 	{""weekDayOpen"":""8:00"",""weekDayOpenHour"":8.0,""weekDayClose"":""19:00"",""weekDayCloseHour"":19.0,""saturdayOpen"":""8:00"",""saturdayOpenHour"":8.0,""saturdayClose"":""19:00"",""saturdayCloseHour"":19.0,""sundayOpen"":""8:00"",""sundayOpenHour"":8.0,""sundayClose"":""19:00"",""sundayCloseHour"":19.0}	{""weeklyClosingDays"":[],""monthlyClosingDayOfWeeks"":[],""yearlyClosingDays"":[]}	-1	0	[]	9.1	0.5	0.166666667	http://place.map.daum.net/8166457
daum.10793668	대포주상절리	33.23837534	126.4258132		여행	관광/명소	자연경관	대한민국	제주특별자치도	서귀포시	중문동 2767 	{""weekDayOpen"":""8:00"",""weekDayOpenHour"":8.0,""weekDayClose"":""18:00"",""weekDayCloseHour"":18.0,""saturdayOpen"":""8:00"",""saturdayOpenHour"":8.0,""saturdayClose"":""18:00"",""saturdayCloseHour"":18.0,""sundayOpen"":""8:00"",""sundayOpenHour"":8.0,""sundayClose"":""18:00"",""sundayCloseHour"":18.0}	{""weeklyClosingDays"":[],""monthlyClosingDayOfWeeks"":[],""yearlyClosingDays"":[]}	-1	3000	[]	8	0.666666667	0.25	http://place.map.daum.net/10793668
daum.11330871	소인국테마파크	33.29075168	126.3225543		여행	관광/명소	테마파크	대한민국	제주특별자치도	서귀포시	안덕면 서광리 725 	{""weekDayOpen"":""8:30"",""weekDayOpenHour"":8.5,""weekDayClose"":""17:30"",""weekDayCloseHour"":17.5,""saturdayOpen"":""8:30"",""saturdayOpenHour"":8.5,""saturdayClose"":""17:30"",""saturdayCloseHour"":17.5,""sundayOpen"":""8:30"",""sundayOpenHour"":8.5,""sundayClose"":""17:30"",""sundayCloseHour"":17.5}	{""weeklyClosingDays"":[],""monthlyClosingDayOfWeeks"":[],""yearlyClosingDays"":[]}	-1	9000	[]	7.1	0.833333333	0.166666667	http://place.map.daum.net/11330871
daum.17600341	제주해녀박물관	33.52358922	126.8634192		여행	문화시설	미술관/박물관	대한민국	제주특별자치도	제주시	구좌읍 하도리 3204-1 	{""weekDayOpen"":""9:00"",""weekDayOpenHour"":9.0,""weekDayClose"":""18:00"",""weekDayCloseHour"":18.0,""saturdayOpen"":""9:00"",""saturdayOpenHour"":9.0,""saturdayClose"":""18:00"",""saturdayCloseHour"":18.0,""sundayOpen"":""9:00"",""sundayOpenHour"":9.0,""sundayClose"":""18:00"",""sundayCloseHour"":18.0}	{""weeklyClosingDays"":[""Monday""],""monthlyClosingDayOfWeeks"":[],""yearlyClosingDays"":[""매월 첫째,셋째 월요일""]}	-1	1100	[]	0	0.833333333	0.166666667	http://place.map.daum.net/17600341
daum.7918354	산방굴사	33.23794778	126.3130181		여행	관광/명소	종교시설	대한민국	제주특별자치도	서귀포시	안덕면 사계리 산16 	{""weekDayOpen"":""9:00"",""weekDayOpenHour"":9.0,""weekDayClose"":""18:00"",""weekDayCloseHour"":18.0,""saturdayOpen"":""9:00"",""saturdayOpenHour"":9.0,""saturdayClose"":""18:00"",""saturdayCloseHour"":18.0,""sundayOpen"":""9:00"",""sundayOpenHour"":9.0,""sundayClose"":""18:00"",""sundayCloseHour"":18.0}	{""weeklyClosingDays"":[],""monthlyClosingDayOfWeeks"":[],""yearlyClosingDays"":[]}	-1	-1	[]	0	1	0.0256	http://place.map.daum.net/7918354
daum.8375194	서귀포자연휴양림	33.31229131	126.464872		여행	관광/명소	휴양림/숲길걷기	대한민국	제주특별자치도	서귀포시	대포동 산1-8 	{""weekDayOpen"":""7:30"",""weekDayOpenHour"":7.5,""weekDayClose"":""18:00"",""weekDayCloseHour"":18.0,""saturdayOpen"":""7:30"",""saturdayOpenHour"":7.5,""saturdayClose"":""18:00"",""saturdayCloseHour"":18.0,""sundayOpen"":""7:30"",""sundayOpenHour"":7.5,""sundayClose"":""18:00"",""sundayCloseHour"":18.0}	{""weeklyClosingDays"":[],""monthlyClosingDayOfWeeks"":[],""yearlyClosingDays"":[]}	-1	2000	[]	10	1	0.5	http://place.map.daum.net/8375194
daum.7916369	사라봉	33.51793874	126.5450389		여행	관광/명소	산봉우리/등산로	대한민국	제주특별자치도	제주시	건입동 387-1 	{""weekDayOpen"":""7:30"",""weekDayOpenHour"":7.5,""weekDayClose"":""18:00"",""weekDayCloseHour"":18.0,""saturdayOpen"":""7:30"",""saturdayOpenHour"":7.5,""saturdayClose"":""18:00"",""saturdayCloseHour"":18.0,""sundayOpen"":""7:30"",""sundayOpenHour"":7.5,""sundayClose"":""18:00"",""sundayCloseHour"":18.0}	{""weeklyClosingDays"":[],""monthlyClosingDayOfWeeks"":[],""yearlyClosingDays"":[]}	-1	0	[]	0	1	0.166666667	http://place.map.daum.net/7916369
daum.7923901	삼성혈	33.50442977	126.5287641		여행	관광/명소	역사유적	대한민국	제주특별자치도	제주시	이도1동 1313 	{""weekDayOpen"":""8:30"",""weekDayOpenHour"":8.5,""weekDayClose"":""17:30"",""weekDayCloseHour"":17.5,""saturdayOpen"":""8:30"",""saturdayOpenHour"":8.5,""saturdayClose"":""17:30"",""saturdayCloseHour"":17.5,""sundayOpen"":""8:30"",""sundayOpenHour"":8.5,""sundayClose"":""17:30"",""sundayCloseHour"":17.5}	{""weeklyClosingDays"":[],""monthlyClosingDayOfWeeks"":[],""yearlyClosingDays"":[]}	-1	1000	[]	1	0.5	0.166666667	http://place.map.daum.net/7923901
daum.20303776	넥슨컴퓨터박물관	33.47175131	126.4849796		여행	문화시설	미술관/박물관	대한민국	제주특별자치도	제주시	노형동 86 	{""weekDayOpen"":""10:00"",""weekDayOpenHour"":10.0,""weekDayClose"":""18:00"",""weekDayCloseHour"":18.0,""saturdayOpen"":""10:00"",""saturdayOpenHour"":10.0,""saturdayClose"":""18:00"",""saturdayCloseHour"":18.0,""sundayOpen"":""10:00"",""sundayOpenHour"":10.0,""sundayClose"":""18:00"",""sundayCloseHour"":18.0}	{""weeklyClosingDays"":[""Monday""],""monthlyClosingDayOfWeeks"":[],""yearlyClosingDays"":[""추석 당일"",""설날 및 추석연휴""]}	-1	8000	[]	0	1	0.166666667	http://place.map.daum.net/20303776
daum.8671789	관덕정	33.51334915	126.5214571		여행	관광/명소	역사유적	대한민국	제주특별자치도	제주시	삼도2동 983-1 	{""weekDayOpen"":""9:00"",""weekDayOpenHour"":9.0,""weekDayClose"":""18:00"",""weekDayCloseHour"":18.0,""saturdayOpen"":""9:00"",""saturdayOpenHour"":9.0,""saturdayClose"":""18:00"",""saturdayCloseHour"":18.0,""sundayOpen"":""9:00"",""sundayOpenHour"":9.0,""sundayClose"":""18:00"",""sundayCloseHour"":18.0}	{""weeklyClosingDays"":[],""monthlyClosingDayOfWeeks"":[],""yearlyClosingDays"":[]}	-1	1500	[]	0	0.5	0.166666667	http://place.map.daum.net/8671789
daum.7987511	안덕계곡	33.25723098	126.3525738		여행	관광/명소	폭포/계곡	대한민국	제주특별자치도	서귀포시	안덕면 감산리 345 	{""weekDayOpen"":""7:30"",""weekDayOpenHour"":7.5,""weekDayClose"":""18:00"",""weekDayCloseHour"":18.0,""saturdayOpen"":""7:30"",""saturdayOpenHour"":7.5,""saturdayClose"":""18:00"",""saturdayCloseHour"":18.0,""sundayOpen"":""7:30"",""sundayOpenHour"":7.5,""sundayClose"":""18:00"",""sundayCloseHour"":18.0}	{""weeklyClosingDays"":[],""monthlyClosingDayOfWeeks"":[],""yearlyClosingDays"":[]}	-1	0	[]	8	0.5	0.166666667	http://place.map.daum.net/7987511
daum.12501794	성읍민속마을	33.38700667	126.799981		여행	관광/명소	테마파크	대한민국	제주특별자치도	서귀포시	표선면 성읍리 987 	{""weekDayOpen"":""9:00"",""weekDayOpenHour"":9.0,""weekDayClose"":""18:00"",""weekDayCloseHour"":18.0,""saturdayOpen"":""9:00"",""saturdayOpenHour"":9.0,""saturdayClose"":""18:00"",""saturdayCloseHour"":18.0,""sundayOpen"":""9:00"",""sundayOpenHour"":9.0,""sundayClose"":""18:00"",""sundayCloseHour"":18.0}	{""weeklyClosingDays"":[],""monthlyClosingDayOfWeeks"":[],""yearlyClosingDays"":[]}	-1	0	[]	1.3	0.583333333	0.166666667	http://place.map.daum.net/12501794
daum.11192276	영실기암	33.35662141	126.5020538		여행	관광/명소	오름	대한민국	제주특별자치도	서귀포시	중문동	{""weekDayOpenHour"":0.0,""weekDayCloseHour"":0.0,""saturdayOpenHour"":0.0,""saturdayCloseHour"":0.0,""sundayOpenHour"":0.0,""sundayCloseHour"":0.0}	{""weeklyClosingDays"":[],""monthlyClosingDayOfWeeks"":[],""yearlyClosingDays"":[]}	-1	-1	[]	0	1	0.0256	http://place.map.daum.net/11192276
daum.8069764	중문색달해변	33.24508862	126.411494		여행	관광/명소	해수욕장/해변	대한민국	제주특별자치도	서귀포시	색달동 2950-3 	{""weekDayOpen"":""7:30"",""weekDayOpenHour"":7.5,""weekDayClose"":""20:00"",""weekDayCloseHour"":20.0,""saturdayOpen"":""7:30"",""saturdayOpenHour"":7.5,""saturdayClose"":""20:00"",""saturdayCloseHour"":20.0,""sundayOpen"":""7:30"",""sundayOpenHour"":7.5,""sundayClose"":""20:00"",""sundayCloseHour"":20.0}	{""weeklyClosingDays"":[],""monthlyClosingDayOfWeeks"":[],""yearlyClosingDays"":[]}	-1	1000	[]	9.4	0.5	0.166666667	http://place.map.daum.net/8069764
daum.8182461	제주관음사	33.42375979	126.5585451		여행	관광/명소	종교시설	대한민국	제주특별자치도	제주시	아라1동 387 	{""weekDayOpen"":""7:30"",""weekDayOpenHour"":7.5,""weekDayClose"":""18:00"",""weekDayCloseHour"":18.0,""saturdayOpen"":""7:30"",""saturdayOpenHour"":7.5,""saturdayClose"":""18:00"",""saturdayCloseHour"":18.0,""sundayOpen"":""7:30"",""sundayOpenHour"":7.5,""sundayClose"":""18:00"",""sundayCloseHour"":18.0}	{""weeklyClosingDays"":[],""monthlyClosingDayOfWeeks"":[],""yearlyClosingDays"":[]}	-1	0	[]	10	1	0.166666667	http://place.map.daum.net/8182461
daum.7920396	비양도	33.41027771	126.2273484		여행	관광/명소	섬	대한민국	제주특별자치도	제주시	한림읍 협재리 	{""weekDayOpen"":""9:00"",""weekDayOpenHour"":9.0,""weekDayClose"":""15:00"",""weekDayCloseHour"":15.0,""saturdayOpen"":""9:00"",""saturdayOpenHour"":9.0,""saturdayClose"":""15:00"",""saturdayCloseHour"":15.0,""sundayOpen"":""9:00"",""sundayOpenHour"":9.0,""sundayClose"":""15:00"",""sundayCloseHour"":15.0}	{""weeklyClosingDays"":[],""monthlyClosingDayOfWeeks"":[],""yearlyClosingDays"":[]}	-1	2000	[]	9	4	0.5	http://place.map.daum.net/7920396
daum.17583646	박물관은살아있다 제주중문점	33.25492848	126.408741		여행	문화시설	미술관/박물관	대한민국	제주특별자치도	서귀포시	색달동 2629 	{""weekDayOpen"":""9:00"",""weekDayOpenHour"":9.0,""weekDayClose"":""21:30"",""weekDayCloseHour"":21.5,""saturdayOpen"":""9:00"",""saturdayOpenHour"":9.0,""saturdayClose"":""21:30"",""saturdayCloseHour"":21.5,""sundayOpen"":""9:00"",""sundayOpenHour"":9.0,""sundayClose"":""21:30"",""sundayCloseHour"":21.5}	{""weeklyClosingDays"":[],""monthlyClosingDayOfWeeks"":[],""yearlyClosingDays"":[]}	-1	10000	[]	9.8	1.833333333	0.333333333	http://place.map.daum.net/17583646
daum.8067359	제주절물자연휴양림	33.43915259	126.6280113		여행	관광/명소	휴양림/숲길걷기	대한민국	제주특별자치도	제주시	봉개동 산78-1 	{""weekDayOpen"":""8:00"",""weekDayOpenHour"":8.0,""weekDayClose"":""18:00"",""weekDayCloseHour"":18.0,""saturdayOpen"":""8:00"",""saturdayOpenHour"":8.0,""saturdayClose"":""18:00"",""saturdayCloseHour"":18.0,""sundayOpen"":""8:00"",""sundayOpenHour"":8.0,""sundayClose"":""18:00"",""sundayCloseHour"":18.0}	{""weeklyClosingDays"":[""Tuesday""],""monthlyClosingDayOfWeeks"":[],""yearlyClosingDays"":[]}	-1	1000	[]	9.4	1	0.166666667	http://place.map.daum.net/8067359
daum.11140788	새섬	33.23654516	126.5618959		여행	관광/명소	자연경관	대한민국	제주특별자치도	서귀포시	서귀동 1 	{""weekDayOpen"":""7:30"",""weekDayOpenHour"":7.5,""weekDayClose"":""23:50"",""weekDayCloseHour"":23.833333333333332,""saturdayOpen"":""7:30"",""saturdayOpenHour"":7.5,""saturdayClose"":""23:50"",""saturdayCloseHour"":23.833333333333332,""sundayOpen"":""7:30"",""sundayOpenHour"":7.5,""sundayClose"":""23:50"",""sundayCloseHour"":23.833333333333332}	{""weeklyClosingDays"":[],""monthlyClosingDayOfWeeks"":[],""yearlyClosingDays"":[]}	-1	0	[]	9	0.333333333	0.166666667	http://place.map.daum.net/11140788
daum.25294439	수월봉	33.2946169	126.1631723		여행	관광/명소	산봉우리/등산로	대한민국	제주특별자치도	제주시	한경면 고산리 3763 	{""weekDayOpen"":""7:30"",""weekDayOpenHour"":7.5,""weekDayClose"":""18:00"",""weekDayCloseHour"":18.0,""saturdayOpen"":""7:30"",""saturdayOpenHour"":7.5,""saturdayClose"":""18:00"",""saturdayCloseHour"":18.0,""sundayOpen"":""7:30"",""sundayOpenHour"":7.5,""sundayClose"":""18:00"",""sundayCloseHour"":18.0}	{""weeklyClosingDays"":[],""monthlyClosingDayOfWeeks"":[],""yearlyClosingDays"":[]}	-1	0	[]	8	1	0.166666667	http://place.map.daum.net/25294439
daum.7873185	물영아리	33.36925081	126.6933663		여행	관광/명소	산봉우리/등산로	대한민국	제주특별자치도	서귀포시	남원읍 수망리 산189 	{""weekDayOpen"":""7:30"",""weekDayOpenHour"":7.5,""weekDayClose"":""18:00"",""weekDayCloseHour"":18.0,""saturdayOpen"":""7:30"",""saturdayOpenHour"":7.5,""saturdayClose"":""18:00"",""saturdayCloseHour"":18.0,""sundayOpen"":""7:30"",""sundayOpenHour"":7.5,""sundayClose"":""18:00"",""sundayCloseHour"":18.0}	{""weeklyClosingDays"":[],""monthlyClosingDayOfWeeks"":[],""yearlyClosingDays"":[]}	-1	0	[]	7	1.166666667	0.416666667	http://place.map.daum.net/7873185
daum.11540370	용두암	33.51611062	126.5119571		여행	관광/명소	자연경관	대한민국	제주특별자치도	제주시	용담2동 483 	{""weekDayOpen"":""5:30"",""weekDayOpenHour"":5.5,""weekDayClose"":""19:30"",""weekDayCloseHour"":19.5,""saturdayOpen"":""5:30"",""saturdayOpenHour"":5.5,""saturdayClose"":""19:30"",""saturdayCloseHour"":19.5,""sundayOpen"":""5:30"",""sundayOpenHour"":5.5,""sundayClose"":""19:30"",""sundayCloseHour"":19.5}	{""weeklyClosingDays"":[],""monthlyClosingDayOfWeeks"":[],""yearlyClosingDays"":[]}	-1	0	[]	5.5	0.25	0.083333333	http://place.map.daum.net/11540370
daum.7832439	돈내코유원지	33.30036663	126.5841333		여행	관광/명소	폭포/계곡	대한민국	제주특별자치도	서귀포시	상효동 1459 	{""weekDayOpen"":""9:00"",""weekDayOpenHour"":9.0,""weekDayClose"":""18:00"",""weekDayCloseHour"":18.0,""saturdayOpen"":""9:00"",""saturdayOpenHour"":9.0,""saturdayClose"":""18:00"",""saturdayCloseHour"":18.0,""sundayOpen"":""9:00"",""sundayOpenHour"":9.0,""sundayClose"":""18:00"",""sundayCloseHour"":18.0}	{""weeklyClosingDays"":[],""monthlyClosingDayOfWeeks"":[],""yearlyClosingDays"":[]}	-1	0	[]	8	0.666666667	0.166666667	http://place.map.daum.net/7832439
daum.8386141	산방산	33.24130404	126.3134253		여행	관광/명소	산	대한민국	제주특별자치도	서귀포시	안덕면 사계리 	{""weekDayOpenHour"":0.0,""weekDayCloseHour"":0.0,""saturdayOpenHour"":0.0,""saturdayCloseHour"":0.0,""sundayOpenHour"":0.0,""sundayCloseHour"":0.0}	{""weeklyClosingDays"":[],""monthlyClosingDayOfWeeks"":[],""yearlyClosingDays"":[]}	-1	-1	[]	9.2	1	0.0256	http://place.map.daum.net/8386141
daum.21627106	한라산국립공원 성판악탐방로	33.37139067	126.5698219		여행	관광/명소	산봉우리/등산로	대한민국	제주특별자치도	서귀포시	남원읍	{""weekDayOpen"":""6:30"",""weekDayOpenHour"":6.5,""weekDayClose"":""18:00"",""weekDayCloseHour"":18.0,""saturdayOpen"":""6:30"",""saturdayOpenHour"":6.5,""saturdayClose"":""18:00"",""saturdayCloseHour"":18.0,""sundayOpen"":""6:30"",""sundayOpenHour"":6.5,""sundayClose"":""18:00"",""sundayCloseHour"":18.0}	{""weeklyClosingDays"":[],""monthlyClosingDayOfWeeks"":[],""yearlyClosingDays"":[]}	-1	1800	[]	0	9	0.9	http://place.map.daum.net/21627106
daum.10686012	한라산 웃세붉은오름	33.36035534	126.5207017		여행	관광/명소	산봉우리/등산로	대한민국	제주특별자치도	서귀포시	서호동 산183-1 	{""weekDayOpen"":""7:30"",""weekDayOpenHour"":7.5,""weekDayClose"":""18:00"",""weekDayCloseHour"":18.0,""saturdayOpen"":""7:30"",""saturdayOpenHour"":7.5,""saturdayClose"":""18:00"",""saturdayCloseHour"":18.0,""sundayOpen"":""7:30"",""sundayOpenHour"":7.5,""sundayClose"":""18:00"",""sundayCloseHour"":18.0}	{""weeklyClosingDays"":[],""monthlyClosingDayOfWeeks"":[],""yearlyClosingDays"":[]}	-1	0	[]	10	1	0.166666667	http://place.map.daum.net/10686012
daum.7934984	삼양검은모래해변	33.52605216	126.5859024		여행	관광/명소	해수욕장/해변	대한민국	제주특별자치도	제주시	삼양2동	{""weekDayOpen"":""7:30"",""weekDayOpenHour"":7.5,""weekDayClose"":""20:00"",""weekDayCloseHour"":20.0,""saturdayOpen"":""7:30"",""saturdayOpenHour"":7.5,""saturdayClose"":""20:00"",""saturdayCloseHour"":20.0,""sundayOpen"":""7:30"",""sundayOpenHour"":7.5,""sundayClose"":""20:00"",""sundayCloseHour"":20.0}	{""weeklyClosingDays"":[],""monthlyClosingDayOfWeeks"":[],""yearlyClosingDays"":[]}	-1	1000	[]	10	0.5	0.166666667	http://place.map.daum.net/7934984
daum.10626439	용눈이오름	33.45969247	126.8325145		여행	관광/명소	산봉우리/등산로	대한민국	제주특별자치도	제주시	구좌읍 종달리 산28 	{""weekDayOpen"":""7:30"",""weekDayOpenHour"":7.5,""weekDayClose"":""18:00"",""weekDayCloseHour"":18.0,""saturdayOpen"":""7:30"",""saturdayOpenHour"":7.5,""saturdayClose"":""18:00"",""saturdayCloseHour"":18.0,""sundayOpen"":""7:30"",""sundayOpenHour"":7.5,""sundayClose"":""18:00"",""sundayCloseHour"":18.0}	{""weeklyClosingDays"":[],""monthlyClosingDayOfWeeks"":[],""yearlyClosingDays"":[]}	-1	0	[]	9.3	1	0.166666667	http://place.map.daum.net/10626439
daum.7991509	아프리카박물관	33.23974044	126.4293493		여행	관광/명소	미술관/박물관	대한민국	제주특별자치도	서귀포시	대포동 1833 	{""weekDayOpen"":""9:00"",""weekDayOpenHour"":9.0,""weekDayClose"":""19:00"",""weekDayCloseHour"":19.0,""saturdayOpen"":""9:00"",""saturdayOpenHour"":9.0,""saturdayClose"":""19:00"",""saturdayCloseHour"":19.0,""sundayOpen"":""9:00"",""sundayOpenHour"":9.0,""sundayClose"":""19:00"",""sundayCloseHour"":19.0}	{""weeklyClosingDays"":[],""monthlyClosingDayOfWeeks"":[],""yearlyClosingDays"":[]}	-1	8000	[]	7.9	1	0.166666667	http://place.map.daum.net/7991509
daum.7957266	송악공원	33.19997922	126.2912266		여행	관광/명소	공원	대한민국	제주특별자치도	서귀포시	대정읍 상모리 산2 	{""weekDayOpen"":""7:30"",""weekDayOpenHour"":7.5,""weekDayClose"":""18:00"",""weekDayCloseHour"":18.0,""saturdayOpen"":""7:30"",""saturdayOpenHour"":7.5,""saturdayClose"":""18:00"",""saturdayCloseHour"":18.0,""sundayOpen"":""7:30"",""sundayOpenHour"":7.5,""sundayClose"":""18:00"",""sundayCloseHour"":18.0}	{""weeklyClosingDays"":[],""monthlyClosingDayOfWeeks"":[],""yearlyClosingDays"":[]}	-1	0	[]	9	1	0.166666667	http://place.map.daum.net/7957266
daum.8045145	이중섭미술관	33.24587856	126.5648967		여행	관광/명소	미술관/박물관	대한민국	제주특별자치도	서귀포시	서귀동 532-1 	{""weekDayOpen"":""9:00"",""weekDayOpenHour"":9.0,""weekDayClose"":""18:00"",""weekDayCloseHour"":18.0,""saturdayOpen"":""9:00"",""saturdayOpenHour"":9.0,""saturdayClose"":""18:00"",""saturdayCloseHour"":18.0,""sundayOpen"":""9:00"",""sundayOpenHour"":9.0,""sundayClose"":""18:00"",""sundayCloseHour"":18.0}	{""weeklyClosingDays"":[""Monday""],""monthlyClosingDayOfWeeks"":[],""yearlyClosingDays"":[""추석"",""설날"",""1월 1일""]}	-1	1300	[]	9.5	1	0.166666667	http://place.map.daum.net/8045145
daum.7912384	홍조단괴해수욕장	33.50240607	126.9430478		여행	관광/명소	해수욕장,해변	대한민국	제주특별자치도	제주시	우도면 연평리 	{""weekDayOpenHour"":0.0,""weekDayCloseHour"":0.0,""saturdayOpenHour"":0.0,""saturdayCloseHour"":0.0,""sundayOpenHour"":0.0,""sundayCloseHour"":0.0}	{""weeklyClosingDays"":[],""monthlyClosingDayOfWeeks"":[],""yearlyClosingDays"":[]}	-1	-1	[]	8.7	1	0.0256	http://place.map.daum.net/7912384
daum.10880885	퍼시픽랜드 돌고래쇼	33.24525528	126.4154802		여행	관광/명소	테마파크	대한민국	제주특별자치도	서귀포시	색달동 2950-5 	{""weekDayOpen"":""11:00"",""weekDayOpenHour"":11.0,""weekDayClose"":""16:30"",""weekDayCloseHour"":16.5,""saturdayOpen"":""11:00"",""saturdayOpenHour"":11.0,""saturdayClose"":""16:30"",""saturdayCloseHour"":16.5,""sundayOpen"":""11:00"",""sundayOpenHour"":11.0,""sundayClose"":""16:30"",""sundayCloseHour"":16.5}	{""weeklyClosingDays"":[],""monthlyClosingDayOfWeeks"":[],""yearlyClosingDays"":[]}	-1	12000	[]	10	1.166666667	0.333333333	http://place.map.daum.net/10880885
daum.8173573	화순금모래해변	33.24005765	126.3335849		여행	관광/명소	해수욕장/해변	대한민국	제주특별자치도	서귀포시	안덕면 화순리 776-8 	{""weekDayOpen"":""7:30"",""weekDayOpenHour"":7.5,""weekDayClose"":""20:00"",""weekDayCloseHour"":20.0,""saturdayOpen"":""7:30"",""saturdayOpenHour"":7.5,""saturdayClose"":""20:00"",""saturdayCloseHour"":20.0,""sundayOpen"":""7:30"",""sundayOpenHour"":7.5,""sundayClose"":""20:00"",""sundayCloseHour"":20.0}	{""weeklyClosingDays"":[],""monthlyClosingDayOfWeeks"":[],""yearlyClosingDays"":[]}	-1	1000	[]	7.4	0.5	0.166666667	http://place.map.daum.net/8173573
daum.11055702	사계해변	33.22363523	126.2984292		여행	관광/명소	해수욕장/해변	대한민국	제주특별자치도	서귀포시	안덕면 사계리 	{""weekDayOpen"":""7:30"",""weekDayOpenHour"":7.5,""weekDayClose"":""20:00"",""weekDayCloseHour"":20.0,""saturdayOpen"":""7:30"",""saturdayOpenHour"":7.5,""saturdayClose"":""20:00"",""saturdayCloseHour"":20.0,""sundayOpen"":""7:30"",""sundayOpenHour"":7.5,""sundayClose"":""20:00"",""sundayCloseHour"":20.0}	{""weeklyClosingDays"":[],""monthlyClosingDayOfWeeks"":[],""yearlyClosingDays"":[]}	-1	1000	[]	0	0.5	0.166666667	http://place.map.daum.net/11055702
daum.10599658	아부오름	33.4485914	126.7772236		여행	관광/명소	산봉우리/등산로	대한민국	제주특별자치도	제주시	구좌읍 송당리 산164-1 	{""weekDayOpen"":""7:30"",""weekDayOpenHour"":7.5,""weekDayClose"":""18:00"",""weekDayCloseHour"":18.0,""saturdayOpen"":""7:30"",""saturdayOpenHour"":7.5,""saturdayClose"":""18:00"",""saturdayCloseHour"":18.0,""sundayOpen"":""7:30"",""sundayOpenHour"":7.5,""sundayClose"":""18:00"",""sundayCloseHour"":18.0}	{""weeklyClosingDays"":[],""monthlyClosingDayOfWeeks"":[],""yearlyClosingDays"":[]}	-1	0	[]	9	1	0.166666667	http://place.map.daum.net/10599658
daum.13322621	제주돌문화공원	33.44820741	126.6590594		여행	관광/명소	테마파크	대한민국	제주특별자치도	제주시	조천읍 교래리 산95 	{""weekDayOpen"":""09:00"",""weekDayOpenHour"":9.0,""weekDayClose"":""18:00"",""weekDayCloseHour"":18.0,""saturdayOpen"":""09:00"",""saturdayOpenHour"":9.0,""saturdayClose"":""18:00"",""saturdayCloseHour"":18.0,""sundayOpen"":""09:00"",""sundayOpenHour"":9.0,""sundayClose"":""18:00"",""sundayCloseHour"":18.0}	{""weeklyClosingDays"":[],""monthlyClosingDayOfWeeks"":[],""yearlyClosingDays"":[]}	-1	-1	[]	10	1	0.0256	http://place.map.daum.net/13322621
daum.25354927	저지오름	33.33268661	126.2508601		여행	관광/명소	산봉우리/등산로	대한민국	제주특별자치도	제주시	한경면 저지리 산51 	{""weekDayOpen"":""7:30"",""weekDayOpenHour"":7.5,""weekDayClose"":""18:00"",""weekDayCloseHour"":18.0,""saturdayOpen"":""7:30"",""saturdayOpenHour"":7.5,""saturdayClose"":""18:00"",""saturdayCloseHour"":18.0,""sundayOpen"":""7:30"",""sundayOpenHour"":7.5,""sundayClose"":""18:00"",""sundayCloseHour"":18.0}	{""weeklyClosingDays"":[],""monthlyClosingDayOfWeeks"":[],""yearlyClosingDays"":[]}	-1	0	[]	10	1.25	0.25	http://place.map.daum.net/25354927
daum.7956367	송악산	33.19921553	126.2901175		여행	관광/명소	산봉우리/등산로	대한민국	제주특별자치도	서귀포시	대정읍 상모리 산2 	{""weekDayOpen"":""7:30"",""weekDayOpenHour"":7.5,""weekDayClose"":""18:00"",""weekDayCloseHour"":18.0,""saturdayOpen"":""7:30"",""saturdayOpenHour"":7.5,""saturdayClose"":""18:00"",""saturdayCloseHour"":18.0,""sundayOpen"":""7:30"",""sundayOpenHour"":7.5,""sundayClose"":""18:00"",""sundayCloseHour"":18.0}	{""weeklyClosingDays"":[],""monthlyClosingDayOfWeeks"":[],""yearlyClosingDays"":[]}	-1	0	[]	10	0.666666667	0.166666667	http://place.map.daum.net/7956367
daum.10717401	정방폭포	33.24483415	126.5715546		여행	관광/명소	폭포/계곡	대한민국	제주특별자치도	서귀포시	서귀동 962 	{""weekDayOpen"":""8:30"",""weekDayOpenHour"":8.5,""weekDayClose"":""17:30"",""weekDayCloseHour"":17.5,""saturdayOpen"":""8:30"",""saturdayOpenHour"":8.5,""saturdayClose"":""17:30"",""saturdayCloseHour"":17.5,""sundayOpen"":""8:30"",""sundayOpenHour"":8.5,""sundayClose"":""17:30"",""sundayCloseHour"":17.5}	{""weeklyClosingDays"":[],""monthlyClosingDayOfWeeks"":[],""yearlyClosingDays"":[]}	-1	2000	[]	10	0.5	0.166666667	http://place.map.daum.net/10717401
daum.11332661	오설록티뮤지엄	33.30592655	126.289443		여행	관광/명소	미술관/박물관	대한민국	제주특별자치도	서귀포시	안덕면 서광리 1235-1 	{""weekDayOpen"":""10:00"",""weekDayOpenHour"":10.0,""weekDayClose"":""17:30"",""weekDayCloseHour"":17.5,""saturdayOpen"":""10:00"",""saturdayOpenHour"":10.0,""saturdayClose"":""17:30"",""saturdayCloseHour"":17.5,""sundayOpen"":""10:00"",""sundayOpenHour"":10.0,""sundayClose"":""17:30"",""sundayCloseHour"":17.5}	{""weeklyClosingDays"":[],""monthlyClosingDayOfWeeks"":[],""yearlyClosingDays"":[]}	-1	0	[]	7	1	0.166666667	http://place.map.daum.net/11332661
daum.12284733	제주허브동산	33.32968333	126.8151318		여행	관광/명소	관광농원	대한민국	제주특별자치도	서귀포시	표선면 표선리 2608 	{""weekDayOpenHour"":0.0,""weekDayCloseHour"":0.0,""saturdayOpenHour"":0.0,""saturdayCloseHour"":0.0,""sundayOpenHour"":0.0,""sundayCloseHour"":0.0}	{""weeklyClosingDays"":[],""monthlyClosingDayOfWeeks"":[],""yearlyClosingDays"":[]}	-1	-1	[]	6.4	1	0.0256	http://place.map.daum.net/12284733
daum.8070344	한라산 장오름	33.35632486	126.4671038		여행	관광/명소	오름	대한민국	제주특별자치도	서귀포시	중문동 산1 	{""weekDayOpenHour"":0.0,""weekDayCloseHour"":0.0,""saturdayOpenHour"":0.0,""saturdayCloseHour"":0.0,""sundayOpenHour"":0.0,""sundayCloseHour"":0.0}	{""weeklyClosingDays"":[],""monthlyClosingDayOfWeeks"":[],""yearlyClosingDays"":[]}	-1	-1	[]	0	1	0.0256	http://place.map.daum.net/8070344
