#id	title	latitude	longitude	othernames	category	subcategory	subsubcategory	Addresscode_1	AddressCode_2	AddressCode_3	Detailed_address	BusinessHours	closingdays	parkingLot	cost	publicTransportationAccess	satisfaction	spendingTime	placeURL
daum.26799620	돈사돈	33.47886801	126.4640266		음식점	한식	육류/고기	대한민국	제주특별자치도	제주시	노형동 3086-3 	{""weekDayOpen"":""11:00"",""weekDayOpenHour"":11.0,""weekDayClose"":""21:00"",""weekDayCloseHour"":21.0,""saturdayOpen"":""11:00"",""saturdayOpenHour"":11.0,""saturdayClose"":""21:00"",""saturdayCloseHour"":21.0,""sundayOpen"":""11:00"",""sundayOpenHour"":11.0,""sundayClose"":""21:00"",""sundayCloseHour"":21.0}	{""weeklyClosingDays"":[],""monthlyClosingDayOfWeeks"":[],""yearlyClosingDays"":[]}	-1	-1	[]	4.4	0.5	0.1	http://place.map.daum.net/26799620	
daum.20480281	키다리아저씨	33.49620114	126.9561116		음식점	일식	돈까스/우동	대한민국	제주특별자치도	제주시	우도면 연평리 1642-1 	{""weekDayOpen"":""11:00"",""weekDayOpenHour"":11.0,""weekDayClose"":""21:00"",""weekDayCloseHour"":21.0,""saturdayOpen"":""11:00"",""saturdayOpenHour"":11.0,""saturdayClose"":""21:00"",""saturdayCloseHour"":21.0,""sundayOpen"":""11:00"",""sundayOpenHour"":11.0,""sundayClose"":""21:00"",""sundayCloseHour"":21.0}	{""weeklyClosingDays"":[],""monthlyClosingDayOfWeeks"":[],""yearlyClosingDays"":[]}	-1	-1	[]	4.7	0.5	0.1	http://place.map.daum.net/20480281	
daum.26429444	제주정지	33.51896331	126.490478		음식점	한식	한정식	대한민국	제주특별자치도	제주시	용담3동 2367-6 	{""weekDayOpen"":""11:00"",""weekDayOpenHour"":11.0,""weekDayClose"":""21:00"",""weekDayCloseHour"":21.0,""saturdayOpen"":""11:00"",""saturdayOpenHour"":11.0,""saturdayClose"":""21:00"",""saturdayCloseHour"":21.0,""sundayOpen"":""11:00"",""sundayOpenHour"":11.0,""sundayClose"":""21:00"",""sundayCloseHour"":21.0}	{""weeklyClosingDays"":[],""monthlyClosingDayOfWeeks"":[],""yearlyClosingDays"":[]}	-1	-1	[]	10.0	0.5	0.1	http://place.map.daum.net/26429444	
daum.8646446	꺼멍흑돼지	33.49207262	126.4719855		음식점	한식	육류/고기	대한민국	제주특별자치도	제주시	노형동 2737 	{""weekDayOpen"":""11:00"",""weekDayOpenHour"":11.0,""weekDayClose"":""21:00"",""weekDayCloseHour"":21.0,""saturdayOpen"":""11:00"",""saturdayOpenHour"":11.0,""saturdayClose"":""21:00"",""saturdayCloseHour"":21.0,""sundayOpen"":""11:00"",""sundayOpenHour"":11.0,""sundayClose"":""21:00"",""sundayCloseHour"":21.0}	{""weeklyClosingDays"":[],""monthlyClosingDayOfWeeks"":[],""yearlyClosingDays"":[]}	-1	-1	[]	8.0	0.5	0.1	http://place.map.daum.net/8646446	
daum.9812307	삼원정	33.25769119	126.4141053		음식점	한식		대한민국	제주특별자치도	서귀포시	색달동 2282 	{""weekDayOpen"":""09:00"",""weekDayOpenHour"":9.0,""weekDayClose"":""22:00"",""weekDayCloseHour"":22.0,""saturdayOpen"":""09:00"",""saturdayOpenHour"":9.0,""saturdayClose"":""22:00"",""saturdayCloseHour"":22.0,""sundayOpen"":""09:00"",""sundayOpenHour"":9.0,""sundayClose"":""22:00"",""sundayCloseHour"":22.0}	{""weeklyClosingDays"":[],""monthlyClosingDayOfWeeks"":[],""yearlyClosingDays"":[]}	-1	-1	[]	8.5	0.5	0.1	http://place.map.daum.net/9812307	
daum.17589720	제주명가두루치기	33.24956401	126.5710035		음식점	한식	육류/고기	대한민국	제주특별자치도	서귀포시	동홍동 385 	{""weekDayOpen"":""11:00"",""weekDayOpenHour"":11.0,""weekDayClose"":""21:00"",""weekDayCloseHour"":21.0,""saturdayOpen"":""11:00"",""saturdayOpenHour"":11.0,""saturdayClose"":""21:00"",""saturdayCloseHour"":21.0,""sundayOpen"":""11:00"",""sundayOpenHour"":11.0,""sundayClose"":""21:00"",""sundayCloseHour"":21.0}	{""weeklyClosingDays"":[],""monthlyClosingDayOfWeeks"":[],""yearlyClosingDays"":[]}	-1	-1	[]	4.0	0.5	0.1	http://place.map.daum.net/17589720	
daum.10936817	한성식당	33.46320748	126.9350314		음식점	한식	해물/생선	대한민국	제주특별자치도	서귀포시	성산읍 성산리 202-1 	{""weekDayOpen"":""11:00"",""weekDayOpenHour"":11.0,""weekDayClose"":""21:00"",""weekDayCloseHour"":21.0,""saturdayOpen"":""11:00"",""saturdayOpenHour"":11.0,""saturdayClose"":""21:00"",""saturdayCloseHour"":21.0,""sundayOpen"":""11:00"",""sundayOpenHour"":11.0,""sundayClose"":""21:00"",""sundayCloseHour"":21.0}	{""weeklyClosingDays"":[],""monthlyClosingDayOfWeeks"":[],""yearlyClosingDays"":[]}	-1	-1	[]	4.9	0.5	0.1	http://place.map.daum.net/10936817	
daum.7861876	맛있는밥상	33.25896934	126.4045412		음식점	한식		대한민국	제주특별자치도	서귀포시	색달동 2081-1 	{""weekDayOpen"":""11:00"",""weekDayOpenHour"":11.0,""weekDayClose"":""21:00"",""weekDayCloseHour"":21.0,""saturdayOpen"":""11:00"",""saturdayOpenHour"":11.0,""saturdayClose"":""21:00"",""saturdayCloseHour"":21.0,""sundayOpen"":""11:00"",""sundayOpenHour"":11.0,""sundayClose"":""21:00"",""sundayCloseHour"":21.0}	{""weeklyClosingDays"":[],""monthlyClosingDayOfWeeks"":[],""yearlyClosingDays"":[]}	-1	-1	[]	8.3	0.5	0.1	http://place.map.daum.net/7861876	
daum.8453998	오는정김밥	33.24961003	126.5676296		음식점	분식		대한민국	제주특별자치도	서귀포시	서귀동 254-6 	{""weekDayOpen"":""10:00"",""weekDayOpenHour"":10.0,""weekDayClose"":""19:30"",""weekDayCloseHour"":19.5,""saturdayOpen"":""10:00"",""saturdayOpenHour"":10.0,""saturdayClose"":""19:30"",""saturdayCloseHour"":19.5,""sundayOpen"":""10:00"",""sundayOpenHour"":10.0,""sundayClose"":""19:30"",""sundayCloseHour"":19.5}	{""weeklyClosingDays"":[],""monthlyClosingDayOfWeeks"":[],""yearlyClosingDays"":[]}	-1	-1	[]	5.6	0.5	0.1	http://place.map.daum.net/8453998	
daum.7868089	모이세해장국	33.48384219	126.4829369		음식점	한식	해장국	대한민국	제주특별자치도	제주시	노형동 934 	{""weekDayOpen"":""11:00"",""weekDayOpenHour"":11.0,""weekDayClose"":""21:00"",""weekDayCloseHour"":21.0,""saturdayOpen"":""11:00"",""saturdayOpenHour"":11.0,""saturdayClose"":""21:00"",""saturdayCloseHour"":21.0,""sundayOpen"":""11:00"",""sundayOpenHour"":11.0,""sundayClose"":""21:00"",""sundayCloseHour"":21.0}	{""weeklyClosingDays"":[],""monthlyClosingDayOfWeeks"":[],""yearlyClosingDays"":[]}	-1	-1	[]	6.4	0.5	0.1	http://place.map.daum.net/7868089	
daum.9167088	선진횟집	33.54301905996407	126.66416572866581		음식점	한식	해물/생선	대한민국	제주특별자치도	제주시	조천읍 함덕리 1252-42 	{""weekDayOpen"":""11:00"",""weekDayOpenHour"":11.0,""weekDayClose"":""21:00"",""weekDayCloseHour"":21.0,""saturdayOpen"":""11:00"",""saturdayOpenHour"":11.0,""saturdayClose"":""21:00"",""saturdayCloseHour"":21.0,""sundayOpen"":""11:00"",""sundayOpenHour"":11.0,""sundayClose"":""21:00"",""sundayCloseHour"":21.0}	{""weeklyClosingDays"":[],""monthlyClosingDayOfWeeks"":[],""yearlyClosingDays"":[]}	-1	-1	[]	7.5	0.5	0.1	http://place.map.daum.net/9167088	
daum.13143043	닐모리동동	33.51783463	126.4878798		음식점	카페		대한민국	제주특별자치도	제주시	용담3동 2396 오다펜션 1층 	{""weekDayOpen"":""11:00"",""weekDayOpenHour"":11.0,""weekDayClose"":""21:00"",""weekDayCloseHour"":21.0,""saturdayOpen"":""11:00"",""saturdayOpenHour"":11.0,""saturdayClose"":""21:00"",""saturdayCloseHour"":21.0,""sundayOpen"":""11:00"",""sundayOpenHour"":11.0,""sundayClose"":""21:00"",""sundayCloseHour"":21.0}	{""weeklyClosingDays"":[],""monthlyClosingDayOfWeeks"":[],""yearlyClosingDays"":[]}	-1	-1	[]	8.3	0.5	0.1	http://place.map.daum.net/13143043	
daum.24165595	카오카오뷔페	33.24439061	126.4149023		음식점	뷔페		대한민국	제주특별자치도	서귀포시	색달동 2950-4 	{""weekDayOpen"":""11:00"",""weekDayOpenHour"":11.0,""weekDayClose"":""21:00"",""weekDayCloseHour"":21.0,""saturdayOpen"":""11:00"",""saturdayOpenHour"":11.0,""saturdayClose"":""21:00"",""saturdayCloseHour"":21.0,""sundayOpen"":""11:00"",""sundayOpenHour"":11.0,""sundayClose"":""21:00"",""sundayCloseHour"":21.0}	{""weeklyClosingDays"":[],""monthlyClosingDayOfWeeks"":[],""yearlyClosingDays"":[]}	-1	-1	[]	8.5	0.5	0.1	http://place.map.daum.net/24165595	
daum.8238096	기억나는집	33.24508643	126.5621837		음식점	한식	해물/생선	대한민국	제주특별자치도	서귀포시	정방동 486-4 	{""weekDayOpen"":""11:00"",""weekDayOpenHour"":11.0,""weekDayClose"":""21:00"",""weekDayCloseHour"":21.0,""saturdayOpen"":""11:00"",""saturdayOpenHour"":11.0,""saturdayClose"":""21:00"",""saturdayCloseHour"":21.0,""sundayOpen"":""11:00"",""sundayOpenHour"":11.0,""sundayClose"":""21:00"",""sundayCloseHour"":21.0}	{""weeklyClosingDays"":[],""monthlyClosingDayOfWeeks"":[],""yearlyClosingDays"":[]}	-1	-1	[]	3.1	0.5	0.1	http://place.map.daum.net/8238096	
daum.26397114	황금고팡	33.54162266	126.667905		음식점	한식	해물/생선	대한민국	제주특별자치도	제주시	조천읍 함덕리 1002-15 	{""weekDayOpen"":""11:00"",""weekDayOpenHour"":11.0,""weekDayClose"":""21:00"",""weekDayCloseHour"":21.0,""saturdayOpen"":""11:00"",""saturdayOpenHour"":11.0,""saturdayClose"":""21:00"",""saturdayCloseHour"":21.0,""sundayOpen"":""11:00"",""sundayOpenHour"":11.0,""sundayClose"":""21:00"",""sundayCloseHour"":21.0}	{""weeklyClosingDays"":[],""monthlyClosingDayOfWeeks"":[],""yearlyClosingDays"":[]}	-1	-1	[]	9.3	0.5	0.1	http://place.map.daum.net/26397114	
daum.7918005	국수회관 본점	33.50694469	126.5300506		음식점	한식	국수	대한민국	제주특별자치도	제주시	일도2동 1045-12 1층 	{""weekDayOpen"":""09:00"",""weekDayOpenHour"":9.0,""weekDayClose"":""05:30"",""weekDayCloseHour"":5.5,""saturdayOpen"":""09:00"",""saturdayOpenHour"":9.0,""saturdayClose"":""05:30"",""saturdayCloseHour"":5.5,""sundayOpen"":""09:00"",""sundayOpenHour"":9.0,""sundayClose"":""05:30"",""sundayCloseHour"":5.5}	{""weeklyClosingDays"":[],""monthlyClosingDayOfWeeks"":[],""yearlyClosingDays"":[]}	-1	-1	[]	7.4	0.5	0.1	http://place.map.daum.net/7918005	
daum.24937583	천해천 제주점	33.47921525	126.4743702		음식점	샤브샤브		대한민국	제주특별자치도	제주시	노형동 3813 	{""weekDayOpen"":""11:00"",""weekDayOpenHour"":11.0,""weekDayClose"":""22:00"",""weekDayCloseHour"":22.0,""saturdayOpen"":""11:00"",""saturdayOpenHour"":11.0,""saturdayClose"":""22:00"",""saturdayCloseHour"":22.0,""sundayOpen"":""11:00"",""sundayOpenHour"":11.0,""sundayClose"":""22:00"",""sundayCloseHour"":22.0}	{""weeklyClosingDays"":[],""monthlyClosingDayOfWeeks"":[],""yearlyClosingDays"":[""구정연휴"",""추석연휴""]}	-1	-1	[]	10.0	0.5	0.1	http://place.map.daum.net/24937583	
daum.26491280	흑소랑	33.49095944	126.545025		음식점	한식	육류/고기	대한민국	제주특별자치도	제주시	아라2동 3007-2 	{""weekDayOpen"":""11:00"",""weekDayOpenHour"":11.0,""weekDayClose"":""21:00"",""weekDayCloseHour"":21.0,""saturdayOpen"":""11:00"",""saturdayOpenHour"":11.0,""saturdayClose"":""21:00"",""saturdayCloseHour"":21.0,""sundayOpen"":""11:00"",""sundayOpenHour"":11.0,""sundayClose"":""21:00"",""sundayCloseHour"":21.0}	{""weeklyClosingDays"":[],""monthlyClosingDayOfWeeks"":[],""yearlyClosingDays"":[]}	-1	-1	[]	0.0	0.5	0.1	http://place.map.daum.net/26491280	
daum.24780480	이춘옥원조고등어쌈밥	33.48911258	126.418969		음식점	한식	쌈밥	대한민국	제주특별자치도	제주시	애월읍 하귀1리 266-5 	{""weekDayOpen"":""11:00"",""weekDayOpenHour"":11.0,""weekDayClose"":""21:00"",""weekDayCloseHour"":21.0,""saturdayOpen"":""11:00"",""saturdayOpenHour"":11.0,""saturdayClose"":""21:00"",""saturdayCloseHour"":21.0,""sundayOpen"":""11:00"",""sundayOpenHour"":11.0,""sundayClose"":""21:00"",""sundayCloseHour"":21.0}	{""weeklyClosingDays"":[],""monthlyClosingDayOfWeeks"":[],""yearlyClosingDays"":[]}	-1	-1	[]	1.7	0.5	0.1	http://place.map.daum.net/24780480	
daum.19143360	오가네전복설렁탕	33.26825043	126.589476		음식점	한식	설렁탕	대한민국	제주특별자치도	서귀포시	토평동 1284 	{""weekDayOpen"":""08:00"",""weekDayOpenHour"":8.0,""weekDayClose"":""17:30"",""weekDayCloseHour"":17.5,""saturdayOpen"":""08:00"",""saturdayOpenHour"":8.0,""saturdayClose"":""17:30"",""saturdayCloseHour"":17.5,""sundayOpen"":""08:00"",""sundayOpenHour"":8.0,""sundayClose"":""17:30"",""sundayCloseHour"":17.5}	{""weeklyClosingDays"":[""Wednesday""],""monthlyClosingDayOfWeeks"":[],""yearlyClosingDays"":[""매월 첫째"",""셋째주 수요일""]}	-1	-1	[]	0.0	0.5	0.1	http://place.map.daum.net/19143360	
daum.20031551	명진전복	33.5324709	126.850185		음식점	한식	해물/생선	대한민국	제주특별자치도	제주시	구좌읍 평대리 515-28 	{""weekDayOpen"":""11:00"",""weekDayOpenHour"":11.0,""weekDayClose"":""21:00"",""weekDayCloseHour"":21.0,""saturdayOpen"":""11:00"",""saturdayOpenHour"":11.0,""saturdayClose"":""21:00"",""saturdayCloseHour"":21.0,""sundayOpen"":""11:00"",""sundayOpenHour"":11.0,""sundayClose"":""21:00"",""sundayCloseHour"":21.0}	{""weeklyClosingDays"":[""Tuesday""],""monthlyClosingDayOfWeeks"":[],""yearlyClosingDays"":[]}	-1	-1	[]	4.0	0.5	0.1	http://place.map.daum.net/20031551	
daum.11833921	휘닉스아일랜드 민트	33.42916557	126.9338051		음식점	양식	이탈리안	대한민국	제주특별자치도	서귀포시	성산읍 고성리 46 글라스하우스 2층 	{""weekDayOpen"":""12:00"",""weekDayOpenHour"":12.0,""weekDayClose"":""21:00"",""weekDayCloseHour"":21.0,""saturdayOpenHour"":0.0,""saturdayCloseHour"":0.0,""sundayOpenHour"":0.0,""sundayCloseHour"":0.0}	{""weeklyClosingDays"":[],""monthlyClosingDayOfWeeks"":[],""yearlyClosingDays"":[]}	-1	-1	[]	8.0	1.0	0.0256	http://place.map.daum.net/11833921	
daum.8856076	늘봄흑돼지	33.47947934	126.4728666		음식점	한식	육류/고기	대한민국	제주특별자치도	제주시	노형동 2343-3 	{""weekDayOpen"":""11:00"",""weekDayOpenHour"":11.0,""weekDayClose"":""23:59"",""weekDayCloseHour"":23.983333333333334,""saturdayOpen"":""11:00"",""saturdayOpenHour"":11.0,""saturdayClose"":""23:59"",""saturdayCloseHour"":23.983333333333334,""sundayOpen"":""11:00"",""sundayOpenHour"":11.0,""sundayClose"":""23:59"",""sundayCloseHour"":23.983333333333334}	{""weeklyClosingDays"":[],""monthlyClosingDayOfWeeks"":[],""yearlyClosingDays"":[]}	-1	-1	[]	3.8	0.5	0.1	http://place.map.daum.net/8856076	
daum.10317311	대촌회미락	33.54283238303758	126.664480843723		음식점	한식	해물/생선	대한민국	제주특별자치도	제주시	조천읍 함덕리 1252-40 	{""weekDayOpen"":""11:00"",""weekDayOpenHour"":11.0,""weekDayClose"":""21:00"",""weekDayCloseHour"":21.0,""saturdayOpen"":""11:00"",""saturdayOpenHour"":11.0,""saturdayClose"":""21:00"",""saturdayCloseHour"":21.0,""sundayOpen"":""11:00"",""sundayOpenHour"":11.0,""sundayClose"":""21:00"",""sundayCloseHour"":21.0}	{""weeklyClosingDays"":[],""monthlyClosingDayOfWeeks"":[],""yearlyClosingDays"":[]}	-1	-1	[]	7.0	0.5	0.1	http://place.map.daum.net/10317311	
daum.10312092	대포횟집	33.23916422	126.4390438		음식점	한식	해물/생선	대한민국	제주특별자치도	서귀포시	대포동 2184 	{""weekDayOpen"":""11:00"",""weekDayOpenHour"":11.0,""weekDayClose"":""21:00"",""weekDayCloseHour"":21.0,""saturdayOpen"":""11:00"",""saturdayOpenHour"":11.0,""saturdayClose"":""21:00"",""saturdayCloseHour"":21.0,""sundayOpen"":""11:00"",""sundayOpenHour"":11.0,""sundayClose"":""21:00"",""sundayCloseHour"":21.0}	{""weeklyClosingDays"":[],""monthlyClosingDayOfWeeks"":[],""yearlyClosingDays"":[]}	-1	-1	[]	5.8	0.5	0.1	http://place.map.daum.net/10312092	
daum.8173442	흑돼지구이집하영	33.25512031	126.416522		음식점	한식	육류/고기	대한민국	제주특별자치도	서귀포시	색달동 2477-5 	{""weekDayOpen"":""11:00"",""weekDayOpenHour"":11.0,""weekDayClose"":""21:00"",""weekDayCloseHour"":21.0,""saturdayOpen"":""11:00"",""saturdayOpenHour"":11.0,""saturdayClose"":""21:00"",""saturdayCloseHour"":21.0,""sundayOpen"":""11:00"",""sundayOpenHour"":11.0,""sundayClose"":""21:00"",""sundayCloseHour"":21.0}	{""weeklyClosingDays"":[],""monthlyClosingDayOfWeeks"":[],""yearlyClosingDays"":[]}	-1	-1	[]	8.4	0.5	0.1	http://place.map.daum.net/8173442	
daum.8536676	유일반점	33.50101111	126.5307111		음식점	중식	중화요리	대한민국	제주특별자치도	제주시	이도2동 1176-25 	{""weekDayOpen"":""11:00"",""weekDayOpenHour"":11.0,""weekDayClose"":""21:00"",""weekDayCloseHour"":21.0,""saturdayOpen"":""11:00"",""saturdayOpenHour"":11.0,""saturdayClose"":""21:00"",""saturdayCloseHour"":21.0,""sundayOpen"":""11:00"",""sundayOpenHour"":11.0,""sundayClose"":""21:00"",""sundayCloseHour"":21.0}	{""weeklyClosingDays"":[],""monthlyClosingDayOfWeeks"":[],""yearlyClosingDays"":[]}	-1	-1	[]	3.8	0.5	0.1	http://place.map.daum.net/8536676	
daum.11486940	삼보식당	33.24766852	126.5590719		음식점	한식		대한민국	제주특별자치도	서귀포시	서귀동 319-8 	{""weekDayOpen"":""08:00"",""weekDayOpenHour"":8.0,""weekDayClose"":""21:00"",""weekDayCloseHour"":21.0,""saturdayOpen"":""08:00"",""saturdayOpenHour"":8.0,""saturdayClose"":""21:00"",""saturdayCloseHour"":21.0,""sundayOpen"":""08:00"",""sundayOpenHour"":8.0,""sundayClose"":""21:00"",""sundayCloseHour"":21.0}	{""weeklyClosingDays"":[],""monthlyClosingDayOfWeeks"":[],""yearlyClosingDays"":[]}	-1	-1	[]	4.4	0.5	0.1	http://place.map.daum.net/11486940	
daum.23790875	돈구어	33.52492386	126.854168		음식점	한식	육류/고기	대한민국	제주특별자치도	제주시	구좌읍 세화리 3648-1 	{""weekDayOpen"":""11:00"",""weekDayOpenHour"":11.0,""weekDayClose"":""21:00"",""weekDayCloseHour"":21.0,""saturdayOpen"":""11:00"",""saturdayOpenHour"":11.0,""saturdayClose"":""21:00"",""saturdayCloseHour"":21.0,""sundayOpen"":""11:00"",""sundayOpenHour"":11.0,""sundayClose"":""21:00"",""sundayCloseHour"":21.0}	{""weeklyClosingDays"":[],""monthlyClosingDayOfWeeks"":[],""yearlyClosingDays"":[]}	-1	-1	[]	0.0	0.5	0.1	http://place.map.daum.net/23790875	
daum.12501703	천짓골	33.24822072	126.5612238		음식점	한식	육류/고기	대한민국	제주특별자치도	서귀포시	천지동 294-10 	{""weekDayOpen"":""11:00"",""weekDayOpenHour"":11.0,""weekDayClose"":""21:00"",""weekDayCloseHour"":21.0,""saturdayOpen"":""11:00"",""saturdayOpenHour"":11.0,""saturdayClose"":""21:00"",""saturdayCloseHour"":21.0,""sundayOpen"":""11:00"",""sundayOpenHour"":11.0,""sundayClose"":""21:00"",""sundayCloseHour"":21.0}	{""weeklyClosingDays"":[],""monthlyClosingDayOfWeeks"":[],""yearlyClosingDays"":[]}	-1	-1	[]	6.0	0.5	0.1	http://place.map.daum.net/12501703	
daum.10105733	흑돈가	33.48000517	126.473552		음식점	한식	육류/고기	대한민국	제주특별자치도	제주시	노형동 1509 	{""weekDayOpen"":""11:00"",""weekDayOpenHour"":11.0,""weekDayClose"":""21:00"",""weekDayCloseHour"":21.0,""saturdayOpen"":""11:00"",""saturdayOpenHour"":11.0,""saturdayClose"":""21:00"",""saturdayCloseHour"":21.0,""sundayOpen"":""11:00"",""sundayOpenHour"":11.0,""sundayClose"":""21:00"",""sundayCloseHour"":21.0}	{""weeklyClosingDays"":[],""monthlyClosingDayOfWeeks"":[],""yearlyClosingDays"":[""공휴일""]}	-1	-1	[]	6.4	0.5	0.1	http://place.map.daum.net/10105733	
daum.8541672	천제연토속음식점	33.25679187	126.410776		음식점	한식		대한민국	제주특별자치도	서귀포시	색달동 2539 	{""weekDayOpen"":""11:00"",""weekDayOpenHour"":11.0,""weekDayClose"":""21:00"",""weekDayCloseHour"":21.0,""saturdayOpen"":""11:00"",""saturdayOpenHour"":11.0,""saturdayClose"":""21:00"",""saturdayCloseHour"":21.0,""sundayOpen"":""11:00"",""sundayOpenHour"":11.0,""sundayClose"":""21:00"",""sundayCloseHour"":21.0}	{""weeklyClosingDays"":[],""monthlyClosingDayOfWeeks"":[],""yearlyClosingDays"":[]}	-1	-1	[]	6.6	0.5	0.1	http://place.map.daum.net/8541672	
daum.10915490	해오름식당	33.4912905	126.4797678		음식점	한식	육류/고기	대한민국	제주특별자치도	제주시	노형동 1047-2 	{""weekDayOpen"":""10:00"",""weekDayOpenHour"":10.0,""weekDayClose"":""23:00"",""weekDayCloseHour"":23.0,""saturdayOpen"":""10:00"",""saturdayOpenHour"":10.0,""saturdayClose"":""23:00"",""saturdayCloseHour"":23.0,""sundayOpen"":""10:00"",""sundayOpenHour"":10.0,""sundayClose"":""23:00"",""sundayCloseHour"":23.0}	{""weeklyClosingDays"":[],""monthlyClosingDayOfWeeks"":[],""yearlyClosingDays"":[""명절""]}	-1	-1	[]	8.0	0.5	0.1	http://place.map.daum.net/10915490	
daum.11594022	청진동뚝배기	33.46233431	126.9342403		음식점	한식		대한민국	제주특별자치도	서귀포시	성산읍 성산리 158-4 	{""weekDayOpen"":""11:00"",""weekDayOpenHour"":11.0,""weekDayClose"":""21:00"",""weekDayCloseHour"":21.0,""saturdayOpen"":""11:00"",""saturdayOpenHour"":11.0,""saturdayClose"":""21:00"",""saturdayCloseHour"":21.0,""sundayOpen"":""11:00"",""sundayOpenHour"":11.0,""sundayClose"":""21:00"",""sundayCloseHour"":21.0}	{""weeklyClosingDays"":[],""monthlyClosingDayOfWeeks"":[],""yearlyClosingDays"":[]}	-1	-1	[]	5.8	0.5	0.1	http://place.map.daum.net/11594022	
daum.8903514	대풍미락	33.545379046905545	126.6620376151684		음식점	한식	해물/생선	대한민국	제주특별자치도	제주시	조천읍 함덕리 1028 	{""weekDayOpen"":""11:00"",""weekDayOpenHour"":11.0,""weekDayClose"":""21:00"",""weekDayCloseHour"":21.0,""saturdayOpen"":""11:00"",""saturdayOpenHour"":11.0,""saturdayClose"":""21:00"",""saturdayCloseHour"":21.0,""sundayOpen"":""11:00"",""sundayOpenHour"":11.0,""sundayClose"":""21:00"",""sundayCloseHour"":21.0}	{""weeklyClosingDays"":[],""monthlyClosingDayOfWeeks"":[],""yearlyClosingDays"":[]}	-1	-1	[]	7.4	0.5	0.1	http://place.map.daum.net/8903514	
daum.8026532	용출횟집	33.51624187	126.5077586		음식점	한식	해물/생선	대한민국	제주특별자치도	제주시	용담3동 505 	{""weekDayOpen"":""11:00"",""weekDayOpenHour"":11.0,""weekDayClose"":""21:00"",""weekDayCloseHour"":21.0,""saturdayOpen"":""11:00"",""saturdayOpenHour"":11.0,""saturdayClose"":""21:00"",""saturdayCloseHour"":21.0,""sundayOpen"":""11:00"",""sundayOpenHour"":11.0,""sundayClose"":""21:00"",""sundayCloseHour"":21.0}	{""weeklyClosingDays"":[],""monthlyClosingDayOfWeeks"":[],""yearlyClosingDays"":[]}	-1	-1	[]	8.5	0.5	0.1	http://place.map.daum.net/8026532	
daum.23970759	어진이네횟집	33.2407942	126.6108663		음식점	한식	해물/생선	대한민국	제주특별자치도	서귀포시	보목동 274-6 	{""weekDayOpen"":""11:00"",""weekDayOpenHour"":11.0,""weekDayClose"":""21:00"",""weekDayCloseHour"":21.0,""saturdayOpen"":""11:00"",""saturdayOpenHour"":11.0,""saturdayClose"":""21:00"",""saturdayCloseHour"":21.0,""sundayOpen"":""11:00"",""sundayOpenHour"":11.0,""sundayClose"":""21:00"",""sundayCloseHour"":21.0}	{""weeklyClosingDays"":[],""monthlyClosingDayOfWeeks"":[],""yearlyClosingDays"":[]}	-1	-1	[]	4.6	0.5	0.1	http://place.map.daum.net/23970759	
daum.8016700	오조해녀의집	33.46973502	126.9222935		음식점	한식	해물/생선	대한민국	제주특별자치도	서귀포시	성산읍 오조리 3 	{""weekDayOpenHour"":0.0,""weekDayCloseHour"":0.0,""saturdayOpen"":""06:00"",""saturdayOpenHour"":6.0,""saturdayClose"":""23:00"",""saturdayCloseHour"":23.0,""sundayOpen"":""06:00"",""sundayOpenHour"":6.0,""sundayClose"":""23:00"",""sundayCloseHour"":23.0}	{""weeklyClosingDays"":[],""monthlyClosingDayOfWeeks"":[],""yearlyClosingDays"":[]}	-1	-1	[]	6.4	0.5	0.1	http://place.map.daum.net/8016700	
daum.26873228	춘심이네 3호점	33.54282389	126.6707214		음식점	한식	국수	대한민국	제주특별자치도	제주시	조천읍 함덕리 산14-1 	{""weekDayOpen"":""11:00"",""weekDayOpenHour"":11.0,""weekDayClose"":""21:00"",""weekDayCloseHour"":21.0,""saturdayOpen"":""11:00"",""saturdayOpenHour"":11.0,""saturdayClose"":""21:00"",""saturdayCloseHour"":21.0,""sundayOpen"":""11:00"",""sundayOpenHour"":11.0,""sundayClose"":""21:00"",""sundayCloseHour"":21.0}	{""weeklyClosingDays"":[],""monthlyClosingDayOfWeeks"":[],""yearlyClosingDays"":[]}	-1	-1	[]	10.0	0.5	0.1	http://place.map.daum.net/26873228	
daum.22852532	착한튀김	33.52047283	126.5658088		음식점	분식		대한민국	제주특별자치도	제주시	화북동 1973-20 	{""weekDayOpen"":""11:00"",""weekDayOpenHour"":11.0,""weekDayClose"":""21:00"",""weekDayCloseHour"":21.0,""saturdayOpen"":""11:00"",""saturdayOpenHour"":11.0,""saturdayClose"":""21:00"",""saturdayCloseHour"":21.0,""sundayOpen"":""11:00"",""sundayOpenHour"":11.0,""sundayClose"":""21:00"",""sundayCloseHour"":21.0}	{""weeklyClosingDays"":[""Sunday""],""monthlyClosingDayOfWeeks"":[],""yearlyClosingDays"":[]}	-1	-1	[]	9.0	0.5	0.1	http://place.map.daum.net/22852532	
daum.8025234	올래국수	33.48832678	126.4894782		음식점	한식	국수	대한민국	제주특별자치도	제주시	연동 261-16 1층 	{""weekDayOpen"":""09:30"",""weekDayOpenHour"":9.5,""weekDayClose"":""21:00"",""weekDayCloseHour"":21.0,""saturdayOpen"":""09:30"",""saturdayOpenHour"":9.5,""saturdayClose"":""21:00"",""saturdayCloseHour"":21.0,""sundayOpenHour"":0.0,""sundayCloseHour"":0.0}	{""weeklyClosingDays"":[""Sunday""],""monthlyClosingDayOfWeeks"":[],""yearlyClosingDays"":[""설날 및 추석연휴""]}	-1	-1	[]	7.8	1.0	0.0256	http://place.map.daum.net/8025234	
daum.17079132	중문신라원	33.25485606	126.4170818		음식점	한식	육류/고기	대한민국	제주특별자치도	서귀포시	색달동 2480-4 	{""weekDayOpen"":""11:00"",""weekDayOpenHour"":11.0,""weekDayClose"":""21:00"",""weekDayCloseHour"":21.0,""saturdayOpen"":""11:00"",""saturdayOpenHour"":11.0,""saturdayClose"":""21:00"",""saturdayCloseHour"":21.0,""sundayOpen"":""11:00"",""sundayOpenHour"":11.0,""sundayClose"":""21:00"",""sundayCloseHour"":21.0}	{""weeklyClosingDays"":[],""monthlyClosingDayOfWeeks"":[],""yearlyClosingDays"":[]}	-1	-1	[]	7.5	0.5	0.1	http://place.map.daum.net/17079132	
daum.22538448	해마루	33.4498087	126.9211239		음식점	한식		대한민국	제주특별자치도	서귀포시	성산읍 고성리 236 	{""weekDayOpen"":""11:00"",""weekDayOpenHour"":11.0,""weekDayClose"":""21:00"",""weekDayCloseHour"":21.0,""saturdayOpen"":""11:00"",""saturdayOpenHour"":11.0,""saturdayClose"":""21:00"",""saturdayCloseHour"":21.0,""sundayOpen"":""11:00"",""sundayOpenHour"":11.0,""sundayClose"":""21:00"",""sundayCloseHour"":21.0}	{""weeklyClosingDays"":[],""monthlyClosingDayOfWeeks"":[],""yearlyClosingDays"":[]}	-1	-1	[]	8.3	0.5	0.1	http://place.map.daum.net/22538448	
daum.8526214	용이식당	33.25118541	126.5602389		음식점	한식	육류/고기	대한민국	제주특별자치도	서귀포시	서귀동 298-8 	{""weekDayOpen"":""11:00"",""weekDayOpenHour"":11.0,""weekDayClose"":""21:00"",""weekDayCloseHour"":21.0,""saturdayOpen"":""11:00"",""saturdayOpenHour"":11.0,""saturdayClose"":""21:00"",""saturdayCloseHour"":21.0,""sundayOpen"":""11:00"",""sundayOpenHour"":11.0,""sundayClose"":""21:00"",""sundayCloseHour"":21.0}	{""weeklyClosingDays"":[""Wednesday""],""monthlyClosingDayOfWeeks"":[],""yearlyClosingDays"":[]}	-1	-1	[]	7.8	0.5	0.1	http://place.map.daum.net/8526214	
daum.11081046	명가해장국	33.54163825	126.6656569		음식점	한식	해장국	대한민국	제주특별자치도	제주시	조천읍 함덕리 1268-2 	{""weekDayOpen"":""11:00"",""weekDayOpenHour"":11.0,""weekDayClose"":""21:00"",""weekDayCloseHour"":21.0,""saturdayOpen"":""11:00"",""saturdayOpenHour"":11.0,""saturdayClose"":""21:00"",""saturdayCloseHour"":21.0,""sundayOpen"":""11:00"",""sundayOpenHour"":11.0,""sundayClose"":""21:00"",""sundayCloseHour"":21.0}	{""weeklyClosingDays"":[],""monthlyClosingDayOfWeeks"":[],""yearlyClosingDays"":[]}	-1	-1	[]	4.8	0.5	0.1	http://place.map.daum.net/11081046	
daum.15225413	대포해송횟집	33.23903326	126.4428042		음식점	한식	해물/생선	대한민국	제주특별자치도	서귀포시	대포동 2356-1 	{""weekDayOpen"":""11:00"",""weekDayOpenHour"":11.0,""weekDayClose"":""21:00"",""weekDayCloseHour"":21.0,""saturdayOpen"":""11:00"",""saturdayOpenHour"":11.0,""saturdayClose"":""21:00"",""saturdayCloseHour"":21.0,""sundayOpen"":""11:00"",""sundayOpenHour"":11.0,""sundayClose"":""21:00"",""sundayCloseHour"":21.0}	{""weeklyClosingDays"":[],""monthlyClosingDayOfWeeks"":[],""yearlyClosingDays"":[]}	-1	-1	[]	7.5	0.5	0.1	http://place.map.daum.net/15225413	
daum.7967592	순옥이네명가	33.50550148	126.4649774		음식점	한식	해물/생선	대한민국	제주특별자치도	제주시	도두동 2615-5 	{""weekDayOpen"":""09:00"",""weekDayOpenHour"":9.0,""weekDayClose"":""20:30"",""weekDayCloseHour"":20.5,""saturdayOpen"":""09:00"",""saturdayOpenHour"":9.0,""saturdayClose"":""20:30"",""saturdayCloseHour"":20.5,""sundayOpen"":""09:00"",""sundayOpenHour"":9.0,""sundayClose"":""20:30"",""sundayCloseHour"":20.5}	{""weeklyClosingDays"":[],""monthlyClosingDayOfWeeks"":[],""yearlyClosingDays"":[""설연휴"",""추석연휴""]}	-1	-1	[]	6.2	0.5	0.1	http://place.map.daum.net/7967592	
daum.8294507	명리동식당	33.31662826	126.2704088		음식점	한식	육류/고기	대한민국	제주특별자치도	제주시	한경면 저지리 3136 	{""weekDayOpen"":""11:00"",""weekDayOpenHour"":11.0,""weekDayClose"":""21:00"",""weekDayCloseHour"":21.0,""saturdayOpen"":""11:00"",""saturdayOpenHour"":11.0,""saturdayClose"":""21:00"",""saturdayCloseHour"":21.0,""sundayOpen"":""11:00"",""sundayOpenHour"":11.0,""sundayClose"":""21:00"",""sundayCloseHour"":21.0}	{""weeklyClosingDays"":[""Monday""],""monthlyClosingDayOfWeeks"":[],""yearlyClosingDays"":[]}	-1	-1	[]	7.8	0.5	0.1	http://place.map.daum.net/8294507	
daum.8085329	마원	33.24785056	126.4060502		음식점	한식	육류/고기	대한민국	제주특별자치도	서귀포시	색달동 3092 	{""weekDayOpen"":""11:00"",""weekDayOpenHour"":11.0,""weekDayClose"":""22:00"",""weekDayCloseHour"":22.0,""saturdayOpen"":""11:00"",""saturdayOpenHour"":11.0,""saturdayClose"":""22:00"",""saturdayCloseHour"":22.0,""sundayOpen"":""11:00"",""sundayOpenHour"":11.0,""sundayClose"":""22:00"",""sundayCloseHour"":22.0}	{""weeklyClosingDays"":[],""monthlyClosingDayOfWeeks"":[],""yearlyClosingDays"":[]}	-1	-1	[]	6.9	0.5	0.1	http://place.map.daum.net/8085329	
daum.8094035	진주식당	33.24661548	126.5590901		음식점	한식	해물/생선	대한민국	제주특별자치도	서귀포시	서귀동 314-7 	{""weekDayOpen"":""07:00"",""weekDayOpenHour"":7.0,""weekDayClose"":""21:00"",""weekDayCloseHour"":21.0,""saturdayOpenHour"":0.0,""saturdayCloseHour"":0.0,""sundayOpenHour"":0.0,""sundayCloseHour"":0.0}	{""weeklyClosingDays"":[],""monthlyClosingDayOfWeeks"":[],""yearlyClosingDays"":[]}	-1	-1	[]	4.3	0.5	0.1	http://place.map.daum.net/8094035	
daum.8522514	우리봉식당	33.46216841	126.9342319		음식점	한식	해물/생선	대한민국	제주특별자치도	서귀포시	성산읍 성산리 	{""weekDayOpen"":""11:00"",""weekDayOpenHour"":11.0,""weekDayClose"":""21:00"",""weekDayCloseHour"":21.0,""saturdayOpen"":""11:00"",""saturdayOpenHour"":11.0,""saturdayClose"":""21:00"",""saturdayCloseHour"":21.0,""sundayOpen"":""11:00"",""sundayOpenHour"":11.0,""sundayClose"":""21:00"",""sundayCloseHour"":21.0}	{""weeklyClosingDays"":[],""monthlyClosingDayOfWeeks"":[],""yearlyClosingDays"":[]}	-1	-1	[]	6.7	1.0	0.0256	http://place.map.daum.net/8522514	
daum.11417273	다가미	33.4904475	126.5286677		음식점	분식		대한민국	제주특별자치도	제주시	도남동 68-2 	{""weekDayOpen"":""11:00"",""weekDayOpenHour"":11.0,""weekDayClose"":""21:00"",""weekDayCloseHour"":21.0,""saturdayOpen"":""11:00"",""saturdayOpenHour"":11.0,""saturdayClose"":""21:00"",""saturdayCloseHour"":21.0,""sundayOpen"":""11:00"",""sundayOpenHour"":11.0,""sundayClose"":""21:00"",""sundayCloseHour"":21.0}	{""weeklyClosingDays"":[],""monthlyClosingDayOfWeeks"":[],""yearlyClosingDays"":[]}	-1	-1	[]	8.1	0.5	0.1	http://place.map.daum.net/11417273	
daum.12427764	노형삼대국수회관	33.48284753	126.4787983		음식점	한식	국수	대한민국	제주특별자치도	제주시	노형동 3791-7 	{""weekDayOpen"":""11:00"",""weekDayOpenHour"":11.0,""weekDayClose"":""21:00"",""weekDayCloseHour"":21.0,""saturdayOpen"":""11:00"",""saturdayOpenHour"":11.0,""saturdayClose"":""21:00"",""saturdayCloseHour"":21.0,""sundayOpen"":""11:00"",""sundayOpenHour"":11.0,""sundayClose"":""21:00"",""sundayCloseHour"":21.0}	{""weeklyClosingDays"":[],""monthlyClosingDayOfWeeks"":[],""yearlyClosingDays"":[]}	-1	-1	[]	6.3	0.5	0.1	http://place.map.daum.net/12427764	
daum.20198888	협재해녀의집	33.39881773	126.2438997		음식점	한식	해물/생선	대한민국	제주특별자치도	제주시	한림읍 협재리 1459-2 	{""weekDayOpen"":""10:00"",""weekDayOpenHour"":10.0,""weekDayClose"":""21:00"",""weekDayCloseHour"":21.0,""saturdayOpen"":""10:00"",""saturdayOpenHour"":10.0,""saturdayClose"":""21:00"",""saturdayCloseHour"":21.0,""sundayOpen"":""10:00"",""sundayOpenHour"":10.0,""sundayClose"":""21:00"",""sundayCloseHour"":21.0}	{""weeklyClosingDays"":[],""monthlyClosingDayOfWeeks"":[],""yearlyClosingDays"":[]}	-1	-1	[]	2.5	0.5	0.1	http://place.map.daum.net/20198888	
daum.14505892	돈꼬레	33.54028285295175	126.6699127393344		음식점	한식	육류/고기	대한민국	제주특별자치도	제주시	조천읍 함덕리 960 	{""weekDayOpen"":""11:00"",""weekDayOpenHour"":11.0,""weekDayClose"":""21:00"",""weekDayCloseHour"":21.0,""saturdayOpen"":""11:00"",""saturdayOpenHour"":11.0,""saturdayClose"":""21:00"",""saturdayCloseHour"":21.0,""sundayOpen"":""11:00"",""sundayOpenHour"":11.0,""sundayClose"":""21:00"",""sundayCloseHour"":21.0}	{""weeklyClosingDays"":[],""monthlyClosingDayOfWeeks"":[],""yearlyClosingDays"":[]}	-1	-1	[]	10.0	0.5	0.1	http://place.map.daum.net/14505892	
daum.15838018	덕성원 본점	33.24491039	126.5634036		음식점	중식	중화요리	대한민국	제주특별자치도	서귀포시	정방동 474 	{""weekDayOpen"":""10:30"",""weekDayOpenHour"":10.5,""weekDayClose"":""21:00"",""weekDayCloseHour"":21.0,""saturdayOpen"":""10:30"",""saturdayOpenHour"":10.5,""saturdayClose"":""21:00"",""saturdayCloseHour"":21.0,""sundayOpen"":""10:30"",""sundayOpenHour"":10.5,""sundayClose"":""21:00"",""sundayCloseHour"":21.0}	{""weeklyClosingDays"":[],""monthlyClosingDayOfWeeks"":[],""yearlyClosingDays"":[]}	-1	-1	[]	7.1	0.5	0.1	http://place.map.daum.net/15838018	
daum.19358926	요네상회	33.26606128	126.641991		음식점	양식	해산물	대한민국	제주특별자치도	서귀포시	남원읍 신례리 30-6 	{""weekDayOpen"":""12:00"",""weekDayOpenHour"":12.0,""weekDayClose"":""20:00"",""weekDayCloseHour"":20.0,""saturdayOpen"":""12:00"",""saturdayOpenHour"":12.0,""saturdayClose"":""20:00"",""saturdayCloseHour"":20.0,""sundayOpen"":""12:00"",""sundayOpenHour"":12.0,""sundayClose"":""20:00"",""sundayCloseHour"":20.0}	{""weeklyClosingDays"":[""Tuesday""],""monthlyClosingDayOfWeeks"":[],""yearlyClosingDays"":[]}	-1	-1	[]	9.0	0.5	0.1	http://place.map.daum.net/19358926	
daum.8874256	낭뜰에쉼팡	33.47354437	126.6571312		음식점	한식		대한민국	제주특별자치도	제주시	조천읍 와흘리 125 	{""weekDayOpen"":""11:00"",""weekDayOpenHour"":11.0,""weekDayClose"":""21:00"",""weekDayCloseHour"":21.0,""saturdayOpen"":""11:00"",""saturdayOpenHour"":11.0,""saturdayClose"":""21:00"",""saturdayCloseHour"":21.0,""sundayOpen"":""11:00"",""sundayOpenHour"":11.0,""sundayClose"":""21:00"",""sundayCloseHour"":21.0}	{""weeklyClosingDays"":[],""monthlyClosingDayOfWeeks"":[],""yearlyClosingDays"":[]}	-1	-1	[]	6.9	0.5	0.1	http://place.map.daum.net/8874256	
daum.25161792	테라로사 제주서귀포점	33.24952513	126.6188628		음식점	카페	커피전문점	대한민국	제주특별자치도	서귀포시	하효동 1306-1 	{""weekDayOpen"":""09:00"",""weekDayOpenHour"":9.0,""weekDayClose"":""21:00"",""weekDayCloseHour"":21.0,""saturdayOpen"":""09:00"",""saturdayOpenHour"":9.0,""saturdayClose"":""21:00"",""saturdayCloseHour"":21.0,""sundayOpen"":""09:00"",""sundayOpenHour"":9.0,""sundayClose"":""21:00"",""sundayCloseHour"":21.0}	{""weeklyClosingDays"":[],""monthlyClosingDayOfWeeks"":[],""yearlyClosingDays"":[]}	-1	-1	[]	6.0	0.5	0.1	http://place.map.daum.net/25161792	
daum.9299645	우정횟집	33.24965952	126.5632168		음식점	한식	해물/생선	대한민국	제주특별자치도	서귀포시	서귀동 276-6 	{""weekDayOpen"":""11:00"",""weekDayOpenHour"":11.0,""weekDayClose"":""21:00"",""weekDayCloseHour"":21.0,""saturdayOpen"":""11:00"",""saturdayOpenHour"":11.0,""saturdayClose"":""21:00"",""saturdayCloseHour"":21.0,""sundayOpen"":""11:00"",""sundayOpenHour"":11.0,""sundayClose"":""21:00"",""sundayCloseHour"":21.0}	{""weeklyClosingDays"":[],""monthlyClosingDayOfWeeks"":[],""yearlyClosingDays"":[]}	-1	-1	[]	9.3	0.5	0.1	http://place.map.daum.net/9299645	
daum.10437289	산방식당	33.22347538	126.2542082		음식점	한식	냉면	대한민국	제주특별자치도	서귀포시	대정읍 하모리 864-3 	{""weekDayOpen"":""11:00"",""weekDayOpenHour"":11.0,""weekDayClose"":""18:00"",""weekDayCloseHour"":18.0,""saturdayOpenHour"":0.0,""saturdayCloseHour"":0.0,""sundayOpenHour"":0.0,""sundayCloseHour"":0.0}	{""weeklyClosingDays"":[],""monthlyClosingDayOfWeeks"":[],""yearlyClosingDays"":[""명절""]}	-1	-1	[]	7.7	0.5	0.1	http://place.map.daum.net/10437289	
daum.16440052	남또리자연산활어회	33.42696233	126.4109621		음식점	한식	해물/생선	대한민국	제주특별자치도	제주시	애월읍 유수암리 335-3 	{""weekDayOpen"":""11:00"",""weekDayOpenHour"":11.0,""weekDayClose"":""21:00"",""weekDayCloseHour"":21.0,""saturdayOpen"":""11:00"",""saturdayOpenHour"":11.0,""saturdayClose"":""21:00"",""saturdayCloseHour"":21.0,""sundayOpen"":""11:00"",""sundayOpenHour"":11.0,""sundayClose"":""21:00"",""sundayCloseHour"":21.0}	{""weeklyClosingDays"":[],""monthlyClosingDayOfWeeks"":[],""yearlyClosingDays"":[]}	-1	-1	[]	7.0	0.5	0.1	http://place.map.daum.net/16440052	
daum.17796633	이어도횟집	33.54138990842566	126.6712306827595		음식점	한식	해물/생선	대한민국	제주특별자치도	제주시	조천읍 함덕리 274 대명리조트 제주 본관동 2층 	{""weekDayOpen"":""07:00"",""weekDayOpenHour"":7.0,""weekDayClose"":""22:00"",""weekDayCloseHour"":22.0,""saturdayOpen"":""07:00"",""saturdayOpenHour"":7.0,""saturdayClose"":""22:00"",""saturdayCloseHour"":22.0,""sundayOpen"":""07:00"",""sundayOpenHour"":7.0,""sundayClose"":""22:00"",""sundayCloseHour"":22.0}	{""weeklyClosingDays"":[],""monthlyClosingDayOfWeeks"":[],""yearlyClosingDays"":[]}	-1	-1	[]	9.7	0.5	0.1	http://place.map.daum.net/17796633	
daum.24839193	국수바다 본점	33.25855421	126.4059692		음식점	한식	국수	대한민국	제주특별자치도	서귀포시	색달동 2130 	{""weekDayOpen"":""11:00"",""weekDayOpenHour"":11.0,""weekDayClose"":""21:00"",""weekDayCloseHour"":21.0,""saturdayOpen"":""11:00"",""saturdayOpenHour"":11.0,""saturdayClose"":""21:00"",""saturdayCloseHour"":21.0,""sundayOpen"":""11:00"",""sundayOpenHour"":11.0,""sundayClose"":""21:00"",""sundayCloseHour"":21.0}	{""weeklyClosingDays"":[],""monthlyClosingDayOfWeeks"":[],""yearlyClosingDays"":[""둘째"",""넷째 목요일""]}	-1	-1	[]	10.0	0.5	0.1	http://place.map.daum.net/24839193	
daum.13581556	주상절리회국수	33.23858705	126.4310735		음식점	한식	국수	대한민국	제주특별자치도	서귀포시	대포동 2536 	{""weekDayOpen"":""11:00"",""weekDayOpenHour"":11.0,""weekDayClose"":""21:00"",""weekDayCloseHour"":21.0,""saturdayOpen"":""11:00"",""saturdayOpenHour"":11.0,""saturdayClose"":""21:00"",""saturdayCloseHour"":21.0,""sundayOpen"":""11:00"",""sundayOpenHour"":11.0,""sundayClose"":""21:00"",""sundayCloseHour"":21.0}	{""weeklyClosingDays"":[],""monthlyClosingDayOfWeeks"":[],""yearlyClosingDays"":[]}	-1	-1	[]	8.5	0.5	0.1	http://place.map.daum.net/13581556	
daum.8258838	덤장 중문점	33.25773504	126.408134		음식점	한식	해물/생선	대한민국	제주특별자치도	서귀포시	색달동 2119 	{""weekDayOpen"":""11:00"",""weekDayOpenHour"":11.0,""weekDayClose"":""21:00"",""weekDayCloseHour"":21.0,""saturdayOpen"":""11:00"",""saturdayOpenHour"":11.0,""saturdayClose"":""21:00"",""saturdayCloseHour"":21.0,""sundayOpen"":""11:00"",""sundayOpenHour"":11.0,""sundayClose"":""21:00"",""sundayCloseHour"":21.0}	{""weeklyClosingDays"":[],""monthlyClosingDayOfWeeks"":[],""yearlyClosingDays"":[]}	-1	-1	[]	5.4	0.5	0.1	http://place.map.daum.net/8258838	
daum.26300269	부농	33.48273196	126.7464244		음식점	한식		대한민국	제주특별자치도	제주시	구좌읍 덕천리 1176 	{""weekDayOpen"":""11:00"",""weekDayOpenHour"":11.0,""weekDayClose"":""21:00"",""weekDayCloseHour"":21.0,""saturdayOpen"":""11:00"",""saturdayOpenHour"":11.0,""saturdayClose"":""21:00"",""saturdayCloseHour"":21.0,""sundayOpen"":""11:00"",""sundayOpenHour"":11.0,""sundayClose"":""21:00"",""sundayCloseHour"":21.0}	{""weeklyClosingDays"":[],""monthlyClosingDayOfWeeks"":[],""yearlyClosingDays"":[]}	-1	-1	[]	2.0	0.5	0.1	http://place.map.daum.net/26300269	
daum.27344111	우도해녀식당	33.51442515	126.9488091		음식점	한식	해물/생선	대한민국	제주특별자치도	제주시	우도면 연평리 2308-3 	{""weekDayOpen"":""11:00"",""weekDayOpenHour"":11.0,""weekDayClose"":""21:00"",""weekDayCloseHour"":21.0,""saturdayOpen"":""11:00"",""saturdayOpenHour"":11.0,""saturdayClose"":""21:00"",""saturdayCloseHour"":21.0,""sundayOpen"":""11:00"",""sundayOpenHour"":11.0,""sundayClose"":""21:00"",""sundayCloseHour"":21.0}	{""weeklyClosingDays"":[],""monthlyClosingDayOfWeeks"":[],""yearlyClosingDays"":[]}	-1	-1	[]	0.0	0.5	0.1	http://place.map.daum.net/27344111	
daum.26557875	물꼬해녀의집	33.51870277	126.9498399		음식점	양식	해산물	대한민국	제주특별자치도	제주시	우도면 연평리 891 	{""weekDayOpen"":""11:00"",""weekDayOpenHour"":11.0,""weekDayClose"":""21:00"",""weekDayCloseHour"":21.0,""saturdayOpen"":""11:00"",""saturdayOpenHour"":11.0,""saturdayClose"":""21:00"",""saturdayCloseHour"":21.0,""sundayOpen"":""11:00"",""sundayOpenHour"":11.0,""sundayClose"":""21:00"",""sundayCloseHour"":21.0}	{""weeklyClosingDays"":[],""monthlyClosingDayOfWeeks"":[],""yearlyClosingDays"":[]}	-1	-1	[]	0.0	0.5	0.1	http://place.map.daum.net/26557875	
daum.7972099	신설오름	33.50541185	126.5415658		음식점	한식		대한민국	제주특별자치도	제주시	일도2동 409-5 	{""weekDayOpen"":""11:00"",""weekDayOpenHour"":11.0,""weekDayClose"":""21:00"",""weekDayCloseHour"":21.0,""saturdayOpen"":""11:00"",""saturdayOpenHour"":11.0,""saturdayClose"":""21:00"",""saturdayCloseHour"":21.0,""sundayOpen"":""11:00"",""sundayOpenHour"":11.0,""sundayClose"":""21:00"",""sundayCloseHour"":21.0}	{""weeklyClosingDays"":[],""monthlyClosingDayOfWeeks"":[],""yearlyClosingDays"":[]}	-1	-1	[]	8.4	0.5	0.1	http://place.map.daum.net/7972099	
daum.16841033	홍성방	33.220171	126.2516618		음식점	중식	중화요리	대한민국	제주특별자치도	서귀포시	대정읍 하모리 938-4 	{""weekDayOpen"":""11:00"",""weekDayOpenHour"":11.0,""weekDayClose"":""21:00"",""weekDayCloseHour"":21.0,""saturdayOpen"":""11:00"",""saturdayOpenHour"":11.0,""saturdayClose"":""21:00"",""saturdayCloseHour"":21.0,""sundayOpen"":""11:00"",""sundayOpenHour"":11.0,""sundayClose"":""21:00"",""sundayCloseHour"":21.0}	{""weeklyClosingDays"":[],""monthlyClosingDayOfWeeks"":[],""yearlyClosingDays"":[]}	-1	-1	[]	5.5	0.5	0.1	http://place.map.daum.net/16841033	
daum.21499653	은희네소고기해장국 본점	33.50852825	126.5407271		음식점	한식	해장국	대한민국	제주특별자치도	제주시	일도2동 357-4 	{""weekDayOpen"":""06:00"",""weekDayOpenHour"":6.0,""weekDayClose"":""15:00"",""weekDayCloseHour"":15.0,""saturdayOpen"":""06:00"",""saturdayOpenHour"":6.0,""saturdayClose"":""15:00"",""saturdayCloseHour"":15.0,""sundayOpen"":""06:00"",""sundayOpenHour"":6.0,""sundayClose"":""15:00"",""sundayCloseHour"":15.0}	{""weeklyClosingDays"":[],""monthlyClosingDayOfWeeks"":[],""yearlyClosingDays"":[""격주 목요일""]}	-1	-1	[]	9.2	0.5	0.1	http://place.map.daum.net/21499653	
daum.20307028	제주마당	33.48638675	126.484299		음식점	한식	해물/생선	대한민국	제주특별자치도	제주시	노형동 914-2 	{""weekDayOpen"":""08:30"",""weekDayOpenHour"":8.5,""weekDayClose"":""22:00"",""weekDayCloseHour"":22.0,""saturdayOpen"":""08:30"",""saturdayOpenHour"":8.5,""saturdayClose"":""22:00"",""saturdayCloseHour"":22.0,""sundayOpen"":""08:30"",""sundayOpenHour"":8.5,""sundayClose"":""22:00"",""sundayCloseHour"":22.0}	{""weeklyClosingDays"":[],""monthlyClosingDayOfWeeks"":[],""yearlyClosingDays"":[]}	-1	-1	[]	9.0	0.5	0.1	http://place.map.daum.net/20307028	
daum.18927747	바다어사또	33.543072816127214	126.66404062454194		음식점	한식	해물/생선	대한민국	제주특별자치도	제주시	조천읍 함덕리 1252-43 	{""weekDayOpen"":""11:00"",""weekDayOpenHour"":11.0,""weekDayClose"":""21:00"",""weekDayCloseHour"":21.0,""saturdayOpen"":""11:00"",""saturdayOpenHour"":11.0,""saturdayClose"":""21:00"",""saturdayCloseHour"":21.0,""sundayOpen"":""11:00"",""sundayOpenHour"":11.0,""sundayClose"":""21:00"",""sundayCloseHour"":21.0}	{""weeklyClosingDays"":[],""monthlyClosingDayOfWeeks"":[],""yearlyClosingDays"":[]}	-1	-1	[]	8.0	0.5	0.1	http://place.map.daum.net/18927747	
daum.11820185	왕돌이숯불갈비	33.53685573924431	126.6397719633412		음식점	한식	육류/고기	대한민국	제주특별자치도	제주시	조천읍 조천리 2337-2 	{""weekDayOpen"":""11:00"",""weekDayOpenHour"":11.0,""weekDayClose"":""21:00"",""weekDayCloseHour"":21.0,""saturdayOpen"":""11:00"",""saturdayOpenHour"":11.0,""saturdayClose"":""21:00"",""saturdayCloseHour"":21.0,""sundayOpen"":""11:00"",""sundayOpenHour"":11.0,""sundayClose"":""21:00"",""sundayCloseHour"":21.0}	{""weeklyClosingDays"":[],""monthlyClosingDayOfWeeks"":[],""yearlyClosingDays"":[]}	-1	-1	[]	8.2	0.5	0.1	http://place.map.daum.net/11820185	
daum.14076470	강정해녀의집	33.22755917	126.4747219		음식점	한식	해물/생선	대한민국	제주특별자치도	서귀포시	강정동 4964 	{""weekDayOpen"":""11:00"",""weekDayOpenHour"":11.0,""weekDayClose"":""21:00"",""weekDayCloseHour"":21.0,""saturdayOpen"":""11:00"",""saturdayOpenHour"":11.0,""saturdayClose"":""21:00"",""saturdayCloseHour"":21.0,""sundayOpen"":""11:00"",""sundayOpenHour"":11.0,""sundayClose"":""21:00"",""sundayCloseHour"":21.0}	{""weeklyClosingDays"":[],""monthlyClosingDayOfWeeks"":[],""yearlyClosingDays"":[]}	-1	-1	[]	0.0	0.5	0.1	http://place.map.daum.net/14076470	
daum.20733624	바다속고등어쌈밥	33.4842476	126.4067873		음식점	한식	쌈밥	대한민국	제주특별자치도	제주시	애월읍 하귀1리 1548 	{""weekDayOpen"":""11:00"",""weekDayOpenHour"":11.0,""weekDayClose"":""21:00"",""weekDayCloseHour"":21.0,""saturdayOpen"":""11:00"",""saturdayOpenHour"":11.0,""saturdayClose"":""21:00"",""saturdayCloseHour"":21.0,""sundayOpen"":""11:00"",""sundayOpenHour"":11.0,""sundayClose"":""21:00"",""sundayCloseHour"":21.0}	{""weeklyClosingDays"":[],""monthlyClosingDayOfWeeks"":[],""yearlyClosingDays"":[]}	-1	-1	[]	0.0	0.5	0.1	http://place.map.daum.net/20733624	
daum.8379101	성산포뚝배기	33.46011112	126.931256		음식점	한식	해물/생선	대한민국	제주특별자치도	서귀포시	성산읍 성산리 399-12 	{""weekDayOpen"":""11:00"",""weekDayOpenHour"":11.0,""weekDayClose"":""21:00"",""weekDayCloseHour"":21.0,""saturdayOpen"":""11:00"",""saturdayOpenHour"":11.0,""saturdayClose"":""21:00"",""saturdayCloseHour"":21.0,""sundayOpen"":""11:00"",""sundayOpenHour"":11.0,""sundayClose"":""21:00"",""sundayCloseHour"":21.0}	{""weeklyClosingDays"":[],""monthlyClosingDayOfWeeks"":[],""yearlyClosingDays"":[]}	-1	-1	[]	5.8	0.5	0.1	http://place.map.daum.net/8379101	
daum.17796669	어멍가든	33.54138033	126.6717001		음식점	한식	육류/고기	대한민국	제주특별자치도	제주시	조천읍 함덕리 274 대명리조트 제주 	{""weekDayOpen"":""13:00"",""weekDayOpenHour"":13.0,""weekDayClose"":""22:00"",""weekDayCloseHour"":22.0,""saturdayOpen"":""13:00"",""saturdayOpenHour"":13.0,""saturdayClose"":""22:00"",""saturdayCloseHour"":22.0,""sundayOpen"":""13:00"",""sundayOpenHour"":13.0,""sundayClose"":""22:00"",""sundayCloseHour"":22.0}	{""weeklyClosingDays"":[],""monthlyClosingDayOfWeeks"":[],""yearlyClosingDays"":[]}	-1	-1	[]	8.1	0.5	0.1	http://place.map.daum.net/17796669	
daum.13337730	경미휴게소	33.46122308	126.9334108		음식점	한식	해물/생선	대한민국	제주특별자치도	서귀포시	성산읍 성산리 145-4 	{""weekDayOpen"":""11:00"",""weekDayOpenHour"":11.0,""weekDayClose"":""21:00"",""weekDayCloseHour"":21.0,""saturdayOpen"":""11:00"",""saturdayOpenHour"":11.0,""saturdayClose"":""21:00"",""saturdayCloseHour"":21.0,""sundayOpen"":""11:00"",""sundayOpenHour"":11.0,""sundayClose"":""21:00"",""sundayCloseHour"":21.0}	{""weeklyClosingDays"":[],""monthlyClosingDayOfWeeks"":[],""yearlyClosingDays"":[]}	-1	-1	[]	3.3	1.0	0.0256	http://place.map.daum.net/13337730	
daum.19157131	해녀촌	33.55365442	126.7098939		음식점	한식	해물/생선	대한민국	제주특별자치도	제주시	구좌읍 동복리 1502-1 	{""weekDayOpen"":""11:00"",""weekDayOpenHour"":11.0,""weekDayClose"":""21:00"",""weekDayCloseHour"":21.0,""saturdayOpen"":""11:00"",""saturdayOpenHour"":11.0,""saturdayClose"":""21:00"",""saturdayCloseHour"":21.0,""sundayOpen"":""11:00"",""sundayOpenHour"":11.0,""sundayClose"":""21:00"",""sundayCloseHour"":21.0}	{""weeklyClosingDays"":[],""monthlyClosingDayOfWeeks"":[],""yearlyClosingDays"":[]}	-1	-1	[]	7.8	0.5	0.1	http://place.map.daum.net/19157131	
daum.20034726	성산바다	33.43585357	126.9130798		음식점	한식	해물/생선	대한민국	제주특별자치도	서귀포시	성산읍 고성리 864-1 	{""weekDayOpen"":""11:00"",""weekDayOpenHour"":11.0,""weekDayClose"":""21:00"",""weekDayCloseHour"":21.0,""saturdayOpen"":""11:00"",""saturdayOpenHour"":11.0,""saturdayClose"":""21:00"",""saturdayCloseHour"":21.0,""sundayOpen"":""11:00"",""sundayOpenHour"":11.0,""sundayClose"":""21:00"",""sundayCloseHour"":21.0}	{""weeklyClosingDays"":[],""monthlyClosingDayOfWeeks"":[],""yearlyClosingDays"":[]}	-1	-1	[]	10.0	0.5	0.1	http://place.map.daum.net/20034726	
daum.8970084	맛나식당	33.44860804	126.9160743		음식점	한식	육류/고기	대한민국	제주특별자치도	서귀포시	성산읍 고성리 316 	{""weekDayOpen"":""11:00"",""weekDayOpenHour"":11.0,""weekDayClose"":""21:00"",""weekDayCloseHour"":21.0,""saturdayOpen"":""11:00"",""saturdayOpenHour"":11.0,""saturdayClose"":""21:00"",""saturdayCloseHour"":21.0,""sundayOpen"":""11:00"",""sundayOpenHour"":11.0,""sundayClose"":""21:00"",""sundayCloseHour"":21.0}	{""weeklyClosingDays"":[],""monthlyClosingDayOfWeeks"":[],""yearlyClosingDays"":[]}	-1	-1	[]	9.0	0.5	0.1	http://place.map.daum.net/8970084	
daum.9368523	자매국수	33.50809299	126.5323476		음식점	한식	국수	대한민국	제주특별자치도	제주시	일도2동 1034-10 	{""weekDayOpen"":""11:00"",""weekDayOpenHour"":11.0,""weekDayClose"":""21:00"",""weekDayCloseHour"":21.0,""saturdayOpen"":""11:00"",""saturdayOpenHour"":11.0,""saturdayClose"":""21:00"",""saturdayCloseHour"":21.0,""sundayOpen"":""11:00"",""sundayOpenHour"":11.0,""sundayClose"":""21:00"",""sundayCloseHour"":21.0}	{""weeklyClosingDays"":[],""monthlyClosingDayOfWeeks"":[],""yearlyClosingDays"":[]}	-1	-1	[]	6.5	0.5	0.1	http://place.map.daum.net/9368523	
daum.11547525	우진해장국	33.51151871	126.5200034		음식점	한식	해장국	대한민국	제주특별자치도	제주시	삼도2동 831 	{""weekDayOpen"":""00:00"",""weekDayOpenHour"":0.0,""weekDayClose"":""23:59"",""weekDayCloseHour"":23.983333333333334,""saturdayOpenHour"":0.0,""saturdayCloseHour"":0.0,""sundayOpenHour"":0.0,""sundayCloseHour"":0.0}	{""weeklyClosingDays"":[],""monthlyClosingDayOfWeeks"":[],""yearlyClosingDays"":[""명절""]}	-1	-1	[]	7.0	0.5	0.1	http://place.map.daum.net/11547525	
daum.9733194	네거리식당	33.24849976	126.5595613		음식점	한식	한정식	대한민국	제주특별자치도	서귀포시	서귀동 310-40 	{""weekDayOpen"":""11:00"",""weekDayOpenHour"":11.0,""weekDayClose"":""21:00"",""weekDayCloseHour"":21.0,""saturdayOpen"":""11:00"",""saturdayOpenHour"":11.0,""saturdayClose"":""21:00"",""saturdayCloseHour"":21.0,""sundayOpen"":""11:00"",""sundayOpenHour"":11.0,""sundayClose"":""21:00"",""sundayCloseHour"":21.0}	{""weeklyClosingDays"":[],""monthlyClosingDayOfWeeks"":[],""yearlyClosingDays"":[]}	-1	-1	[]	6.5	0.5	0.1	http://place.map.daum.net/9733194	
daum.21295286	국수마당 본점	33.50807077	126.5321927		음식점	한식	국수	대한민국	제주특별자치도	제주시	일도2동 1034-19 	{""weekDayOpen"":""11:00"",""weekDayOpenHour"":11.0,""weekDayClose"":""21:00"",""weekDayCloseHour"":21.0,""saturdayOpen"":""11:00"",""saturdayOpenHour"":11.0,""saturdayClose"":""21:00"",""saturdayCloseHour"":21.0,""sundayOpen"":""11:00"",""sundayOpenHour"":11.0,""sundayClose"":""21:00"",""sundayCloseHour"":21.0}	{""weeklyClosingDays"":[],""monthlyClosingDayOfWeeks"":[],""yearlyClosingDays"":[]}	-1	-1	[]	8.5	0.5	0.1	http://place.map.daum.net/21295286	
daum.19316749	춘심이네 본점	33.26479308	126.3707116		음식점	한식	해물/생선	대한민국	제주특별자치도	서귀포시	안덕면 창천리 160-3 	{""weekDayOpen"":""10:00"",""weekDayOpenHour"":10.0,""weekDayClose"":""21:30"",""weekDayCloseHour"":21.5,""saturdayOpen"":""10:00"",""saturdayOpenHour"":10.0,""saturdayClose"":""21:30"",""saturdayCloseHour"":21.5,""sundayOpen"":""10:00"",""sundayOpenHour"":10.0,""sundayClose"":""21:30"",""sundayCloseHour"":21.5}	{""weeklyClosingDays"":[],""monthlyClosingDayOfWeeks"":[],""yearlyClosingDays"":[]}	-1	-1	[]	5.9	0.5	0.1	http://place.map.daum.net/19316749	
daum.12640510	삼무국수	33.49056164	126.4909672		음식점	한식	국수	대한민국	제주특별자치도	제주시	연동 271-10 	{""weekDayOpen"":""11:00"",""weekDayOpenHour"":11.0,""weekDayClose"":""21:00"",""weekDayCloseHour"":21.0,""saturdayOpen"":""11:00"",""saturdayOpenHour"":11.0,""saturdayClose"":""21:00"",""saturdayCloseHour"":21.0,""sundayOpen"":""11:00"",""sundayOpenHour"":11.0,""sundayClose"":""21:00"",""sundayCloseHour"":21.0}	{""weeklyClosingDays"":[],""monthlyClosingDayOfWeeks"":[],""yearlyClosingDays"":[]}	-1	-1	[]	9.9	0.5	0.1	http://place.map.daum.net/12640510	
daum.17809788	색달식당	33.25759804	126.4134707		음식점	한식	해물/생선	대한민국	제주특별자치도	서귀포시	색달동 2276-5 	{""weekDayOpen"":""11:00"",""weekDayOpenHour"":11.0,""weekDayClose"":""21:00"",""weekDayCloseHour"":21.0,""saturdayOpen"":""11:00"",""saturdayOpenHour"":11.0,""saturdayClose"":""21:00"",""saturdayCloseHour"":21.0,""sundayOpen"":""11:00"",""sundayOpenHour"":11.0,""sundayClose"":""21:00"",""sundayCloseHour"":21.0}	{""weeklyClosingDays"":[],""monthlyClosingDayOfWeeks"":[],""yearlyClosingDays"":[]}	-1	-1	[]	7.9	0.5	0.1	http://place.map.daum.net/17809788	
daum.11188530	용연횟집	33.51651276	126.5151796		음식점	한식	해물/생선	대한민국	제주특별자치도	제주시	용담1동 408 	{""weekDayOpen"":""11:00"",""weekDayOpenHour"":11.0,""weekDayClose"":""21:00"",""weekDayCloseHour"":21.0,""saturdayOpen"":""11:00"",""saturdayOpenHour"":11.0,""saturdayClose"":""21:00"",""saturdayCloseHour"":21.0,""sundayOpen"":""11:00"",""sundayOpenHour"":11.0,""sundayClose"":""21:00"",""sundayCloseHour"":21.0}	{""weeklyClosingDays"":[],""monthlyClosingDayOfWeeks"":[],""yearlyClosingDays"":[]}	-1	-1	[]	8.2	0.5	0.1	http://place.map.daum.net/11188530	
daum.7875124	물항식당 탑동점	33.51691261	126.5290839		음식점	한식	해물/생선	대한민국	제주특별자치도	제주시	건입동 1319-14 	{""weekDayOpen"":""11:00"",""weekDayOpenHour"":11.0,""weekDayClose"":""21:00"",""weekDayCloseHour"":21.0,""saturdayOpen"":""11:00"",""saturdayOpenHour"":11.0,""saturdayClose"":""21:00"",""saturdayCloseHour"":21.0,""sundayOpen"":""11:00"",""sundayOpenHour"":11.0,""sundayClose"":""21:00"",""sundayCloseHour"":21.0}	{""weeklyClosingDays"":[],""monthlyClosingDayOfWeeks"":[],""yearlyClosingDays"":[]}	-1	-1	[]	6.5	0.5	0.1	http://place.map.daum.net/7875124	
daum.9622782	황금륭버거	33.28666274	126.2228402		음식점	양식	햄버거	대한민국	제주특별자치도	서귀포시	대정읍 신도리 10 	{""weekDayOpen"":""11:00"",""weekDayOpenHour"":11.0,""weekDayClose"":""21:00"",""weekDayCloseHour"":21.0,""saturdayOpen"":""11:00"",""saturdayOpenHour"":11.0,""saturdayClose"":""21:00"",""saturdayCloseHour"":21.0,""sundayOpen"":""11:00"",""sundayOpenHour"":11.0,""sundayClose"":""21:00"",""sundayCloseHour"":21.0}	{""weeklyClosingDays"":[],""monthlyClosingDayOfWeeks"":[],""yearlyClosingDays"":[]}	-1	-1	[]	6.1	0.5	0.1	http://place.map.daum.net/9622782	
daum.14613349	만복횟집	33.24357036	126.3268885		음식점	한식	해물/생선	대한민국	제주특별자치도	서귀포시	안덕면 화순리 1868-3 	{""weekDayOpen"":""11:00"",""weekDayOpenHour"":11.0,""weekDayClose"":""21:00"",""weekDayCloseHour"":21.0,""saturdayOpen"":""11:00"",""saturdayOpenHour"":11.0,""saturdayClose"":""21:00"",""saturdayCloseHour"":21.0,""sundayOpen"":""11:00"",""sundayOpenHour"":11.0,""sundayClose"":""21:00"",""sundayCloseHour"":21.0}	{""weeklyClosingDays"":[],""monthlyClosingDayOfWeeks"":[],""yearlyClosingDays"":[]}	-1	-1	[]	8.6	0.5	0.1	http://place.map.daum.net/14613349	
daum.8894680	도두해녀의집	33.50618302	126.4666349		음식점	한식	해물/생선	대한민국	제주특별자치도	제주시	도두1동 2587-4 	{""weekDayOpen"":""11:00"",""weekDayOpenHour"":11.0,""weekDayClose"":""21:00"",""weekDayCloseHour"":21.0,""saturdayOpen"":""11:00"",""saturdayOpenHour"":11.0,""saturdayClose"":""21:00"",""saturdayCloseHour"":21.0,""sundayOpen"":""11:00"",""sundayOpenHour"":11.0,""sundayClose"":""21:00"",""sundayCloseHour"":21.0}	{""weeklyClosingDays"":[],""monthlyClosingDayOfWeeks"":[],""yearlyClosingDays"":[]}	-1	-1	[]	9.0	0.5	0.1	http://place.map.daum.net/8894680	
daum.9940398	옥돔식당	33.21997108	126.2490075		음식점	한식	국수	대한민국	제주특별자치도	서귀포시	대정읍 하모리 1067-23 	{""weekDayOpen"":""11:00"",""weekDayOpenHour"":11.0,""weekDayClose"":""21:00"",""weekDayCloseHour"":21.0,""saturdayOpen"":""11:00"",""saturdayOpenHour"":11.0,""saturdayClose"":""21:00"",""saturdayCloseHour"":21.0,""sundayOpen"":""11:00"",""sundayOpenHour"":11.0,""sundayClose"":""21:00"",""sundayCloseHour"":21.0}	{""weeklyClosingDays"":[""Wednesday""],""monthlyClosingDayOfWeeks"":[],""yearlyClosingDays"":[]}	-1	-1	[]	8.0	0.5	0.1	http://place.map.daum.net/9940398	
daum.7919123	삼성혈해물탕	33.48796458	126.4997066		음식점	한식	해물/생선	대한민국	제주특별자치도	제주시	연동 312-27 	{""weekDayOpen"":""11:00"",""weekDayOpenHour"":11.0,""weekDayClose"":""21:00"",""weekDayCloseHour"":21.0,""saturdayOpen"":""11:00"",""saturdayOpenHour"":11.0,""saturdayClose"":""21:00"",""saturdayCloseHour"":21.0,""sundayOpen"":""11:00"",""sundayOpenHour"":11.0,""sundayClose"":""21:00"",""sundayCloseHour"":21.0}	{""weeklyClosingDays"":[],""monthlyClosingDayOfWeeks"":[],""yearlyClosingDays"":[]}	-1	-1	[]	6.8	0.5	0.1	http://place.map.daum.net/7919123	
daum.19639423	카페서연의집	33.26940687	126.6555871		음식점	카페		대한민국	제주특별자치도	서귀포시	남원읍 위미리 2975 	{""weekDayOpen"":""09:00"",""weekDayOpenHour"":9.0,""weekDayClose"":""21:00"",""weekDayCloseHour"":21.0,""saturdayOpen"":""09:00"",""saturdayOpenHour"":9.0,""saturdayClose"":""21:00"",""saturdayCloseHour"":21.0,""sundayOpen"":""09:00"",""sundayOpenHour"":9.0,""sundayClose"":""21:00"",""sundayCloseHour"":21.0}	{""weeklyClosingDays"":[],""monthlyClosingDayOfWeeks"":[],""yearlyClosingDays"":[]}	-1	-1	[]	8.0	0.5	0.1	http://place.map.daum.net/19639423	
daum.8015989	옛날옛적	33.46677192	126.9307257		음식점	한식		대한민국	제주특별자치도	서귀포시	성산읍 성산리 382-10 	{""weekDayOpen"":""11:00"",""weekDayOpenHour"":11.0,""weekDayClose"":""21:00"",""weekDayCloseHour"":21.0,""saturdayOpen"":""11:00"",""saturdayOpenHour"":11.0,""saturdayClose"":""21:00"",""saturdayCloseHour"":21.0,""sundayOpen"":""11:00"",""sundayOpenHour"":11.0,""sundayClose"":""21:00"",""sundayCloseHour"":21.0}	{""weeklyClosingDays"":[],""monthlyClosingDayOfWeeks"":[],""yearlyClosingDays"":[]}	-1	-1	[]	7.1	1.0	0.0256	http://place.map.daum.net/8015989	
daum.17154562	제주어장	33.51682833	126.5156428		음식점	한식	해물/생선	대한민국	제주특별자치도	제주시	용담1동 425 	{""weekDayOpen"":""11:00"",""weekDayOpenHour"":11.0,""weekDayClose"":""21:00"",""weekDayCloseHour"":21.0,""saturdayOpen"":""11:00"",""saturdayOpenHour"":11.0,""saturdayClose"":""21:00"",""saturdayCloseHour"":21.0,""sundayOpen"":""11:00"",""sundayOpenHour"":11.0,""sundayClose"":""21:00"",""sundayCloseHour"":21.0}	{""weeklyClosingDays"":[],""monthlyClosingDayOfWeeks"":[],""yearlyClosingDays"":[]}	-1	-1	[]	0.0	0.5	0.1	http://place.map.daum.net/17154562	
daum.14583406	칠돈가 본점	33.50413345	126.5127605		음식점	한식	육류/고기	대한민국	제주특별자치도	제주시	용담1동 189-3 	{""weekDayOpen"":""11:00"",""weekDayOpenHour"":11.0,""weekDayClose"":""21:00"",""weekDayCloseHour"":21.0,""saturdayOpen"":""11:00"",""saturdayOpenHour"":11.0,""saturdayClose"":""21:00"",""saturdayCloseHour"":21.0,""sundayOpen"":""11:00"",""sundayOpenHour"":11.0,""sundayClose"":""21:00"",""sundayCloseHour"":21.0}	{""weeklyClosingDays"":[],""monthlyClosingDayOfWeeks"":[],""yearlyClosingDays"":[]}	-1	-1	[]	8.9	0.5	0.1	http://place.map.daum.net/14583406	
daum.9701541	대게촌	33.51037346	126.4827619		음식점	한식	해물/생선	대한민국	제주특별자치도	제주시	도두2동 706-11 	{""weekDayOpen"":""11:00"",""weekDayOpenHour"":11.0,""weekDayClose"":""21:00"",""weekDayCloseHour"":21.0,""saturdayOpen"":""11:00"",""saturdayOpenHour"":11.0,""saturdayClose"":""21:00"",""saturdayCloseHour"":21.0,""sundayOpen"":""11:00"",""sundayOpenHour"":11.0,""sundayClose"":""21:00"",""sundayCloseHour"":21.0}	{""weeklyClosingDays"":[],""monthlyClosingDayOfWeeks"":[],""yearlyClosingDays"":[]}	-1	-1	[]	9.0	0.5	0.1	http://place.map.daum.net/9701541	
daum.11600257	쌍둥이횟집	33.24656772	126.5629275		음식점	한식	해물/생선	대한민국	제주특별자치도	서귀포시	서귀동 496-18 	{""weekDayOpen"":""11:00"",""weekDayOpenHour"":11.0,""weekDayClose"":""23:59"",""weekDayCloseHour"":23.983333333333334,""saturdayOpen"":""11:00"",""saturdayOpenHour"":11.0,""saturdayClose"":""23:59"",""saturdayCloseHour"":23.983333333333334,""sundayOpen"":""11:00"",""sundayOpenHour"":11.0,""sundayClose"":""23:59"",""sundayCloseHour"":23.983333333333334}	{""weeklyClosingDays"":[],""monthlyClosingDayOfWeeks"":[],""yearlyClosingDays"":[]}	-1	-1	[]	6.2	0.5	0.1	http://place.map.daum.net/11600257	
daum.10627937	오성토속음식점	33.25565231	126.4146126		음식점	한식		대한민국	제주특별자치도	서귀포시	색달동 2507-1 	{""weekDayOpen"":""11:00"",""weekDayOpenHour"":11.0,""weekDayClose"":""21:00"",""weekDayCloseHour"":21.0,""saturdayOpen"":""11:00"",""saturdayOpenHour"":11.0,""saturdayClose"":""21:00"",""saturdayCloseHour"":21.0,""sundayOpen"":""11:00"",""sundayOpenHour"":11.0,""sundayClose"":""21:00"",""sundayCloseHour"":21.0}	{""weeklyClosingDays"":[],""monthlyClosingDayOfWeeks"":[],""yearlyClosingDays"":[]}	-1	-1	[]	5.0	0.5	0.1	http://place.map.daum.net/10627937	
daum.12717410	신옛촌	33.23315288	126.3087685		음식점	한식		대한민국	제주특별자치도	서귀포시	안덕면 사계리 135-1 	{""weekDayOpen"":""11:00"",""weekDayOpenHour"":11.0,""weekDayClose"":""21:00"",""weekDayCloseHour"":21.0,""saturdayOpen"":""11:00"",""saturdayOpenHour"":11.0,""saturdayClose"":""21:00"",""saturdayCloseHour"":21.0,""sundayOpen"":""11:00"",""sundayOpenHour"":11.0,""sundayClose"":""21:00"",""sundayCloseHour"":21.0}	{""weeklyClosingDays"":[],""monthlyClosingDayOfWeeks"":[],""yearlyClosingDays"":[]}	-1	-1	[]	10.0	0.5	0.1	http://place.map.daum.net/12717410	
daum.9980893	중문대들보	33.25370357	126.4197336		음식점	한식		대한민국	제주특별자치도	서귀포시	중문동 1489-2 	{""weekDayOpen"":""11:00"",""weekDayOpenHour"":11.0,""weekDayClose"":""21:00"",""weekDayCloseHour"":21.0,""saturdayOpen"":""11:00"",""saturdayOpenHour"":11.0,""saturdayClose"":""21:00"",""saturdayCloseHour"":21.0,""sundayOpen"":""11:00"",""sundayOpenHour"":11.0,""sundayClose"":""21:00"",""sundayCloseHour"":21.0}	{""weeklyClosingDays"":[],""monthlyClosingDayOfWeeks"":[],""yearlyClosingDays"":[]}	-1	-1	[]	8.0	0.5	0.1	http://place.map.daum.net/9980893	
daum.7923446	새로나분식	33.24853765	126.5641753		음식점	분식		대한민국	제주특별자치도	서귀포시	서귀동 273-5 	{""weekDayOpen"":""11:00"",""weekDayOpenHour"":11.0,""weekDayClose"":""21:00"",""weekDayCloseHour"":21.0,""saturdayOpen"":""11:00"",""saturdayOpenHour"":11.0,""saturdayClose"":""21:00"",""saturdayCloseHour"":21.0,""sundayOpen"":""11:00"",""sundayOpenHour"":11.0,""sundayClose"":""21:00"",""sundayCloseHour"":21.0}	{""weeklyClosingDays"":[],""monthlyClosingDayOfWeeks"":[],""yearlyClosingDays"":[]}	-1	-1	[]	7.7	0.5	0.1	http://place.map.daum.net/7923446	
daum.18815393	와랑와랑	33.27229069	126.6765534		음식점	카페	커피전문점	대한민국	제주특별자치도	서귀포시	남원읍 위미리 875-1 	{""weekDayOpen"":""11:00"",""weekDayOpenHour"":11.0,""weekDayClose"":""21:00"",""weekDayCloseHour"":21.0,""saturdayOpen"":""11:00"",""saturdayOpenHour"":11.0,""saturdayClose"":""21:00"",""saturdayCloseHour"":21.0,""sundayOpen"":""11:00"",""sundayOpenHour"":11.0,""sundayClose"":""21:00"",""sundayCloseHour"":21.0}	{""weeklyClosingDays"":[""Monday""],""monthlyClosingDayOfWeeks"":[],""yearlyClosingDays"":[]}	-1	-1	[]	5.5	0.5	0.1	http://place.map.daum.net/18815393	
