#id	title	latitude	longitude	othernames	category	subcategory	subsubcategory	Addresscode_1	AddressCode_2	AddressCode_3	Detailed_address	BusinessHours	closingdays	parkingLot	cost	publicTransportationAccess	satisfaction	spendingTime	placeURL
daum.26799620	돈사돈	33.47886801	126.4640266		음식점	한식	육류,고기	대한민국	제주특별자치도	제주시	노형동 3086-3 	{""weekDayOpenHour"":0.0,""weekDayCloseHour"":0.0,""saturdayOpenHour"":0.0,""saturdayCloseHour"":0.0,""sundayOpenHour"":0.0,""sundayCloseHour"":0.0}	{""weeklyClosingDays"":[],""monthlyClosingDayOfWeeks"":[],""yearlyClosingDays"":[]}	-1	-1	[]	4.4	0.5	0.1	http://place.map.daum.net/26799620	
daum.7912085	비자림	33.48397154	126.8057408		여행	관광,명소	휴양림/숲길걷기	대한민국	제주특별자치도	제주시	구좌읍 평대리 산3164-1 	{""weekDayOpen"":""9:00"",""weekDayOpenHour"":9.0,""weekDayClose"":""18:00"",""weekDayCloseHour"":18.0,""saturdayOpen"":""9:00"",""saturdayOpenHour"":9.0,""saturdayClose"":""18:00"",""saturdayCloseHour"":18.0,""sundayOpen"":""9:00"",""sundayOpenHour"":9.0,""sundayClose"":""18:00"",""sundayCloseHour"":18.0}	{""weeklyClosingDays"":[],""monthlyClosingDayOfWeeks"":[],""yearlyClosingDays"":[]}	-1	1500	[]	8.7	1.0	0.333333333	http://place.map.daum.net/7912085	
daum.20480281	키다리아저씨	33.49620114	126.9561116		음식점	일식	돈까스,우동	대한민국	제주특별자치도	제주시	우도면 연평리 1642-1 	{""weekDayOpenHour"":0.0,""weekDayCloseHour"":0.0,""saturdayOpenHour"":0.0,""saturdayCloseHour"":0.0,""sundayOpenHour"":0.0,""sundayCloseHour"":0.0}	{""weeklyClosingDays"":[],""monthlyClosingDayOfWeeks"":[],""yearlyClosingDays"":[]}	-1	-1	[]	4.7	0.5	0.1	http://place.map.daum.net/20480281	
daum.26429444	제주정지	33.51896331	126.490478		음식점	한식	한정식	대한민국	제주특별자치도	제주시	용담3동 2367-6 	{""weekDayOpenHour"":0.0,""weekDayCloseHour"":0.0,""saturdayOpenHour"":0.0,""saturdayCloseHour"":0.0,""sundayOpenHour"":0.0,""sundayCloseHour"":0.0}	{""weeklyClosingDays"":[],""monthlyClosingDayOfWeeks"":[],""yearlyClosingDays"":[]}	-1	-1	[]	10.0	0.5	0.1	http://place.map.daum.net/26429444	
daum.8646446	꺼멍흑돼지	33.49207262	126.4719855		음식점	한식	육류,고기	대한민국	제주특별자치도	제주시	노형동 2737 	{""weekDayOpenHour"":0.0,""weekDayCloseHour"":0.0,""saturdayOpenHour"":0.0,""saturdayCloseHour"":0.0,""sundayOpenHour"":0.0,""sundayCloseHour"":0.0}	{""weeklyClosingDays"":[],""monthlyClosingDayOfWeeks"":[],""yearlyClosingDays"":[]}	-1	-1	[]	8.0	0.5	0.1	http://place.map.daum.net/8646446	
daum.9812307	삼원정	33.25769119	126.4141053		음식점	한식		대한민국	제주특별자치도	서귀포시	색달동 2282 	{""weekDayOpen"":""09:00"",""weekDayOpenHour"":9.0,""weekDayClose"":""22:00"",""weekDayCloseHour"":22.0,""saturdayOpen"":""09:00"",""saturdayOpenHour"":9.0,""saturdayClose"":""22:00"",""saturdayCloseHour"":22.0,""sundayOpen"":""09:00"",""sundayOpenHour"":9.0,""sundayClose"":""22:00"",""sundayCloseHour"":22.0}	{""weeklyClosingDays"":[],""monthlyClosingDayOfWeeks"":[],""yearlyClosingDays"":[]}	-1	-1	[]	8.5	0.5	0.1	http://place.map.daum.net/9812307	
daum.16434989	금호리조트 제주점	33.27333847	126.7018295		여행	숙박	콘도,리조트	대한민국	제주특별자치도	서귀포시	남원읍 남원리 2390 	{""weekDayOpenHour"":0.0,""weekDayCloseHour"":0.0,""saturdayOpenHour"":0.0,""saturdayCloseHour"":0.0,""sundayOpenHour"":0.0,""sundayCloseHour"":0.0}	{""weeklyClosingDays"":[],""monthlyClosingDayOfWeeks"":[],""yearlyClosingDays"":[]}	-1	40000	[]	9.5	0.5	0.1	http://place.map.daum.net/16434989	
daum.8463314	요트투어샹그릴라	33.24334082	126.4163728		여행	관광,명소	투어버스/유람선/관광열차	대한민국	제주특별자치도	서귀포시	색달동 2950-5 	{""weekDayOpen"":""7:30"",""weekDayOpenHour"":7.5,""weekDayClose"":""18:00"",""weekDayCloseHour"":18.0,""saturdayOpen"":""7:30"",""saturdayOpenHour"":7.5,""saturdayClose"":""18:00"",""saturdayCloseHour"":18.0,""sundayOpen"":""7:30"",""sundayOpenHour"":7.5,""sundayClose"":""18:00"",""sundayCloseHour"":18.0}	{""weeklyClosingDays"":[],""monthlyClosingDayOfWeeks"":[],""yearlyClosingDays"":[]}	-1	60000	[]	9.8	1.0	0.5	http://place.map.daum.net/8463314	
daum.12354187	용연구름다리	33.51488321	126.5143922		여행	관광,명소	자연경관	대한민국	제주특별자치도	제주시	용담2동	{""weekDayOpen"":""5:30"",""weekDayOpenHour"":5.5,""weekDayClose"":""19:30"",""weekDayCloseHour"":19.5,""saturdayOpen"":""5:30"",""saturdayOpenHour"":5.5,""saturdayClose"":""19:30"",""saturdayCloseHour"":19.5,""sundayOpen"":""5:30"",""sundayOpenHour"":5.5,""sundayClose"":""19:30"",""sundayCloseHour"":19.5}	{""weeklyClosingDays"":[],""monthlyClosingDayOfWeeks"":[],""yearlyClosingDays"":[]}	-1	0	[]	10.0	0.25	0.083333333	http://place.map.daum.net/12354187	
daum.17110921	미로공원	33.53653188	126.7722353		여행	관광,명소	테마파크	대한민국	제주특별자치도	제주시	구좌읍 김녕리 산16 	{""weekDayOpen"":""8:30"",""weekDayOpenHour"":8.5,""weekDayClose"":""17:30"",""weekDayCloseHour"":17.5,""saturdayOpen"":""8:30"",""saturdayOpenHour"":8.5,""saturdayClose"":""17:30"",""saturdayCloseHour"":17.5,""sundayOpen"":""8:30"",""sundayOpenHour"":8.5,""sundayClose"":""17:30"",""sundayCloseHour"":17.5}	{""weeklyClosingDays"":[],""monthlyClosingDayOfWeeks"":[],""yearlyClosingDays"":[]}	-1	3300	[]	8.6	0.6	0.333333333	http://place.map.daum.net/17110921	
daum.11792904	올레길 8코스월평대평올레	33.24341946	126.4584764		여행	관광,명소	도보여행	대한민국	제주특별자치도	서귀포시	월평동	{""weekDayOpenHour"":0.0,""weekDayCloseHour"":0.0,""saturdayOpenHour"":0.0,""saturdayCloseHour"":0.0,""sundayOpenHour"":0.0,""sundayCloseHour"":0.0}	{""weeklyClosingDays"":[],""monthlyClosingDayOfWeeks"":[],""yearlyClosingDays"":[]}	-1	-1	[]	7.0	1.0	0.0256	http://place.map.daum.net/11792904	
daum.17589720	제주명가두루치기	33.24956401	126.5710035		음식점	한식	육류/고기	대한민국	제주특별자치도	서귀포시	동홍동 385 	{""weekDayOpenHour"":0.0,""weekDayCloseHour"":0.0,""saturdayOpenHour"":0.0,""saturdayCloseHour"":0.0,""sundayOpenHour"":0.0,""sundayCloseHour"":0.0}	{""weeklyClosingDays"":[],""monthlyClosingDayOfWeeks"":[],""yearlyClosingDays"":[]}	-1	-1	[]	4.0	0.5	0.1	http://place.map.daum.net/17589720	
daum.8004227	여미지식물원	33.25260678	126.4142595		여행	관광,명소	수목원/식물원	대한민국	제주특별자치도	서귀포시	색달동 2484-1 중문단지 내 	{""weekDayOpen"":""9:00"",""weekDayOpenHour"":9.0,""weekDayClose"":""18:00"",""weekDayCloseHour"":18.0,""saturdayOpen"":""9:00"",""saturdayOpenHour"":9.0,""saturdayClose"":""18:00"",""saturdayCloseHour"":18.0,""sundayOpen"":""9:00"",""sundayOpenHour"":9.0,""sundayClose"":""18:00"",""sundayCloseHour"":18.0}	{""weeklyClosingDays"":[],""monthlyClosingDayOfWeeks"":[],""yearlyClosingDays"":[]}	-1	9000	[]	3.3	1.5	0.25	http://place.map.daum.net/8004227	
daum.23773741	켄싱턴제주호텔	33.25255546	126.4079929		여행	숙박	호텔	대한민국	제주특별자치도	서귀포시	색달동 2785 	{""weekDayOpenHour"":0.0,""weekDayCloseHour"":0.0,""saturdayOpenHour"":0.0,""saturdayCloseHour"":0.0,""sundayOpenHour"":0.0,""sundayCloseHour"":0.0}	{""weeklyClosingDays"":[],""monthlyClosingDayOfWeeks"":[],""yearlyClosingDays"":[]}	-1	130000	[]	8.0	0.5	0.1	http://place.map.daum.net/23773741	
daum.10936817	한성식당	33.46320748	126.9350314		음식점	한식	해물/생선	대한민국	제주특별자치도	서귀포시	성산읍 성산리 202-1 	{""weekDayOpenHour"":0.0,""weekDayCloseHour"":0.0,""saturdayOpenHour"":0.0,""saturdayCloseHour"":0.0,""sundayOpenHour"":0.0,""sundayCloseHour"":0.0}	{""weeklyClosingDays"":[],""monthlyClosingDayOfWeeks"":[],""yearlyClosingDays"":[]}	-1	-1	[]	4.9	0.5	0.1	http://place.map.daum.net/10936817	
daum.8063699	선샤인호텔	33.54425326	126.661818		여행	숙박	호텔	대한민국	제주특별자치도	제주시	조천읍 함덕리 1040 	{""weekDayOpenHour"":0.0,""weekDayCloseHour"":0.0,""saturdayOpenHour"":0.0,""saturdayCloseHour"":0.0,""sundayOpenHour"":0.0,""sundayCloseHour"":0.0}	{""weeklyClosingDays"":[],""monthlyClosingDayOfWeeks"":[],""yearlyClosingDays"":[]}	-1	35000	[]	9.5	1.0	0.0256	http://place.map.daum.net/8063699	
daum.20127314	교래자연휴양림	33.44030903	126.6589483		여행	관광,명소	자연휴양림	대한민국	제주특별자치도	제주시	조천읍 교래리 산119 	{""weekDayOpenHour"":0.0,""weekDayCloseHour"":0.0,""saturdayOpenHour"":0.0,""saturdayCloseHour"":0.0,""sundayOpenHour"":0.0,""sundayCloseHour"":0.0}	{""weeklyClosingDays"":[],""monthlyClosingDayOfWeeks"":[],""yearlyClosingDays"":[]}	-1	-1	[]	10.0	1.0	0.0256	http://place.map.daum.net/20127314	
daum.10806785	제주퍼시픽호텔	33.51064292	126.5192161		여행	숙박	호텔	대한민국	제주특별자치도	제주시	용담1동 159-1 	{""weekDayOpenHour"":0.0,""weekDayCloseHour"":0.0,""saturdayOpenHour"":0.0,""saturdayCloseHour"":0.0,""sundayOpenHour"":0.0,""sundayCloseHour"":0.0}	{""weeklyClosingDays"":[],""monthlyClosingDayOfWeeks"":[],""yearlyClosingDays"":[]}	-1	60000	[]	0.0	0.5	0.1	http://place.map.daum.net/10806785	
daum.7862728	롯데호텔 제주	33.24866167	126.4105258		여행	숙박	호텔	대한민국	제주특별자치도	서귀포시	색달동 2812-4 중문관광단지 내 	{""weekDayOpenHour"":0.0,""weekDayCloseHour"":0.0,""saturdayOpenHour"":0.0,""saturdayCloseHour"":0.0,""sundayOpenHour"":0.0,""sundayCloseHour"":0.0}	{""weeklyClosingDays"":[],""monthlyClosingDayOfWeeks"":[],""yearlyClosingDays"":[]}	-1	130000	[]	9.5	0.5	0.1	http://place.map.daum.net/7862728	
daum.7861876	맛있는밥상	33.25896934	126.4045412		음식점	한식		대한민국	제주특별자치도	서귀포시	색달동 2081-1 	{""weekDayOpenHour"":0.0,""weekDayCloseHour"":0.0,""saturdayOpenHour"":0.0,""saturdayCloseHour"":0.0,""sundayOpenHour"":0.0,""sundayCloseHour"":0.0}	{""weeklyClosingDays"":[],""monthlyClosingDayOfWeeks"":[],""yearlyClosingDays"":[]}	-1	-1	[]	8.3	0.5	0.1	http://place.map.daum.net/7861876	
daum.8453998	오는정김밥	33.24961003	126.5676296		음식점	분식		대한민국	제주특별자치도	서귀포시	서귀동 254-6 	{""weekDayOpen"":""10:00"",""weekDayOpenHour"":10.0,""weekDayClose"":""19:30"",""weekDayCloseHour"":19.5,""saturdayOpen"":""10:00"",""saturdayOpenHour"":10.0,""saturdayClose"":""19:30"",""saturdayCloseHour"":19.5,""sundayOpen"":""10:00"",""sundayOpenHour"":10.0,""sundayClose"":""19:30"",""sundayCloseHour"":19.5}	{""weeklyClosingDays"":[],""monthlyClosingDayOfWeeks"":[],""yearlyClosingDays"":[]}	-1	-1	[]	5.6	0.5	0.1	http://place.map.daum.net/8453998	
daum.8350843	따라비오름	33.38870699	126.7528584		여행	관광,명소	산봉우리/등산로	대한민국	제주특별자치도	서귀포시	표선면 가시리 62 	{""weekDayOpen"":""8:00"",""weekDayOpenHour"":8.0,""weekDayClose"":""18:00"",""weekDayCloseHour"":18.0,""saturdayOpen"":""8:00"",""saturdayOpenHour"":8.0,""saturdayClose"":""18:00"",""saturdayCloseHour"":18.0,""sundayOpen"":""8:00"",""sundayOpenHour"":8.0,""sundayClose"":""18:00"",""sundayCloseHour"":18.0}	{""weeklyClosingDays"":[],""monthlyClosingDayOfWeeks"":[],""yearlyClosingDays"":[]}	-1	0	[]	0.0	0.666666667	0.25	http://place.map.daum.net/8350843	
daum.14493485	사려니숲길	33.42213658	126.6265184		여행	관광,명소	휴양림/숲길걷기	대한민국	제주특별자치도	제주시	조천읍 교래리 	{""weekDayOpen"":""8:00"",""weekDayOpenHour"":8.0,""weekDayClose"":""18:30"",""weekDayCloseHour"":18.5,""saturdayOpen"":""8:00"",""saturdayOpenHour"":8.0,""saturdayClose"":""18:30"",""saturdayCloseHour"":18.5,""sundayOpen"":""8:00"",""sundayOpenHour"":8.0,""sundayClose"":""18:30"",""sundayCloseHour"":18.5}	{""weeklyClosingDays"":[],""monthlyClosingDayOfWeeks"":[],""yearlyClosingDays"":[]}	-1	0	[]	8.3	3.0	1.0	http://place.map.daum.net/14493485	
daum.7868089	모이세해장국	33.48384219	126.4829369		음식점	한식	해장국	대한민국	제주특별자치도	제주시	노형동 934 	{""weekDayOpenHour"":0.0,""weekDayCloseHour"":0.0,""saturdayOpenHour"":0.0,""saturdayCloseHour"":0.0,""sundayOpenHour"":0.0,""sundayCloseHour"":0.0}	{""weeklyClosingDays"":[],""monthlyClosingDayOfWeeks"":[],""yearlyClosingDays"":[]}	-1	-1	[]	6.4	0.5	0.1	http://place.map.daum.net/7868089	
daum.15292731	라마다프라자제주호텔	33.51878088	126.5178794		여행	숙박	호텔	대한민국	제주특별자치도	제주시	삼도2동 1254 	{""weekDayOpenHour"":0.0,""weekDayCloseHour"":0.0,""saturdayOpenHour"":0.0,""saturdayCloseHour"":0.0,""sundayOpenHour"":0.0,""sundayCloseHour"":0.0}	{""weeklyClosingDays"":[],""monthlyClosingDayOfWeeks"":[],""yearlyClosingDays"":[]}	-1	65000	[]	8.5	0.5	0.1	http://place.map.daum.net/15292731	
daum.23966650	오션스위츠제주호텔	33.5181519	126.5230883		여행	숙박	호텔	대한민국	제주특별자치도	제주시	삼도2동 1260-1 	{""weekDayOpenHour"":0.0,""weekDayCloseHour"":0.0,""saturdayOpenHour"":0.0,""saturdayCloseHour"":0.0,""sundayOpenHour"":0.0,""sundayCloseHour"":0.0}	{""weeklyClosingDays"":[],""monthlyClosingDayOfWeeks"":[],""yearlyClosingDays"":[]}	-1	-1	[]	8.7	1.0	0.0256	http://place.map.daum.net/23966650	
daum.10474738	성산일출봉	33.46210092	126.9362026		여행	관광,명소	산봉우리/등산로	대한민국	제주특별자치도	서귀포시	성산읍 성산리 114 	{""weekDayOpen"":""5:30"",""weekDayOpenHour"":5.5,""weekDayClose"":""19:30"",""weekDayCloseHour"":19.5,""saturdayOpen"":""5:30"",""saturdayOpenHour"":5.5,""saturdayClose"":""19:30"",""saturdayCloseHour"":19.5,""sundayOpen"":""5:30"",""sundayOpenHour"":5.5,""sundayClose"":""19:30"",""sundayCloseHour"":19.5}	{""weeklyClosingDays"":[],""monthlyClosingDayOfWeeks"":[],""yearlyClosingDays"":[]}	-1	2000	[]	8.8	0.916666667	0.25	http://place.map.daum.net/10474738	
daum.9401924	제주공룡랜드	33.44177999	126.4339879		여행	관광,명소	테마파크	대한민국	제주특별자치도	제주시	애월읍 광령리 2677-1 	{""weekDayOpen"":""9:00"",""weekDayOpenHour"":9.0,""weekDayClose"":""17:00"",""weekDayCloseHour"":17.0,""saturdayOpen"":""9:00"",""saturdayOpenHour"":9.0,""saturdayClose"":""17:00"",""saturdayCloseHour"":17.0,""sundayOpen"":""9:00"",""sundayOpenHour"":9.0,""sundayClose"":""17:00"",""sundayCloseHour"":17.0}	{""weeklyClosingDays"":[],""monthlyClosingDayOfWeeks"":[],""yearlyClosingDays"":[]}	-1	9000	[]	7.0	1.5	0.25	http://place.map.daum.net/9401924	
daum.9167088	선진횟집	33.54301905996407	126.66416572866581		음식점	한식	해물,생선	대한민국	제주특별자치도	제주시	조천읍 함덕리 1252-42 	{""weekDayOpenHour"":0.0,""weekDayCloseHour"":0.0,""saturdayOpenHour"":0.0,""saturdayCloseHour"":0.0,""sundayOpenHour"":0.0,""sundayCloseHour"":0.0}	{""weeklyClosingDays"":[],""monthlyClosingDayOfWeeks"":[],""yearlyClosingDays"":[]}	-1	-1	[]	7.5	0.5	0.1	http://place.map.daum.net/9167088	
daum.13143043	닐모리동동	33.51783463	126.4878798		음식점	카페		대한민국	제주특별자치도	제주시	용담3동 2396 오다펜션 1층 	{""weekDayOpenHour"":0.0,""weekDayCloseHour"":0.0,""saturdayOpenHour"":0.0,""saturdayCloseHour"":0.0,""sundayOpenHour"":0.0,""sundayCloseHour"":0.0}	{""weeklyClosingDays"":[],""monthlyClosingDayOfWeeks"":[],""yearlyClosingDays"":[]}	-1	-1	[]	8.3	0.5	0.1	http://place.map.daum.net/13143043	
daum.8025182	우도	33.50441997	126.9555823		여행	관광,명소	섬	대한민국	제주특별자치도	제주시	우도면 연평리 	{""weekDayOpen"":""8:00"",""weekDayOpenHour"":8.0,""weekDayClose"":""17:30"",""weekDayCloseHour"":17.5,""saturdayOpen"":""8:00"",""saturdayOpenHour"":8.0,""saturdayClose"":""17:30"",""saturdayCloseHour"":17.5,""sundayOpen"":""8:00"",""sundayOpenHour"":8.0,""sundayClose"":""17:30"",""sundayCloseHour"":17.5}	{""weeklyClosingDays"":[],""monthlyClosingDayOfWeeks"":[],""yearlyClosingDays"":[]}	-1	5500	[]	8.9	3.0	0.833333333	http://place.map.daum.net/8025182	
daum.12684289	제주서광다원	33.3083756	126.3067324		여행	관광,명소		대한민국	제주특별자치도	서귀포시	안덕면 서광리 1241 	{""weekDayOpenHour"":0.0,""weekDayCloseHour"":0.0,""saturdayOpenHour"":0.0,""saturdayCloseHour"":0.0,""sundayOpenHour"":0.0,""sundayCloseHour"":0.0}	{""weeklyClosingDays"":[],""monthlyClosingDayOfWeeks"":[],""yearlyClosingDays"":[]}	-1	-1	[]	0.0	1.0	0.0256	http://place.map.daum.net/12684289	
daum.8025188	우도팔경유람선	33.47289056	126.9346541		여행	관광,명소	투어버스/유람선/관광열차	대한민국	제주특별자치도	서귀포시	성산읍 성산리 	{""weekDayOpen"":""14:40"",""weekDayOpenHour"":14.666666666666666,""weekDayClose"":""16:20"",""weekDayCloseHour"":16.333333333333332,""saturdayOpen"":""14:40"",""saturdayOpenHour"":14.666666666666666,""saturdayClose"":""16:20"",""saturdayCloseHour"":16.333333333333332,""sundayOpen"":""14:40"",""sundayOpenHour"":14.666666666666666,""sundayClose"":""16:20"",""sundayCloseHour"":16.333333333333332}	{""weeklyClosingDays"":[],""monthlyClosingDayOfWeeks"":[],""yearlyClosingDays"":[]}	-1	15000	[]	0.0	1.0	0.083333333	http://place.map.daum.net/8025188	
daum.17382437	캐릭월드	33.47964355	126.7005695		교육,학문	교육단체	체험학습장	대한민국	제주특별자치도	제주시	조천읍 선흘리 2013-2 	{""weekDayOpenHour"":0.0,""weekDayCloseHour"":0.0,""saturdayOpenHour"":0.0,""saturdayCloseHour"":0.0,""sundayOpenHour"":0.0,""sundayCloseHour"":0.0}	{""weeklyClosingDays"":[],""monthlyClosingDayOfWeeks"":[],""yearlyClosingDays"":[]}	-1	-1	[]	8.0	1.0	0.0256	http://place.map.daum.net/17382437	
daum.12979413	붉은오름자연휴양림	33.401436	126.6753706		여행	관광,명소	휴양림/숲길걷기	대한민국	제주특별자치도	서귀포시	표선면 가시리 산158 	{""weekDayOpen"":""9:00"",""weekDayOpenHour"":9.0,""weekDayClose"":""18:00"",""weekDayCloseHour"":18.0,""saturdayOpen"":""9:00"",""saturdayOpenHour"":9.0,""saturdayClose"":""18:00"",""saturdayCloseHour"":18.0,""sundayOpen"":""9:00"",""sundayOpenHour"":9.0,""sundayClose"":""18:00"",""sundayCloseHour"":18.0}	{""weeklyClosingDays"":[],""monthlyClosingDayOfWeeks"":[],""yearlyClosingDays"":[]}	-1	1000	[]	0.0	0.833333333	0.166666667	http://place.map.daum.net/12979413	
daum.11023307	금능석물원	33.38516946	126.2272094		여행	관광,명소	미술관/박물관	대한민국	제주특별자치도	제주시	한림읍 금능리 1282-9 	{""weekDayOpen"":""8:30"",""weekDayOpenHour"":8.5,""weekDayClose"":""18:00"",""weekDayCloseHour"":18.0,""saturdayOpen"":""8:30"",""saturdayOpenHour"":8.5,""saturdayClose"":""18:00"",""saturdayCloseHour"":18.0,""sundayOpen"":""8:30"",""sundayOpenHour"":8.5,""sundayClose"":""18:00"",""sundayCloseHour"":18.0}	{""weeklyClosingDays"":[],""monthlyClosingDayOfWeeks"":[],""yearlyClosingDays"":[]}	-1	4000	[]	10.0	1.0	0.166666667	http://place.map.daum.net/11023307	
daum.12501247	더호텔 제주	33.49001087	126.4938542		여행	숙박	호텔	대한민국	제주특별자치도	제주시	연동 291-30 	{""weekDayOpenHour"":0.0,""weekDayCloseHour"":0.0,""saturdayOpenHour"":0.0,""saturdayCloseHour"":0.0,""sundayOpenHour"":0.0,""sundayCloseHour"":0.0}	{""weeklyClosingDays"":[],""monthlyClosingDayOfWeeks"":[],""yearlyClosingDays"":[]}	-1	-1	[]	3.0	1.0	0.0256	http://place.map.daum.net/12501247	
daum.24165595	카오카오뷔페	33.24439061	126.4149023		음식점	뷔페		대한민국	제주특별자치도	서귀포시	색달동 2950-4 	{""weekDayOpenHour"":0.0,""weekDayCloseHour"":0.0,""saturdayOpenHour"":0.0,""saturdayCloseHour"":0.0,""sundayOpenHour"":0.0,""sundayCloseHour"":0.0}	{""weeklyClosingDays"":[],""monthlyClosingDayOfWeeks"":[],""yearlyClosingDays"":[]}	-1	-1	[]	8.5	0.5	0.1	http://place.map.daum.net/24165595	
daum.12721319	노루생태관찰원	33.44435985	126.6266727		여행	관광,명소	테마파크	대한민국	제주특별자치도	제주시	봉개동 산51-2 	{""weekDayOpen"":""9:00"",""weekDayOpenHour"":9.0,""weekDayClose"":""17:00"",""weekDayCloseHour"":17.0,""saturdayOpen"":""9:00"",""saturdayOpenHour"":9.0,""saturdayClose"":""17:00"",""saturdayCloseHour"":17.0,""sundayOpen"":""9:00"",""sundayOpenHour"":9.0,""sundayClose"":""17:00"",""sundayCloseHour"":17.0}	{""weeklyClosingDays"":[],""monthlyClosingDayOfWeeks"":[],""yearlyClosingDays"":[]}	-1	0	[]	0.0	0.666666667	0.083333333	http://place.map.daum.net/12721319	
daum.8577982	제주미니랜드	33.43341894	126.6743784		여행	관광,명소	테마파크	대한민국	제주특별자치도	제주시	조천읍 교래리 산56-4 	{""weekDayOpenHour"":0.0,""weekDayCloseHour"":0.0,""saturdayOpenHour"":0.0,""saturdayCloseHour"":0.0,""sundayOpenHour"":0.0,""sundayCloseHour"":0.0}	{""weeklyClosingDays"":[],""monthlyClosingDayOfWeeks"":[],""yearlyClosingDays"":[]}	-1	-1	[]	8.2	1.0	0.0256	http://place.map.daum.net/8577982	
daum.8238096	기억나는집	33.24508643	126.5621837		음식점	한식	해물/생선	대한민국	제주특별자치도	서귀포시	정방동 486-4 	{""weekDayOpenHour"":0.0,""weekDayCloseHour"":0.0,""saturdayOpenHour"":0.0,""saturdayCloseHour"":0.0,""sundayOpenHour"":0.0,""sundayCloseHour"":0.0}	{""weeklyClosingDays"":[],""monthlyClosingDayOfWeeks"":[],""yearlyClosingDays"":[]}	-1	-1	[]	3.1	0.5	0.1	http://place.map.daum.net/8238096	
daum.26397114	황금고팡	33.54162266	126.667905		음식점	한식	해물/생선	대한민국	제주특별자치도	제주시	조천읍 함덕리 1002-15 	{""weekDayOpenHour"":0.0,""weekDayCloseHour"":0.0,""saturdayOpenHour"":0.0,""saturdayCloseHour"":0.0,""sundayOpenHour"":0.0,""sundayCloseHour"":0.0}	{""weeklyClosingDays"":[],""monthlyClosingDayOfWeeks"":[],""yearlyClosingDays"":[]}	-1	-1	[]	9.3	0.5	0.1	http://place.map.daum.net/26397114	
daum.8092604	천제연폭포	33.25148486	126.4172673		여행	관광,명소	폭포/계곡	대한민국	제주특별자치도	서귀포시	색달동 3381-1 중문관광단지 내 	{""weekDayOpen"":""8:00"",""weekDayOpenHour"":8.0,""weekDayClose"":""18:00"",""weekDayCloseHour"":18.0,""saturdayOpen"":""8:00"",""saturdayOpenHour"":8.0,""saturdayClose"":""18:00"",""saturdayCloseHour"":18.0,""sundayOpen"":""8:00"",""sundayOpenHour"":8.0,""sundayClose"":""18:00"",""sundayCloseHour"":18.0}	{""weeklyClosingDays"":[],""monthlyClosingDayOfWeeks"":[],""yearlyClosingDays"":[]}	-1	2500	[]	7.0	0.666666667	0.2	http://place.map.daum.net/8092604	
daum.8086164	신산공원	33.50697814	126.5331758		여행	관광,명소	공원	대한민국	제주특별자치도	제주시	일도2동 879 	{""weekDayOpen"":""7:30"",""weekDayOpenHour"":7.5,""weekDayClose"":""18:00"",""weekDayCloseHour"":18.0,""saturdayOpen"":""7:30"",""saturdayOpenHour"":7.5,""saturdayClose"":""18:00"",""saturdayCloseHour"":18.0,""sundayOpen"":""7:30"",""sundayOpenHour"":7.5,""sundayClose"":""18:00"",""sundayCloseHour"":18.0}	{""weeklyClosingDays"":[],""monthlyClosingDayOfWeeks"":[],""yearlyClosingDays"":[]}	-1	0	[]	7.5	0.5	0.083333333	http://place.map.daum.net/8086164	
daum.7918005	국수회관 본점	33.50694469	126.5300506		음식점	한식	국수	대한민국	제주특별자치도	제주시	일도2동 1045-12 1층 	{""weekDayOpen"":""09:00"",""weekDayOpenHour"":9.0,""weekDayClose"":""05:30"",""weekDayCloseHour"":5.5,""saturdayOpen"":""09:00"",""saturdayOpenHour"":9.0,""saturdayClose"":""05:30"",""saturdayCloseHour"":5.5,""sundayOpen"":""09:00"",""sundayOpenHour"":9.0,""sundayClose"":""05:30"",""sundayCloseHour"":5.5}	{""weeklyClosingDays"":[],""monthlyClosingDayOfWeeks"":[],""yearlyClosingDays"":[]}	-1	-1	[]	7.4	0.5	0.1	http://place.map.daum.net/7918005	
daum.11255609	제주중문관광단지	33.24582086	126.4207385		여행	관광,명소	관광단지	대한민국	제주특별자치도	서귀포시	중문동 2571 	{""weekDayOpenHour"":0.0,""weekDayCloseHour"":0.0,""saturdayOpenHour"":0.0,""saturdayCloseHour"":0.0,""sundayOpenHour"":0.0,""sundayCloseHour"":0.0}	{""weeklyClosingDays"":[],""monthlyClosingDayOfWeeks"":[],""yearlyClosingDays"":[]}	-1	-1	[]	0.0	1.0	0.0256	http://place.map.daum.net/11255609	
daum.8178347	휴애리	33.3093023	126.6354231		여행	관광,명소	테마파크	대한민국	제주특별자치도	서귀포시	남원읍 신례리 2081 	{""weekDayOpen"":""9:00"",""weekDayOpenHour"":9.0,""weekDayClose"":""16:00"",""weekDayCloseHour"":16.0,""saturdayOpen"":""9:00"",""saturdayOpenHour"":9.0,""saturdayClose"":""16:00"",""saturdayCloseHour"":16.0,""sundayOpen"":""9:00"",""sundayOpenHour"":9.0,""sundayClose"":""16:00"",""sundayCloseHour"":16.0}	{""weeklyClosingDays"":[],""monthlyClosingDayOfWeeks"":[],""yearlyClosingDays"":[]}	-1	11000	[]	7.6	1.5	0.25	http://place.map.daum.net/8178347	
daum.10516904	색달해안갯깍 주상절리대	33.24143135	126.3978705		여행	관광,명소	바위	대한민국	제주특별자치도	서귀포시	색달동	{""weekDayOpenHour"":0.0,""weekDayCloseHour"":0.0,""saturdayOpenHour"":0.0,""saturdayCloseHour"":0.0,""sundayOpenHour"":0.0,""sundayCloseHour"":0.0}	{""weeklyClosingDays"":[],""monthlyClosingDayOfWeeks"":[],""yearlyClosingDays"":[]}	-1	-1	[]	0.0	1.0	0.0256	http://place.map.daum.net/10516904	
daum.8228030	녹하지악	33.30446216	126.4308909		여행	관광,명소	오름	대한민국	제주특별자치도	서귀포시	중문동 산5 	{""weekDayOpenHour"":0.0,""weekDayCloseHour"":0.0,""saturdayOpenHour"":0.0,""saturdayCloseHour"":0.0,""sundayOpenHour"":0.0,""sundayCloseHour"":0.0}	{""weeklyClosingDays"":[],""monthlyClosingDayOfWeeks"":[],""yearlyClosingDays"":[]}	-1	-1	[]	0.0	1.0	0.0256	http://place.map.daum.net/8228030	
daum.8335690	동백동산	33.5164508	126.7160285		여행	관광,명소	산봉우리/등산로	대한민국	제주특별자치도	제주시	조천읍 선흘리 산12 	{""weekDayOpen"":""9:00"",""weekDayOpenHour"":9.0,""weekDayClose"":""18:00"",""weekDayCloseHour"":18.0,""saturdayOpen"":""9:00"",""saturdayOpenHour"":9.0,""saturdayClose"":""18:00"",""saturdayCloseHour"":18.0,""sundayOpen"":""9:00"",""sundayOpenHour"":9.0,""sundayClose"":""18:00"",""sundayCloseHour"":18.0}	{""weeklyClosingDays"":[],""monthlyClosingDayOfWeeks"":[],""yearlyClosingDays"":[]}	-1	0	[]	10.0	2.0	0.333333333	http://place.map.daum.net/8335690	
daum.17758090	한화아쿠아플라넷 제주	33.43305363	126.9278792		문화,예술	문화시설	아쿠아리움	대한민국	제주특별자치도	서귀포시	성산읍 고성리 127-1 	{""weekDayOpen"":""10:00"",""weekDayOpenHour"":10.0,""weekDayClose"":""19:00"",""weekDayCloseHour"":19.0,""saturdayOpen"":""10:00"",""saturdayOpenHour"":10.0,""saturdayClose"":""19:00"",""saturdayCloseHour"":19.0,""sundayOpen"":""10:00"",""sundayOpenHour"":10.0,""sundayClose"":""19:00"",""sundayCloseHour"":19.0}	{""weeklyClosingDays"":[],""monthlyClosingDayOfWeeks"":[],""yearlyClosingDays"":[]}	-1	39200	[]	4.4	1.0	0.166666667	http://place.map.daum.net/17758090	
daum.8064798	제주팔레스호텔	33.5168631	126.5236809		여행	숙박	호텔	대한민국	제주특별자치도	제주시	삼도2동 1192-18 	{""weekDayOpenHour"":0.0,""weekDayCloseHour"":0.0,""saturdayOpenHour"":0.0,""saturdayCloseHour"":0.0,""sundayOpenHour"":0.0,""sundayCloseHour"":0.0}	{""weeklyClosingDays"":[],""monthlyClosingDayOfWeeks"":[],""yearlyClosingDays"":[]}	-1	-1	[]	0.0	1.0	0.0256	http://place.map.daum.net/8064798	
daum.8064310	유리의성	33.31466396	126.2736897		여행	관광,명소	테마파크	대한민국	제주특별자치도	제주시	한경면 저지리 3135-1 	{""weekDayOpen"":""9:00"",""weekDayOpenHour"":9.0,""weekDayClose"":""19:00"",""weekDayCloseHour"":19.0,""saturdayOpen"":""9:00"",""saturdayOpenHour"":9.0,""saturdayClose"":""19:00"",""saturdayCloseHour"":19.0,""sundayOpen"":""9:00"",""sundayOpenHour"":9.0,""sundayClose"":""19:00"",""sundayCloseHour"":19.0}	{""weeklyClosingDays"":[],""monthlyClosingDayOfWeeks"":[],""yearlyClosingDays"":[]}	-1	11000	[]	7.0	1.5	0.25	http://place.map.daum.net/8064310	
daum.26427629	제주박기사 승합차여행	33.50418975	126.465205		교통,수송	택시	콜밴	대한민국	제주특별자치도	제주시	도두1동 2622-9 	{""weekDayOpenHour"":0.0,""weekDayCloseHour"":0.0,""saturdayOpenHour"":0.0,""saturdayCloseHour"":0.0,""sundayOpenHour"":0.0,""sundayCloseHour"":0.0}	{""weeklyClosingDays"":[],""monthlyClosingDayOfWeeks"":[],""yearlyClosingDays"":[]}	-1	-1	[]	10.0	1.0	0.0256	http://place.map.daum.net/26427629	
daum.17809089	베릿네오름	33.24733194	126.4215055		여행	관광,명소	오름	대한민국	제주특별자치도	서귀포시	중문동 3712 	{""weekDayOpenHour"":0.0,""weekDayCloseHour"":0.0,""saturdayOpenHour"":0.0,""saturdayCloseHour"":0.0,""sundayOpenHour"":0.0,""sundayCloseHour"":0.0}	{""weeklyClosingDays"":[],""monthlyClosingDayOfWeeks"":[],""yearlyClosingDays"":[]}	-1	-1	[]	0.0	1.0	0.0256	http://place.map.daum.net/17809089	
daum.13723603	금능으뜸원해변	33.38991463	126.2352325		여행	관광,명소	해수욕장,해변	대한민국	제주특별자치도	제주시	한림읍 협재리 	{""weekDayOpenHour"":0.0,""weekDayCloseHour"":0.0,""saturdayOpenHour"":0.0,""saturdayCloseHour"":0.0,""sundayOpenHour"":0.0,""sundayCloseHour"":0.0}	{""weeklyClosingDays"":[],""monthlyClosingDayOfWeeks"":[],""yearlyClosingDays"":[]}	-1	-1	[]	9.7	1.0	0.0256	http://place.map.daum.net/13723603	
daum.16261247	해비치호텔앤리조트 제주	33.3212881	126.8446405		여행	숙박	호텔	대한민국	제주특별자치도	서귀포시	표선면 표선리 40-76 	{""weekDayOpenHour"":0.0,""weekDayCloseHour"":0.0,""saturdayOpenHour"":0.0,""saturdayCloseHour"":0.0,""sundayOpenHour"":0.0,""sundayCloseHour"":0.0}	{""weeklyClosingDays"":[],""monthlyClosingDayOfWeeks"":[],""yearlyClosingDays"":[]}	-1	120000	[]	0.0	0.5	0.1	http://place.map.daum.net/16261247	
daum.24937583	천해천 제주점	33.47921525	126.4743702		음식점	샤브샤브		대한민국	제주특별자치도	제주시	노형동 3813 	{""weekDayOpen"":""11:00"",""weekDayOpenHour"":11.0,""weekDayClose"":""22:00"",""weekDayCloseHour"":22.0,""saturdayOpen"":""11:00"",""saturdayOpenHour"":11.0,""saturdayClose"":""22:00"",""saturdayCloseHour"":22.0,""sundayOpen"":""11:00"",""sundayOpenHour"":11.0,""sundayClose"":""22:00"",""sundayCloseHour"":22.0}	{""weeklyClosingDays"":[],""monthlyClosingDayOfWeeks"":[],""yearlyClosingDays"":[""구정연휴"",""추석연휴""]}	-1	-1	[]	10.0	0.5	0.1	http://place.map.daum.net/24937583	
daum.17600274	월정리해수욕장	33.55646939	126.7958051		여행	관광,명소	해수욕장/해변	대한민국	제주특별자치도	제주시	구좌읍 월정리 33-3 	{""weekDayOpen"":""7:30"",""weekDayOpenHour"":7.5,""weekDayClose"":""20:00"",""weekDayCloseHour"":20.0,""saturdayOpen"":""7:30"",""saturdayOpenHour"":7.5,""saturdayClose"":""20:00"",""saturdayCloseHour"":20.0,""sundayOpen"":""7:30"",""sundayOpenHour"":7.5,""sundayClose"":""20:00"",""sundayCloseHour"":20.0}	{""weeklyClosingDays"":[],""monthlyClosingDayOfWeeks"":[],""yearlyClosingDays"":[]}	-1	1000	[]	10.0	0.833333333	0.166666667	http://place.map.daum.net/17600274	
daum.12721329	천제연난대림	33.25287509	126.4176358		여행	관광,명소	숲	대한민국	제주특별자치도	서귀포시	중문동 2785-1 	{""weekDayOpenHour"":0.0,""weekDayCloseHour"":0.0,""saturdayOpenHour"":0.0,""saturdayCloseHour"":0.0,""sundayOpenHour"":0.0,""sundayCloseHour"":0.0}	{""weeklyClosingDays"":[],""monthlyClosingDayOfWeeks"":[],""yearlyClosingDays"":[]}	-1	-1	[]	0.0	1.0	0.0256	http://place.map.daum.net/12721329	
daum.8067847	제주마방목지	33.42725344	126.6030774		여행	관광,명소	테마파크	대한민국	제주특별자치도	제주시	용강동	{""weekDayOpen"":""7:30"",""weekDayOpenHour"":7.5,""weekDayClose"":""18:00"",""weekDayCloseHour"":18.0,""saturdayOpen"":""7:30"",""saturdayOpenHour"":7.5,""saturdayClose"":""18:00"",""saturdayCloseHour"":18.0,""sundayOpen"":""7:30"",""sundayOpenHour"":7.5,""sundayClose"":""18:00"",""sundayCloseHour"":18.0}	{""weeklyClosingDays"":[],""monthlyClosingDayOfWeeks"":[],""yearlyClosingDays"":[]}	-1	0	[]	0.0	0.5	0.083333333	http://place.map.daum.net/8067847	
daum.8679392	화이트하우스	33.51236425	126.4845109		여행	숙박	호텔	대한민국	제주특별자치도	제주시	용담3동 2572-4 	{""weekDayOpenHour"":0.0,""weekDayCloseHour"":0.0,""saturdayOpenHour"":0.0,""saturdayCloseHour"":0.0,""sundayOpenHour"":0.0,""sundayCloseHour"":0.0}	{""weeklyClosingDays"":[],""monthlyClosingDayOfWeeks"":[],""yearlyClosingDays"":[]}	-1	-1	[]	7.4	1.0	0.0256	http://place.map.daum.net/8679392	
daum.8344108	르네상스호텔	33.50340941	126.5194369		여행	숙박	호텔	대한민국	제주특별자치도	제주시	삼도1동 531 	{""weekDayOpenHour"":0.0,""weekDayCloseHour"":0.0,""saturdayOpenHour"":0.0,""saturdayCloseHour"":0.0,""sundayOpenHour"":0.0,""sundayCloseHour"":0.0}	{""weeklyClosingDays"":[],""monthlyClosingDayOfWeeks"":[],""yearlyClosingDays"":[]}	-1	-1	[]	2.0	1.0	0.0256	http://place.map.daum.net/8344108	
daum.19763694	환상숲곶자왈공원	33.32290672	126.2630279		여행	관광,명소	공원	대한민국	제주특별자치도	제주시	한경면 저지리 2848-2 	{""weekDayOpen"":""9:00"",""weekDayOpenHour"":9.0,""weekDayClose"":""18:00"",""weekDayCloseHour"":18.0,""saturdayOpen"":""9:00"",""saturdayOpenHour"":9.0,""saturdayClose"":""18:00"",""saturdayCloseHour"":18.0,""sundayOpen"":""9:00"",""sundayOpenHour"":9.0,""sundayClose"":""18:00"",""sundayCloseHour"":18.0}	{""weeklyClosingDays"":[],""monthlyClosingDayOfWeeks"":[],""yearlyClosingDays"":[]}	-1	5000	[]	9.6	1.0	0.166666667	http://place.map.daum.net/19763694	
daum.8523750	이중섭거리	33.24565245	126.564181		여행	관광,명소	테마거리	대한민국	제주특별자치도	서귀포시	서귀동 512 일대 	{""weekDayOpenHour"":0.0,""weekDayCloseHour"":0.0,""saturdayOpenHour"":0.0,""saturdayCloseHour"":0.0,""sundayOpenHour"":0.0,""sundayCloseHour"":0.0}	{""weeklyClosingDays"":[],""monthlyClosingDayOfWeeks"":[],""yearlyClosingDays"":[]}	-1	-1	[]	4.0	1.0	0.0256	http://place.map.daum.net/8523750	
daum.26491280	흑소랑	33.49095944	126.545025		음식점	한식	육류/고기	대한민국	제주특별자치도	제주시	아라2동 3007-2 	{""weekDayOpenHour"":0.0,""weekDayCloseHour"":0.0,""saturdayOpenHour"":0.0,""saturdayCloseHour"":0.0,""sundayOpenHour"":0.0,""sundayCloseHour"":0.0}	{""weeklyClosingDays"":[],""monthlyClosingDayOfWeeks"":[],""yearlyClosingDays"":[]}	-1	-1	[]	0.0	0.5	0.1	http://place.map.daum.net/26491280	
daum.8265854	동문재래시장	33.51180511	126.5260119		가정,생활	시장		대한민국	제주특별자치도	제주시	이도1동 1436-7 	{""weekDayOpenHour"":0.0,""weekDayCloseHour"":0.0,""saturdayOpenHour"":0.0,""saturdayCloseHour"":0.0,""sundayOpenHour"":0.0,""sundayCloseHour"":0.0}	{""weeklyClosingDays"":[],""monthlyClosingDayOfWeeks"":[],""yearlyClosingDays"":[]}	-1	-1	[]	1.0	1.0	0.0256	http://place.map.daum.net/8265854	
daum.8559375	테디베어뮤지엄 제주점	33.25029595	126.4121631		여행	관광,명소	미술관/박물관	대한민국	제주특별자치도	서귀포시	색달동 2889 중문관광단지내 	{""weekDayOpen"":""9:00"",""weekDayOpenHour"":9.0,""weekDayClose"":""17:30"",""weekDayCloseHour"":17.5,""saturdayOpen"":""9:00"",""saturdayOpenHour"":9.0,""saturdayClose"":""17:30"",""saturdayCloseHour"":17.5,""sundayOpen"":""9:00"",""sundayOpenHour"":9.0,""sundayClose"":""17:30"",""sundayCloseHour"":17.5}	{""weeklyClosingDays"":[],""monthlyClosingDayOfWeeks"":[],""yearlyClosingDays"":[]}	-1	7500	[]	6.0	1.0	0.166666667	http://place.map.daum.net/8559375	
daum.24780480	이춘옥원조고등어쌈밥	33.48911258	126.418969		음식점	한식	쌈밥	대한민국	제주특별자치도	제주시	애월읍 하귀1리 266-5 	{""weekDayOpenHour"":0.0,""weekDayCloseHour"":0.0,""saturdayOpenHour"":0.0,""saturdayCloseHour"":0.0,""sundayOpenHour"":0.0,""sundayCloseHour"":0.0}	{""weeklyClosingDays"":[],""monthlyClosingDayOfWeeks"":[],""yearlyClosingDays"":[]}	-1	-1	[]	1.7	0.5	0.1	http://place.map.daum.net/24780480	
daum.8008273	엉또폭포	33.26855019	126.4999654		여행	관광,명소	폭포/계곡	대한민국	제주특별자치도	서귀포시	강정동 1587 	{""weekDayOpen"":""9:00"",""weekDayOpenHour"":9.0,""weekDayClose"":""18:00"",""weekDayCloseHour"":18.0,""saturdayOpen"":""9:00"",""saturdayOpenHour"":9.0,""saturdayClose"":""18:00"",""saturdayCloseHour"":18.0,""sundayOpen"":""9:00"",""sundayOpenHour"":9.0,""sundayClose"":""18:00"",""sundayCloseHour"":18.0}	{""weeklyClosingDays"":[],""monthlyClosingDayOfWeeks"":[],""yearlyClosingDays"":[]}	-1	0	[]	9.0	0.333333333	0.083333333	http://place.map.daum.net/8008273	
daum.19143360	오가네전복설렁탕	33.26825043	126.589476		음식점	한식	설렁탕	대한민국	제주특별자치도	서귀포시	토평동 1284 	{""weekDayOpen"":""08:00"",""weekDayOpenHour"":8.0,""weekDayClose"":""17:30"",""weekDayCloseHour"":17.5,""saturdayOpen"":""08:00"",""saturdayOpenHour"":8.0,""saturdayClose"":""17:30"",""saturdayCloseHour"":17.5,""sundayOpen"":""08:00"",""sundayOpenHour"":8.0,""sundayClose"":""17:30"",""sundayCloseHour"":17.5}	{""weeklyClosingDays"":[""Wednesday""],""monthlyClosingDayOfWeeks"":[],""yearlyClosingDays"":[""매월 첫째"",""셋째주 수요일""]}	-1	-1	[]	0.0	0.5	0.1	http://place.map.daum.net/19143360	
daum.8100102	천지연폭포	33.24719429	126.5545246		여행	관광,명소	폭포/계곡	대한민국	제주특별자치도	서귀포시	서귀동 973-1 	{""weekDayOpen"":""7:30"",""weekDayOpenHour"":7.5,""weekDayClose"":""20:00"",""weekDayCloseHour"":20.0,""saturdayOpen"":""7:30"",""saturdayOpenHour"":7.5,""saturdayClose"":""20:00"",""saturdayCloseHour"":20.0,""sundayOpen"":""7:30"",""sundayOpenHour"":7.5,""sundayClose"":""20:00"",""sundayCloseHour"":20.0}	{""weeklyClosingDays"":[],""monthlyClosingDayOfWeeks"":[],""yearlyClosingDays"":[]}	-1	2000	[]	8.0	0.666666667	0.166666667	http://place.map.daum.net/8100102	
daum.25274725	새별오름	33.36619365	126.3577119		여행	관광,명소	산봉우리/등산로	대한민국	제주특별자치도	제주시	애월읍 봉성리 산59-3 	{""weekDayOpen"":""7:30"",""weekDayOpenHour"":7.5,""weekDayClose"":""18:00"",""weekDayCloseHour"":18.0,""saturdayOpen"":""7:30"",""saturdayOpenHour"":7.5,""saturdayClose"":""18:00"",""saturdayCloseHour"":18.0,""sundayOpen"":""7:30"",""sundayOpenHour"":7.5,""sundayClose"":""18:00"",""sundayCloseHour"":18.0}	{""weeklyClosingDays"":[],""monthlyClosingDayOfWeeks"":[],""yearlyClosingDays"":[]}	-1	0	[]	9.2	1.0	0.166666667	http://place.map.daum.net/25274725	
daum.7863269	만장굴	33.52811025	126.7698977		여행	관광,명소	동굴	대한민국	제주특별자치도	제주시	구좌읍 월정리 산41-35 	{""weekDayOpen"":""9:00"",""weekDayOpenHour"":9.0,""weekDayClose"":""18:00"",""weekDayCloseHour"":18.0,""saturdayOpen"":""9:00"",""saturdayOpenHour"":9.0,""saturdayClose"":""18:00"",""saturdayCloseHour"":18.0,""sundayOpen"":""9:00"",""sundayOpenHour"":9.0,""sundayClose"":""18:00"",""sundayCloseHour"":18.0}	{""weeklyClosingDays"":[],""monthlyClosingDayOfWeeks"":[],""yearlyClosingDays"":[]}	-1	2000	[]	6.7	0.5	0.166666667	http://place.map.daum.net/7863269	
daum.20031551	명진전복	33.5324709	126.850185		음식점	한식	해물/생선	대한민국	제주특별자치도	제주시	구좌읍 평대리 515-28 	{""weekDayOpenHour"":0.0,""weekDayCloseHour"":0.0,""saturdayOpenHour"":0.0,""saturdayCloseHour"":0.0,""sundayOpenHour"":0.0,""sundayCloseHour"":0.0}	{""weeklyClosingDays"":[""Tuesday""],""monthlyClosingDayOfWeeks"":[],""yearlyClosingDays"":[]}	-1	-1	[]	4.0	0.5	0.1	http://place.map.daum.net/20031551	
daum.8413659	섭지코지	33.42393807	126.9306092		여행	관광,명소	자연경관	대한민국	제주특별자치도	서귀포시	성산읍 고성리 87 	{""weekDayOpen"":""10:00"",""weekDayOpenHour"":10.0,""weekDayClose"":""18:00"",""weekDayCloseHour"":18.0,""saturdayOpen"":""10:00"",""saturdayOpenHour"":10.0,""saturdayClose"":""18:00"",""saturdayCloseHour"":18.0,""sundayOpen"":""10:00"",""sundayOpenHour"":10.0,""sundayClose"":""18:00"",""sundayCloseHour"":18.0}	{""weeklyClosingDays"":[],""monthlyClosingDayOfWeeks"":[],""yearlyClosingDays"":[]}	-1	1000	[]	8.7	0.833333333	0.166666667	http://place.map.daum.net/8413659	
daum.8148451	함덕서우봉해변	33.54364392	126.669887		여행	관광,명소	해수욕장/해변	대한민국	제주특별자치도	제주시	조천읍 함덕리 	{""weekDayOpen"":""5:30"",""weekDayOpenHour"":5.5,""weekDayClose"":""19:30"",""weekDayCloseHour"":19.5,""saturdayOpen"":""5:30"",""saturdayOpenHour"":5.5,""saturdayClose"":""19:30"",""saturdayCloseHour"":19.5,""sundayOpen"":""5:30"",""sundayOpenHour"":5.5,""sundayClose"":""19:30"",""sundayCloseHour"":19.5}	{""weeklyClosingDays"":[],""monthlyClosingDayOfWeeks"":[],""yearlyClosingDays"":[]}	-1	0	[]	7.8	0.75	0.25	http://place.map.daum.net/8148451	
daum.10574639	한라산 어승생악	33.39638105	126.489307		여행	관광,명소	산봉우리/등산로	대한민국	제주특별자치도	제주시	해안동 산218 	{""weekDayOpen"":""7:30"",""weekDayOpenHour"":7.5,""weekDayClose"":""18:00"",""weekDayCloseHour"":18.0,""saturdayOpen"":""7:30"",""saturdayOpenHour"":7.5,""saturdayClose"":""18:00"",""saturdayCloseHour"":18.0,""sundayOpen"":""7:30"",""sundayOpenHour"":7.5,""sundayClose"":""18:00"",""sundayCloseHour"":18.0}	{""weeklyClosingDays"":[],""monthlyClosingDayOfWeeks"":[],""yearlyClosingDays"":[]}	-1	0	[]	10.0	1.0	0.166666667	http://place.map.daum.net/10574639	
daum.8067669	메종글래드제주	33.485279068690566	126.488523388547		여행	숙박	호텔	대한민국	제주특별자치도	제주시	연동 263-15 	{""weekDayOpenHour"":0.0,""weekDayCloseHour"":0.0,""saturdayOpenHour"":0.0,""saturdayCloseHour"":0.0,""sundayOpenHour"":0.0,""sundayCloseHour"":0.0}	{""weeklyClosingDays"":[],""monthlyClosingDayOfWeeks"":[],""yearlyClosingDays"":[]}	-1	-1	[]	5.3	0.5	0.1	http://place.map.daum.net/8067669	
daum.11833921	휘닉스아일랜드 민트	33.42916557	126.9338051		음식점	양식	이탈리안	대한민국	제주특별자치도	서귀포시	성산읍 고성리 46 글라스하우스 2층 	{""weekDayOpen"":""12:00"",""weekDayOpenHour"":12.0,""weekDayClose"":""21:00"",""weekDayCloseHour"":21.0,""saturdayOpenHour"":0.0,""saturdayCloseHour"":0.0,""sundayOpenHour"":0.0,""sundayCloseHour"":0.0}	{""weeklyClosingDays"":[],""monthlyClosingDayOfWeeks"":[],""yearlyClosingDays"":[]}	-1	-1	[]	8.0	1.0	0.0256	http://place.map.daum.net/11833921	
daum.8856076	늘봄흑돼지	33.47947934	126.4728666		음식점	한식	육류/고기	대한민국	제주특별자치도	제주시	노형동 2343-3 	{""weekDayOpen"":""11:00"",""weekDayOpenHour"":11.0,""weekDayClose"":""23:59"",""weekDayCloseHour"":23.983333333333334,""saturdayOpen"":""11:00"",""saturdayOpenHour"":11.0,""saturdayClose"":""23:59"",""saturdayCloseHour"":23.983333333333334,""sundayOpen"":""11:00"",""sundayOpenHour"":11.0,""sundayClose"":""23:59"",""sundayCloseHour"":23.983333333333334}	{""weeklyClosingDays"":[],""monthlyClosingDayOfWeeks"":[],""yearlyClosingDays"":[]}	-1	-1	[]	3.8	0.5	0.1	http://place.map.daum.net/8856076	
daum.13095815	메이즈랜드	33.48825545	126.8008719		여행	관광,명소	테마파크	대한민국	제주특별자치도	제주시	구좌읍 평대리 3322 	{""weekDayOpen"":""9:00"",""weekDayOpenHour"":9.0,""weekDayClose"":""17:30"",""weekDayCloseHour"":17.5,""saturdayOpen"":""9:00"",""saturdayOpenHour"":9.0,""saturdayClose"":""17:30"",""saturdayCloseHour"":17.5,""sundayOpen"":""9:00"",""sundayOpenHour"":9.0,""sundayClose"":""17:30"",""sundayCloseHour"":17.5}	{""weeklyClosingDays"":[],""monthlyClosingDayOfWeeks"":[],""yearlyClosingDays"":[]}	-1	9000	[]	8.0	1.0	0.5	http://place.map.daum.net/13095815	
daum.10317311	대촌회미락	33.54283238303758	126.664480843723		음식점	한식	해물,생선	대한민국	제주특별자치도	제주시	조천읍 함덕리 1252-40 	{""weekDayOpenHour"":0.0,""weekDayCloseHour"":0.0,""saturdayOpenHour"":0.0,""saturdayCloseHour"":0.0,""sundayOpenHour"":0.0,""sundayCloseHour"":0.0}	{""weeklyClosingDays"":[],""monthlyClosingDayOfWeeks"":[],""yearlyClosingDays"":[]}	-1	-1	[]	7.0	0.5	0.1	http://place.map.daum.net/10317311	
daum.10399499	일출랜드	33.38336291	126.8415984		여행	관광,명소	테마파크	대한민국	제주특별자치도	서귀포시	성산읍 삼달리 1010 	{""weekDayOpen"":""8:30"",""weekDayOpenHour"":8.5,""weekDayClose"":""18:00"",""weekDayCloseHour"":18.0,""saturdayOpen"":""8:30"",""saturdayOpenHour"":8.5,""saturdayClose"":""18:00"",""saturdayCloseHour"":18.0,""sundayOpen"":""8:30"",""sundayOpenHour"":8.5,""sundayClose"":""18:00"",""sundayCloseHour"":18.0}	{""weeklyClosingDays"":[],""monthlyClosingDayOfWeeks"":[],""yearlyClosingDays"":[]}	-1	9000	[]	6.5	3.0	0.333333333	http://place.map.daum.net/10399499	
daum.10312092	대포횟집	33.23916422	126.4390438		음식점	한식	해물/생선	대한민국	제주특별자치도	서귀포시	대포동 2184 	{""weekDayOpenHour"":0.0,""weekDayCloseHour"":0.0,""saturdayOpenHour"":0.0,""saturdayCloseHour"":0.0,""sundayOpenHour"":0.0,""sundayCloseHour"":0.0}	{""weeklyClosingDays"":[],""monthlyClosingDayOfWeeks"":[],""yearlyClosingDays"":[]}	-1	-1	[]	5.8	0.5	0.1	http://place.map.daum.net/10312092	
daum.8173442	흑돼지구이집하영	33.25512031	126.416522		음식점	한식	육류/고기	대한민국	제주특별자치도	서귀포시	색달동 2477-5 	{""weekDayOpenHour"":0.0,""weekDayCloseHour"":0.0,""saturdayOpenHour"":0.0,""saturdayCloseHour"":0.0,""sundayOpenHour"":0.0,""sundayCloseHour"":0.0}	{""weeklyClosingDays"":[],""monthlyClosingDayOfWeeks"":[],""yearlyClosingDays"":[]}	-1	-1	[]	8.4	0.5	0.1	http://place.map.daum.net/8173442	
daum.8536676	유일반점	33.50101111	126.5307111		음식점	중식	중화요리	대한민국	제주특별자치도	제주시	이도2동 1176-25 	{""weekDayOpenHour"":0.0,""weekDayCloseHour"":0.0,""saturdayOpenHour"":0.0,""saturdayCloseHour"":0.0,""sundayOpenHour"":0.0,""sundayCloseHour"":0.0}	{""weeklyClosingDays"":[],""monthlyClosingDayOfWeeks"":[],""yearlyClosingDays"":[]}	-1	-1	[]	3.8	0.5	0.1	http://place.map.daum.net/8536676	
daum.11486940	삼보식당	33.24766852	126.5590719		음식점	한식		대한민국	제주특별자치도	서귀포시	서귀동 319-8 	{""weekDayOpen"":""08:00"",""weekDayOpenHour"":8.0,""weekDayClose"":""21:00"",""weekDayCloseHour"":21.0,""saturdayOpen"":""08:00"",""saturdayOpenHour"":8.0,""saturdayClose"":""21:00"",""saturdayCloseHour"":21.0,""sundayOpen"":""08:00"",""sundayOpenHour"":8.0,""sundayClose"":""21:00"",""sundayCloseHour"":21.0}	{""weeklyClosingDays"":[],""monthlyClosingDayOfWeeks"":[],""yearlyClosingDays"":[]}	-1	-1	[]	4.4	0.5	0.1	http://place.map.daum.net/11486940	
daum.23790875	돈구어	33.52492386	126.854168		음식점	한식	육류/고기	대한민국	제주특별자치도	제주시	구좌읍 세화리 3648-1 	{""weekDayOpenHour"":0.0,""weekDayCloseHour"":0.0,""saturdayOpenHour"":0.0,""saturdayCloseHour"":0.0,""sundayOpenHour"":0.0,""sundayCloseHour"":0.0}	{""weeklyClosingDays"":[],""monthlyClosingDayOfWeeks"":[],""yearlyClosingDays"":[]}	-1	-1	[]	0.0	0.5	0.1	http://place.map.daum.net/23790875	
daum.8192179	국립제주박물관	33.51359629	126.5488761		문화,예술	문화시설	미술관/박물관	대한민국	제주특별자치도	제주시	건입동 261 	{""weekDayOpen"":""9:00"",""weekDayOpenHour"":9.0,""weekDayClose"":""18:00"",""weekDayCloseHour"":18.0,""saturdayOpen"":""9:00"",""saturdayOpenHour"":9.0,""saturdayClose"":""18:00"",""saturdayCloseHour"":18.0,""sundayOpen"":""9:00"",""sundayOpenHour"":9.0,""sundayClose"":""18:00"",""sundayCloseHour"":18.0}	{""weeklyClosingDays"":[""Monday""],""monthlyClosingDayOfWeeks"":[],""yearlyClosingDays"":[""1월1일 휴관""]}	-1	0	[]	7.2	0.666666667	0.083333333	http://place.map.daum.net/8192179	
daum.7964906	소정방폭포	33.24522641	126.5776345		여행	관광,명소	폭포/계곡	대한민국	제주특별자치도	서귀포시	서귀동	{""weekDayOpen"":""7:30"",""weekDayOpenHour"":7.5,""weekDayClose"":""18:00"",""weekDayCloseHour"":18.0,""saturdayOpen"":""7:30"",""saturdayOpenHour"":7.5,""saturdayClose"":""18:00"",""saturdayCloseHour"":18.0,""sundayOpen"":""7:30"",""sundayOpenHour"":7.5,""sundayClose"":""18:00"",""sundayCloseHour"":18.0}	{""weeklyClosingDays"":[],""monthlyClosingDayOfWeeks"":[],""yearlyClosingDays"":[]}	-1	0	[]	10.0	0.5	0.166666667	http://place.map.daum.net/7964906	
daum.12501703	천짓골	33.24822072	126.5612238		음식점	한식	육류/고기	대한민국	제주특별자치도	서귀포시	천지동 294-10 	{""weekDayOpenHour"":0.0,""weekDayCloseHour"":0.0,""saturdayOpenHour"":0.0,""saturdayCloseHour"":0.0,""sundayOpenHour"":0.0,""sundayCloseHour"":0.0}	{""weeklyClosingDays"":[],""monthlyClosingDayOfWeeks"":[],""yearlyClosingDays"":[]}	-1	-1	[]	6.0	0.5	0.1	http://place.map.daum.net/12501703	
daum.10105733	흑돈가	33.48000517	126.473552		음식점	한식	육류/고기	대한민국	제주특별자치도	제주시	노형동 1509 	{""weekDayOpenHour"":0.0,""weekDayCloseHour"":0.0,""saturdayOpenHour"":0.0,""saturdayCloseHour"":0.0,""sundayOpenHour"":0.0,""sundayCloseHour"":0.0}	{""weeklyClosingDays"":[],""monthlyClosingDayOfWeeks"":[],""yearlyClosingDays"":[""공휴일""]}	-1	-1	[]	6.4	0.5	0.1	http://place.map.daum.net/10105733	
daum.10801589	제주도립미술관	33.45258465	126.4896447		문화,예술	문화시설	미술관/박물관	대한민국	제주특별자치도	제주시	연동 680-7 	{""weekDayOpen"":""9:00"",""weekDayOpenHour"":9.0,""weekDayClose"":""18:00"",""weekDayCloseHour"":18.0,""saturdayOpen"":""9:00"",""saturdayOpenHour"":9.0,""saturdayClose"":""18:00"",""saturdayCloseHour"":18.0,""sundayOpen"":""9:00"",""sundayOpenHour"":9.0,""sundayClose"":""18:00"",""sundayCloseHour"":18.0}	{""weeklyClosingDays"":[""Monday""],""monthlyClosingDayOfWeeks"":[],""yearlyClosingDays"":[""추석"",""1월1일"",""설날 및 추석연휴""]}	-1	1000	[]	8.0	0.833333333	0.166666667	http://place.map.daum.net/10801589	
daum.8552559	이호테우해변	33.49717732	126.4516203		여행	관광,명소	해수욕장/해변	대한민국	제주특별자치도	제주시	이호1동 1600 	{""weekDayOpen"":""7:30"",""weekDayOpenHour"":7.5,""weekDayClose"":""20:00"",""weekDayCloseHour"":20.0,""saturdayOpen"":""7:30"",""saturdayOpenHour"":7.5,""saturdayClose"":""20:00"",""saturdayCloseHour"":20.0,""sundayOpen"":""7:30"",""sundayOpenHour"":7.5,""sundayClose"":""20:00"",""sundayCloseHour"":20.0}	{""weeklyClosingDays"":[],""monthlyClosingDayOfWeeks"":[],""yearlyClosingDays"":[]}	-1	1000	[]	9.7	0.5	0.166666667	http://place.map.daum.net/8552559	
daum.23972751	감귤 박물관	33.27156161	126.607467		문화,예술	문화시설	미술관/박물관	대한민국	제주특별자치도	서귀포시	신효동 산4 	{""weekDayOpen"":""9:00"",""weekDayOpenHour"":9.0,""weekDayClose"":""18:00"",""weekDayCloseHour"":18.0,""saturdayOpen"":""9:00"",""saturdayOpenHour"":9.0,""saturdayClose"":""18:00"",""saturdayCloseHour"":18.0,""sundayOpen"":""9:00"",""sundayOpenHour"":9.0,""sundayClose"":""18:00"",""sundayCloseHour"":18.0}	{""weeklyClosingDays"":[],""monthlyClosingDayOfWeeks"":[],""yearlyClosingDays"":[""추석"",""설날"",""공휴일"",""매주 토일요일"",""1월1일""]}	-1	1500	[]	7.8	1.0	0.166666667	http://place.map.daum.net/23972751	
daum.8066130	제주KAL호텔	33.50586677	126.5263628		여행	숙박	호텔	대한민국	제주특별자치도	제주시	이도1동 1691-7 	{""weekDayOpenHour"":0.0,""weekDayCloseHour"":0.0,""saturdayOpenHour"":0.0,""saturdayCloseHour"":0.0,""sundayOpenHour"":0.0,""sundayCloseHour"":0.0}	{""weeklyClosingDays"":[],""monthlyClosingDayOfWeeks"":[],""yearlyClosingDays"":[]}	-1	50000	[]	8.6	1.0	0.0256	http://place.map.daum.net/8066130	
daum.14794381	대정향교	33.23954399	126.288384		여행	관광,명소	역사유적	대한민국	제주특별자치도	서귀포시	안덕면 사계리 3126-1 	{""weekDayOpen"":""9:00"",""weekDayOpenHour"":9.0,""weekDayClose"":""17:30"",""weekDayCloseHour"":17.5,""saturdayOpen"":""9:00"",""saturdayOpenHour"":9.0,""saturdayClose"":""17:30"",""saturdayCloseHour"":17.5,""sundayOpen"":""9:00"",""sundayOpenHour"":9.0,""sundayClose"":""17:30"",""sundayCloseHour"":17.5}	{""weeklyClosingDays"":[],""monthlyClosingDayOfWeeks"":[],""yearlyClosingDays"":[]}	-1	0	[]	0.0	0.5	0.166666667	http://place.map.daum.net/14794381	
daum.10706886	용머리해안	33.23165676	126.3147366		여행	관광,명소	자연경관	대한민국	제주특별자치도	서귀포시	안덕면 사계리 	{""weekDayOpen"":""9:00"",""weekDayOpenHour"":9.0,""weekDayClose"":""17:30"",""weekDayCloseHour"":17.5,""saturdayOpen"":""9:00"",""saturdayOpenHour"":9.0,""saturdayClose"":""17:30"",""saturdayCloseHour"":17.5,""sundayOpen"":""9:00"",""sundayOpenHour"":9.0,""sundayClose"":""17:30"",""sundayCloseHour"":17.5}	{""weeklyClosingDays"":[],""monthlyClosingDayOfWeeks"":[],""yearlyClosingDays"":[]}	-1	2500	[]	9.0	0.5	0.166666667	http://place.map.daum.net/10706886	
daum.8541672	천제연토속음식점	33.25679187	126.410776		음식점	한식		대한민국	제주특별자치도	서귀포시	색달동 2539 	{""weekDayOpenHour"":0.0,""weekDayCloseHour"":0.0,""saturdayOpenHour"":0.0,""saturdayCloseHour"":0.0,""sundayOpenHour"":0.0,""sundayCloseHour"":0.0}	{""weeklyClosingDays"":[],""monthlyClosingDayOfWeeks"":[],""yearlyClosingDays"":[]}	-1	-1	[]	6.6	0.5	0.1	http://place.map.daum.net/8541672	
daum.10915490	해오름식당	33.4912905	126.4797678		음식점	한식	육류/고기	대한민국	제주특별자치도	제주시	노형동 1047-2 	{""weekDayOpen"":""10:00"",""weekDayOpenHour"":10.0,""weekDayClose"":""23:00"",""weekDayCloseHour"":23.0,""saturdayOpen"":""10:00"",""saturdayOpenHour"":10.0,""saturdayClose"":""23:00"",""saturdayCloseHour"":23.0,""sundayOpen"":""10:00"",""sundayOpenHour"":10.0,""sundayClose"":""23:00"",""sundayCloseHour"":23.0}	{""weeklyClosingDays"":[],""monthlyClosingDayOfWeeks"":[],""yearlyClosingDays"":[""명절""]}	-1	-1	[]	8.0	0.5	0.1	http://place.map.daum.net/10915490	
daum.11594022	청진동뚝배기	33.46233431	126.9342403		음식점	한식		대한민국	제주특별자치도	서귀포시	성산읍 성산리 158-4 	{""weekDayOpenHour"":0.0,""weekDayCloseHour"":0.0,""saturdayOpenHour"":0.0,""saturdayCloseHour"":0.0,""sundayOpenHour"":0.0,""sundayCloseHour"":0.0}	{""weeklyClosingDays"":[],""monthlyClosingDayOfWeeks"":[],""yearlyClosingDays"":[]}	-1	-1	[]	5.8	0.5	0.1	http://place.map.daum.net/11594022	
daum.8702523	그랜드호텔사거리	33.48587275	126.4899402		교통,수송	도로시설	교차로	대한민국	제주특별자치도	제주시	연동	{""weekDayOpenHour"":0.0,""weekDayCloseHour"":0.0,""saturdayOpenHour"":0.0,""saturdayCloseHour"":0.0,""sundayOpenHour"":0.0,""sundayCloseHour"":0.0}	{""weeklyClosingDays"":[],""monthlyClosingDayOfWeeks"":[],""yearlyClosingDays"":[]}	-1	-1	[]	0.0	1.0	0.0256	http://place.map.daum.net/8702523	
daum.8903514	대풍미락	33.545379046905545	126.6620376151684		음식점	한식	해물,생선	대한민국	제주특별자치도	제주시	조천읍 함덕리 1028 	{""weekDayOpenHour"":0.0,""weekDayCloseHour"":0.0,""saturdayOpenHour"":0.0,""saturdayCloseHour"":0.0,""sundayOpenHour"":0.0,""sundayCloseHour"":0.0}	{""weeklyClosingDays"":[],""monthlyClosingDayOfWeeks"":[],""yearlyClosingDays"":[]}	-1	-1	[]	7.4	0.5	0.1	http://place.map.daum.net/8903514	
daum.8026532	용출횟집	33.51624187	126.5077586		음식점	한식	해물/생선	대한민국	제주특별자치도	제주시	용담3동 505 	{""weekDayOpenHour"":0.0,""weekDayCloseHour"":0.0,""saturdayOpenHour"":0.0,""saturdayCloseHour"":0.0,""sundayOpenHour"":0.0,""sundayCloseHour"":0.0}	{""weeklyClosingDays"":[],""monthlyClosingDayOfWeeks"":[],""yearlyClosingDays"":[]}	-1	-1	[]	8.5	0.5	0.1	http://place.map.daum.net/8026532	
daum.7915775	빌로우비치호텔	33.44815677	126.3037553		여행	숙박	호텔	대한민국	제주특별자치도	제주시	애월읍 곽지리 1565-18 	{""weekDayOpenHour"":0.0,""weekDayCloseHour"":0.0,""saturdayOpenHour"":0.0,""saturdayCloseHour"":0.0,""sundayOpenHour"":0.0,""sundayCloseHour"":0.0}	{""weeklyClosingDays"":[],""monthlyClosingDayOfWeeks"":[],""yearlyClosingDays"":[]}	-1	35000	[]	7.5	1.0	0.0256	http://place.map.daum.net/7915775	
daum.23970759	어진이네횟집	33.2407942	126.6108663		음식점	한식	해물/생선	대한민국	제주특별자치도	서귀포시	보목동 274-6 	{""weekDayOpenHour"":0.0,""weekDayCloseHour"":0.0,""saturdayOpenHour"":0.0,""saturdayCloseHour"":0.0,""sundayOpenHour"":0.0,""sundayCloseHour"":0.0}	{""weeklyClosingDays"":[],""monthlyClosingDayOfWeeks"":[],""yearlyClosingDays"":[]}	-1	-1	[]	4.6	0.5	0.1	http://place.map.daum.net/23970759	
daum.12140282	제주시민속오일시장	33.49717611	126.475497		가정,생활	시장		대한민국	제주특별자치도	제주시	도두1동 1212 	{""weekDayOpenHour"":0.0,""weekDayCloseHour"":0.0,""saturdayOpenHour"":0.0,""saturdayCloseHour"":0.0,""sundayOpenHour"":0.0,""sundayCloseHour"":0.0}	{""weeklyClosingDays"":[],""monthlyClosingDayOfWeeks"":[],""yearlyClosingDays"":[]}	-1	-1	[]	0.0	1.0	0.0256	http://place.map.daum.net/12140282	
daum.8641180	한라수목원	33.46973703	126.4932621		여행	관광,명소	수목원/식물원	대한민국	제주특별자치도	제주시	연동 산63-2 	{""weekDayOpen"":""9:00"",""weekDayOpenHour"":9.0,""weekDayClose"":""18:00"",""weekDayCloseHour"":18.0,""saturdayOpen"":""9:00"",""saturdayOpenHour"":9.0,""saturdayClose"":""18:00"",""saturdayCloseHour"":18.0,""sundayOpen"":""9:00"",""sundayOpenHour"":9.0,""sundayClose"":""18:00"",""sundayCloseHour"":18.0}	{""weeklyClosingDays"":[],""monthlyClosingDayOfWeeks"":[],""yearlyClosingDays"":[]}	-1	0	[]	9.3	1.0	0.166666667	http://place.map.daum.net/8641180	
daum.11280008	산굼부리	33.43255986	126.6939095		여행	관광,명소	산봉우리/등산로	대한민국	제주특별자치도	제주시	조천읍 교래리 산38 	{""weekDayOpen"":""9:00"",""weekDayOpenHour"":9.0,""weekDayClose"":""17:00"",""weekDayCloseHour"":17.0,""saturdayOpen"":""9:00"",""saturdayOpenHour"":9.0,""saturdayClose"":""17:00"",""saturdayCloseHour"":17.0,""sundayOpen"":""9:00"",""sundayOpenHour"":9.0,""sundayClose"":""17:00"",""sundayCloseHour"":17.0}	{""weeklyClosingDays"":[],""monthlyClosingDayOfWeeks"":[],""yearlyClosingDays"":[]}	-1	6000	[]	8.0	0.666666667	0.166666667	http://place.map.daum.net/11280008	
daum.8016700	오조해녀의집	33.46973502	126.9222935		음식점	한식	해물/생선	대한민국	제주특별자치도	서귀포시	성산읍 오조리 3 	{""weekDayOpenHour"":0.0,""weekDayCloseHour"":0.0,""saturdayOpen"":""06:00"",""saturdayOpenHour"":6.0,""saturdayClose"":""23:00"",""saturdayCloseHour"":23.0,""sundayOpen"":""06:00"",""sundayOpenHour"":6.0,""sundayClose"":""23:00"",""sundayCloseHour"":23.0}	{""weeklyClosingDays"":[],""monthlyClosingDayOfWeeks"":[],""yearlyClosingDays"":[]}	-1	-1	[]	6.4	0.5	0.1	http://place.map.daum.net/8016700	
daum.26873228	춘심이네 3호점	33.54282389	126.6707214		음식점	한식	국수	대한민국	제주특별자치도	제주시	조천읍 함덕리 산14-1 	{""weekDayOpenHour"":0.0,""weekDayCloseHour"":0.0,""saturdayOpenHour"":0.0,""saturdayCloseHour"":0.0,""sundayOpenHour"":0.0,""sundayCloseHour"":0.0}	{""weeklyClosingDays"":[],""monthlyClosingDayOfWeeks"":[],""yearlyClosingDays"":[]}	-1	-1	[]	10.0	0.5	0.1	http://place.map.daum.net/26873228	
daum.14080134	산방산사랑의유람선	33.23701554	126.3352602		여행	관광,명소	투어버스/유람선/관광열차	대한민국	제주특별자치도	서귀포시	안덕면 화순리 636-15 	{""weekDayOpen"":""11:20"",""weekDayOpenHour"":11.333333333333334,""weekDayClose"":""16:30"",""weekDayCloseHour"":16.5,""saturdayOpen"":""11:20"",""saturdayOpenHour"":11.333333333333334,""saturdayClose"":""16:30"",""saturdayCloseHour"":16.5,""sundayOpen"":""11:20"",""sundayOpenHour"":11.333333333333334,""sundayClose"":""16:30"",""sundayCloseHour"":16.5}	{""weeklyClosingDays"":[],""monthlyClosingDayOfWeeks"":[],""yearlyClosingDays"":[]}	-1	15000	[]	10.0	1.0	0.5	http://place.map.daum.net/14080134	
daum.22852532	착한튀김	33.52047283	126.5658088		음식점	분식		대한민국	제주특별자치도	제주시	화북동 1973-20 	{""weekDayOpenHour"":0.0,""weekDayCloseHour"":0.0,""saturdayOpenHour"":0.0,""saturdayCloseHour"":0.0,""sundayOpenHour"":0.0,""sundayCloseHour"":0.0}	{""weeklyClosingDays"":[""Sunday""],""monthlyClosingDayOfWeeks"":[],""yearlyClosingDays"":[]}	-1	-1	[]	9.0	0.5	0.1	http://place.map.daum.net/22852532	
daum.10773441	지미봉	33.49960787	126.9030165		여행	관광,명소	산봉우리/등산로	대한민국	제주특별자치도	제주시	구좌읍 종달리 산3-1 	{""weekDayOpen"":""7:30"",""weekDayOpenHour"":7.5,""weekDayClose"":""18:00"",""weekDayCloseHour"":18.0,""saturdayOpen"":""7:30"",""saturdayOpenHour"":7.5,""saturdayClose"":""18:00"",""saturdayCloseHour"":18.0,""sundayOpen"":""7:30"",""sundayOpenHour"":7.5,""sundayClose"":""18:00"",""sundayCloseHour"":18.0}	{""weeklyClosingDays"":[],""monthlyClosingDayOfWeeks"":[],""yearlyClosingDays"":[]}	-1	0	[]	10.0	1.0	0.166666667	http://place.map.daum.net/10773441	
daum.8412984	성산포스카이호텔	33.44948127	126.9167661		여행	숙박	호텔	대한민국	제주특별자치도	서귀포시	성산읍 고성리 298-45 	{""weekDayOpenHour"":0.0,""weekDayCloseHour"":0.0,""saturdayOpenHour"":0.0,""saturdayCloseHour"":0.0,""sundayOpenHour"":0.0,""sundayCloseHour"":0.0}	{""weeklyClosingDays"":[],""monthlyClosingDayOfWeeks"":[],""yearlyClosingDays"":[]}	-1	-1	[]	8.0	0.5	0.1	http://place.map.daum.net/8412984	
daum.8318319	백약이오름	33.43680941	126.7897582		여행	관광,명소	산봉우리/등산로	대한민국	제주특별자치도	서귀포시	표선면 성읍리 산1 	{""weekDayOpen"":""7:30"",""weekDayOpenHour"":7.5,""weekDayClose"":""18:00"",""weekDayCloseHour"":18.0,""saturdayOpen"":""7:30"",""saturdayOpenHour"":7.5,""saturdayClose"":""18:00"",""saturdayCloseHour"":18.0,""sundayOpen"":""7:30"",""sundayOpenHour"":7.5,""sundayClose"":""18:00"",""sundayCloseHour"":18.0}	{""weeklyClosingDays"":[],""monthlyClosingDayOfWeeks"":[],""yearlyClosingDays"":[]}	-1	0	[]	8.8	1.0	0.166666667	http://place.map.daum.net/8318319	
daum.8025234	올래국수	33.48832678	126.4894782		음식점	한식	국수	대한민국	제주특별자치도	제주시	연동 261-16 1층 	{""weekDayOpen"":""09:30"",""weekDayOpenHour"":9.5,""weekDayClose"":""21:00"",""weekDayCloseHour"":21.0,""saturdayOpen"":""09:30"",""saturdayOpenHour"":9.5,""saturdayClose"":""21:00"",""saturdayCloseHour"":21.0,""sundayOpenHour"":0.0,""sundayCloseHour"":0.0}	{""weeklyClosingDays"":[""Sunday""],""monthlyClosingDayOfWeeks"":[],""yearlyClosingDays"":[""설날 및 추석연휴""]}	-1	-1	[]	7.8	1.0	0.0256	http://place.map.daum.net/8025234	
daum.11294440	남원큰엉해안경승지	33.27333215	126.7037144		여행	관광,명소	자연경관	대한민국	제주특별자치도	서귀포시	남원읍 남원리 	{""weekDayOpen"":""7:30"",""weekDayOpenHour"":7.5,""weekDayClose"":""18:00"",""weekDayCloseHour"":18.0,""saturdayOpen"":""7:30"",""saturdayOpenHour"":7.5,""saturdayClose"":""18:00"",""saturdayCloseHour"":18.0,""sundayOpen"":""7:30"",""sundayOpenHour"":7.5,""sundayClose"":""18:00"",""sundayCloseHour"":18.0}	{""weeklyClosingDays"":[],""monthlyClosingDayOfWeeks"":[],""yearlyClosingDays"":[]}	-1	0	[]	0.0	0.5	0.083333333	http://place.map.daum.net/11294440	
daum.17079132	중문신라원	33.25485606	126.4170818		음식점	한식	육류/고기	대한민국	제주특별자치도	서귀포시	색달동 2480-4 	{""weekDayOpenHour"":0.0,""weekDayCloseHour"":0.0,""saturdayOpenHour"":0.0,""saturdayCloseHour"":0.0,""sundayOpenHour"":0.0,""sundayCloseHour"":0.0}	{""weeklyClosingDays"":[],""monthlyClosingDayOfWeeks"":[],""yearlyClosingDays"":[]}	-1	-1	[]	7.5	0.5	0.1	http://place.map.daum.net/17079132	
daum.10147984	곽지과물해변	33.45094384	126.304929		여행	관광,명소	해수욕장/해변	대한민국	제주특별자치도	제주시	애월읍 곽지리 	{""weekDayOpen"":""7:30"",""weekDayOpenHour"":7.5,""weekDayClose"":""20:00"",""weekDayCloseHour"":20.0,""saturdayOpen"":""7:30"",""saturdayOpenHour"":7.5,""saturdayClose"":""20:00"",""saturdayCloseHour"":20.0,""sundayOpen"":""7:30"",""sundayOpenHour"":7.5,""sundayClose"":""20:00"",""sundayCloseHour"":20.0}	{""weeklyClosingDays"":[],""monthlyClosingDayOfWeeks"":[],""yearlyClosingDays"":[]}	-1	1000	[]	9.4	0.5	0.166666667	http://place.map.daum.net/10147984	
daum.22538448	해마루	33.4498087	126.9211239		음식점	한식		대한민국	제주특별자치도	서귀포시	성산읍 고성리 236 	{""weekDayOpenHour"":0.0,""weekDayCloseHour"":0.0,""saturdayOpenHour"":0.0,""saturdayCloseHour"":0.0,""sundayOpenHour"":0.0,""sundayCloseHour"":0.0}	{""weeklyClosingDays"":[],""monthlyClosingDayOfWeeks"":[],""yearlyClosingDays"":[]}	-1	-1	[]	8.3	0.5	0.1	http://place.map.daum.net/22538448	
daum.8222476	김영갑갤러리두모악	33.37189523	126.8541359		문화,예술	문화시설	미술관/박물관	대한민국	제주특별자치도	서귀포시	성산읍 삼달리 437-5 	{""weekDayOpen"":""9:30"",""weekDayOpenHour"":9.5,""weekDayClose"":""18:00"",""weekDayCloseHour"":18.0,""saturdayOpen"":""9:30"",""saturdayOpenHour"":9.5,""saturdayClose"":""18:00"",""saturdayCloseHour"":18.0,""sundayOpen"":""9:30"",""sundayOpenHour"":9.5,""sundayClose"":""18:00"",""sundayCloseHour"":18.0}	{""weeklyClosingDays"":[""Wednesday""],""monthlyClosingDayOfWeeks"":[],""yearlyClosingDays"":[""설날"",""추석 당일""]}	-1	3000	[]	9.7	0.5	0.083333333	http://place.map.daum.net/8222476	
daum.8526214	용이식당	33.25118541	126.5602389		음식점	한식	육류/고기	대한민국	제주특별자치도	서귀포시	서귀동 298-8 	{""weekDayOpenHour"":0.0,""weekDayCloseHour"":0.0,""saturdayOpenHour"":0.0,""saturdayCloseHour"":0.0,""sundayOpenHour"":0.0,""sundayCloseHour"":0.0}	{""weeklyClosingDays"":[""Wednesday""],""monthlyClosingDayOfWeeks"":[],""yearlyClosingDays"":[]}	-1	-1	[]	7.8	0.5	0.1	http://place.map.daum.net/8526214	
daum.21627093	한라산국립공원 돈내코탐방로	33.33632146	126.5534785		여행	관광,명소	산봉우리/등산로	대한민국	제주특별자치도	서귀포시	토평동	{""weekDayOpen"":""6:30"",""weekDayOpenHour"":6.5,""weekDayClose"":""18:00"",""weekDayCloseHour"":18.0,""saturdayOpen"":""6:30"",""saturdayOpenHour"":6.5,""saturdayClose"":""18:00"",""saturdayCloseHour"":18.0,""sundayOpen"":""6:30"",""sundayOpenHour"":6.5,""sundayClose"":""18:00"",""sundayCloseHour"":18.0}	{""weeklyClosingDays"":[],""monthlyClosingDayOfWeeks"":[],""yearlyClosingDays"":[]}	-1	1800	[]	0.0	7.0	0.7	http://place.map.daum.net/21627093	
daum.21627095	한라산국립공원 영실탐방로	33.35971337	126.5114438		여행	관광,명소	산봉우리/등산로	대한민국	제주특별자치도	서귀포시	토평동	{""weekDayOpen"":""6:30"",""weekDayOpenHour"":6.5,""weekDayClose"":""18:00"",""weekDayCloseHour"":18.0,""saturdayOpen"":""6:30"",""saturdayOpenHour"":6.5,""saturdayClose"":""18:00"",""saturdayCloseHour"":18.0,""sundayOpen"":""6:30"",""sundayOpenHour"":6.5,""sundayClose"":""18:00"",""sundayCloseHour"":18.0}	{""weeklyClosingDays"":[],""monthlyClosingDayOfWeeks"":[],""yearlyClosingDays"":[]}	-1	1800	[]	0.0	5.0	0.5	http://place.map.daum.net/21627095	
daum.21627094	한라산국립공원 관음사탐방로	33.39083768	126.5380065		여행	관광,명소	산봉우리/등산로	대한민국	제주특별자치도	서귀포시	토평동	{""weekDayOpen"":""6:30"",""weekDayOpenHour"":6.5,""weekDayClose"":""18:00"",""weekDayCloseHour"":18.0,""saturdayOpen"":""6:30"",""saturdayOpenHour"":6.5,""saturdayClose"":""18:00"",""saturdayCloseHour"":18.0,""sundayOpen"":""6:30"",""sundayOpenHour"":6.5,""sundayClose"":""18:00"",""sundayCloseHour"":18.0}	{""weeklyClosingDays"":[],""monthlyClosingDayOfWeeks"":[],""yearlyClosingDays"":[]}	-1	1800	[]	0.0	10.0	1.0	http://place.map.daum.net/21627094	
daum.21627096	한라산국립공원 어리목탐방로	33.36898409	126.508336		여행	관광,명소	산봉우리/등산로	대한민국	제주특별자치도	서귀포시	토평동	{""weekDayOpen"":""6:30"",""weekDayOpenHour"":6.5,""weekDayClose"":""18:00"",""weekDayCloseHour"":18.0,""saturdayOpen"":""6:30"",""saturdayOpenHour"":6.5,""saturdayClose"":""18:00"",""saturdayCloseHour"":18.0,""sundayOpen"":""6:30"",""sundayOpenHour"":6.5,""sundayClose"":""18:00"",""sundayCloseHour"":18.0}	{""weeklyClosingDays"":[],""monthlyClosingDayOfWeeks"":[],""yearlyClosingDays"":[]}	-1	1800	[]	0.0	6.0	0.6	http://place.map.daum.net/21627096	
daum.25035440	외돌개	33.23939228	126.545251		여행	관광,명소	자연경관	대한민국	제주특별자치도	서귀포시	서홍동 791 	{""weekDayOpen"":""7:30"",""weekDayOpenHour"":7.5,""weekDayClose"":""18:00"",""weekDayCloseHour"":18.0,""saturdayOpen"":""7:30"",""saturdayOpenHour"":7.5,""saturdayClose"":""18:00"",""saturdayCloseHour"":18.0,""sundayOpen"":""7:30"",""sundayOpenHour"":7.5,""sundayClose"":""18:00"",""sundayCloseHour"":18.0}	{""weeklyClosingDays"":[],""monthlyClosingDayOfWeeks"":[],""yearlyClosingDays"":[]}	-1	1000	[]	8.0	0.5	0.166666667	http://place.map.daum.net/25035440	
daum.11081046	명가해장국	33.54163825	126.6656569		음식점	한식	해장국	대한민국	제주특별자치도	제주시	조천읍 함덕리 1268-2 	{""weekDayOpenHour"":0.0,""weekDayCloseHour"":0.0,""saturdayOpenHour"":0.0,""saturdayCloseHour"":0.0,""sundayOpenHour"":0.0,""sundayCloseHour"":0.0}	{""weeklyClosingDays"":[],""monthlyClosingDayOfWeeks"":[],""yearlyClosingDays"":[]}	-1	-1	[]	4.8	0.5	0.1	http://place.map.daum.net/11081046	
daum.15225413	대포해송횟집	33.23903326	126.4428042		음식점	한식	해물/생선	대한민국	제주특별자치도	서귀포시	대포동 2356-1 	{""weekDayOpenHour"":0.0,""weekDayCloseHour"":0.0,""saturdayOpenHour"":0.0,""saturdayCloseHour"":0.0,""sundayOpenHour"":0.0,""sundayCloseHour"":0.0}	{""weeklyClosingDays"":[],""monthlyClosingDayOfWeeks"":[],""yearlyClosingDays"":[]}	-1	-1	[]	7.5	0.5	0.1	http://place.map.daum.net/15225413	
daum.10549277	쇠소깍	33.25460108	126.622923		여행	관광,명소	자연경관	대한민국	제주특별자치도	서귀포시	하효동	{""weekDayOpen"":""9:00"",""weekDayOpenHour"":9.0,""weekDayClose"":""17:30"",""weekDayCloseHour"":17.5,""saturdayOpen"":""9:00"",""saturdayOpenHour"":9.0,""saturdayClose"":""17:30"",""saturdayCloseHour"":17.5,""sundayOpen"":""9:00"",""sundayOpenHour"":9.0,""sundayClose"":""17:30"",""sundayCloseHour"":17.5}	{""weeklyClosingDays"":[],""monthlyClosingDayOfWeeks"":[],""yearlyClosingDays"":[]}	-1	6000	[]	10.0	0.666666667	0.333333333	http://place.map.daum.net/10549277	
daum.7967592	순옥이네명가	33.50550148	126.4649774		음식점	한식	해물/생선	대한민국	제주특별자치도	제주시	도두동 2615-5 	{""weekDayOpen"":""09:00"",""weekDayOpenHour"":9.0,""weekDayClose"":""20:30"",""weekDayCloseHour"":20.5,""saturdayOpen"":""09:00"",""saturdayOpenHour"":9.0,""saturdayClose"":""20:30"",""saturdayCloseHour"":20.5,""sundayOpen"":""09:00"",""sundayOpenHour"":9.0,""sundayClose"":""20:30"",""sundayCloseHour"":20.5}	{""weeklyClosingDays"":[],""monthlyClosingDayOfWeeks"":[],""yearlyClosingDays"":[""설연휴"",""추석연휴""]}	-1	-1	[]	6.2	0.5	0.1	http://place.map.daum.net/7967592	
daum.12211943	산방산탄산온천	33.24888606	126.2987812		여행	관광,명소	온천	대한민국	제주특별자치도	서귀포시	안덕면 사계리 981 	{""weekDayOpen"":""5:00"",""weekDayOpenHour"":5.0,""weekDayClose"":""23:59"",""weekDayCloseHour"":23.983333333333334,""saturdayOpen"":""5:00"",""saturdayOpenHour"":5.0,""saturdayClose"":""23:59"",""saturdayCloseHour"":23.983333333333334,""sundayOpen"":""5:00"",""sundayOpenHour"":5.0,""sundayClose"":""23:59"",""sundayCloseHour"":23.983333333333334}	{""weeklyClosingDays"":[],""monthlyClosingDayOfWeeks"":[],""yearlyClosingDays"":[]}	-1	11000	[]	3.8	1.5	0.5	http://place.map.daum.net/12211943	
daum.8294507	명리동식당	33.31662826	126.2704088		음식점	한식	육류/고기	대한민국	제주특별자치도	제주시	한경면 저지리 3136 	{""weekDayOpenHour"":0.0,""weekDayCloseHour"":0.0,""saturdayOpenHour"":0.0,""saturdayCloseHour"":0.0,""sundayOpenHour"":0.0,""sundayCloseHour"":0.0}	{""weeklyClosingDays"":[""Monday""],""monthlyClosingDayOfWeeks"":[],""yearlyClosingDays"":[]}	-1	-1	[]	7.8	0.5	0.1	http://place.map.daum.net/8294507	
daum.10941032	한림공원	33.3893688	126.2403102		여행	관광,명소	테마파크	대한민국	제주특별자치도	제주시	한림읍 협재리 2487 	{""weekDayOpen"":""8:30"",""weekDayOpenHour"":8.5,""weekDayClose"":""18:00"",""weekDayCloseHour"":18.0,""saturdayOpen"":""8:30"",""saturdayOpenHour"":8.5,""saturdayClose"":""18:00"",""saturdayCloseHour"":18.0,""sundayOpen"":""8:30"",""sundayOpenHour"":8.5,""sundayClose"":""18:00"",""sundayCloseHour"":18.0}	{""weeklyClosingDays"":[],""monthlyClosingDayOfWeeks"":[],""yearlyClosingDays"":[]}	-1	10000	[]	8.6	1.75	0.25	http://place.map.daum.net/10941032	
daum.8085329	마원	33.24785056	126.4060502		음식점	한식	육류/고기	대한민국	제주특별자치도	서귀포시	색달동 3092 	{""weekDayOpen"":""11:00"",""weekDayOpenHour"":11.0,""weekDayClose"":""22:00"",""weekDayCloseHour"":22.0,""saturdayOpen"":""11:00"",""saturdayOpenHour"":11.0,""saturdayClose"":""22:00"",""saturdayCloseHour"":22.0,""sundayOpen"":""11:00"",""sundayOpenHour"":11.0,""sundayClose"":""22:00"",""sundayCloseHour"":22.0}	{""weeklyClosingDays"":[],""monthlyClosingDayOfWeeks"":[],""yearlyClosingDays"":[]}	-1	-1	[]	6.9	0.5	0.1	http://place.map.daum.net/8085329	
daum.8094035	진주식당	33.24661548	126.5590901		음식점	한식	해물/생선	대한민국	제주특별자치도	서귀포시	서귀동 314-7 	{""weekDayOpen"":""07:00"",""weekDayOpenHour"":7.0,""weekDayClose"":""21:00"",""weekDayCloseHour"":21.0,""saturdayOpenHour"":0.0,""saturdayCloseHour"":0.0,""sundayOpenHour"":0.0,""sundayCloseHour"":0.0}	{""weeklyClosingDays"":[],""monthlyClosingDayOfWeeks"":[],""yearlyClosingDays"":[]}	-1	-1	[]	4.3	0.5	0.1	http://place.map.daum.net/8094035	
daum.8522514	우리봉식당	33.46216841	126.9342319		음식점	한식	해물/생선	대한민국	제주특별자치도	서귀포시	성산읍 성산리 	{""weekDayOpenHour"":0.0,""weekDayCloseHour"":0.0,""saturdayOpenHour"":0.0,""saturdayCloseHour"":0.0,""sundayOpenHour"":0.0,""sundayCloseHour"":0.0}	{""weeklyClosingDays"":[],""monthlyClosingDayOfWeeks"":[],""yearlyClosingDays"":[]}	-1	-1	[]	6.7	1.0	0.0256	http://place.map.daum.net/8522514	
daum.10289213	두산봉	33.47962407	126.8853895		여행	관광,명소	산봉우리/등산로	대한민국	제주특별자치도	제주시	구좌읍 종달리 산13-1 	{""weekDayOpen"":""7:30"",""weekDayOpenHour"":7.5,""weekDayClose"":""18:00"",""weekDayCloseHour"":18.0,""saturdayOpen"":""7:30"",""saturdayOpenHour"":7.5,""saturdayClose"":""18:00"",""saturdayCloseHour"":18.0,""sundayOpen"":""7:30"",""sundayOpenHour"":7.5,""sundayClose"":""18:00"",""sundayCloseHour"":18.0}	{""weeklyClosingDays"":[],""monthlyClosingDayOfWeeks"":[],""yearlyClosingDays"":[]}	-1	0	[]	6.0	1.0	0.166666667	http://place.map.daum.net/10289213	
daum.11417273	다가미	33.4904475	126.5286677		음식점	분식		대한민국	제주특별자치도	제주시	도남동 68-2 	{""weekDayOpenHour"":0.0,""weekDayCloseHour"":0.0,""saturdayOpenHour"":0.0,""saturdayCloseHour"":0.0,""sundayOpenHour"":0.0,""sundayCloseHour"":0.0}	{""weeklyClosingDays"":[],""monthlyClosingDayOfWeeks"":[],""yearlyClosingDays"":[]}	-1	-1	[]	8.1	0.5	0.1	http://place.map.daum.net/11417273	
daum.12427764	노형삼대국수회관	33.48284753	126.4787983		음식점	한식	국수	대한민국	제주특별자치도	제주시	노형동 3791-7 	{""weekDayOpenHour"":0.0,""weekDayCloseHour"":0.0,""saturdayOpenHour"":0.0,""saturdayCloseHour"":0.0,""sundayOpenHour"":0.0,""sundayCloseHour"":0.0}	{""weeklyClosingDays"":[],""monthlyClosingDayOfWeeks"":[],""yearlyClosingDays"":[]}	-1	-1	[]	6.3	0.5	0.1	http://place.map.daum.net/12427764	
daum.20198888	협재해녀의집	33.39881773	126.2438997		음식점	한식	해물/생선	대한민국	제주특별자치도	제주시	한림읍 협재리 1459-2 	{""weekDayOpen"":""10:00"",""weekDayOpenHour"":10.0,""weekDayClose"":""21:00"",""weekDayCloseHour"":21.0,""saturdayOpen"":""10:00"",""saturdayOpenHour"":10.0,""saturdayClose"":""21:00"",""saturdayCloseHour"":21.0,""sundayOpen"":""10:00"",""sundayOpenHour"":10.0,""sundayClose"":""21:00"",""sundayCloseHour"":21.0}	{""weeklyClosingDays"":[],""monthlyClosingDayOfWeeks"":[],""yearlyClosingDays"":[]}	-1	-1	[]	2.5	0.5	0.1	http://place.map.daum.net/20198888	
daum.8063566	제주민속촌박물관	33.32239234	126.842293		문화,예술	문화시설	미술관/박물관	대한민국	제주특별자치도	서귀포시	표선면 표선리 40-1 	{""weekDayOpen"":""8:30"",""weekDayOpenHour"":8.5,""weekDayClose"":""17:00"",""weekDayCloseHour"":17.0,""saturdayOpen"":""8:30"",""saturdayOpenHour"":8.5,""saturdayClose"":""17:00"",""saturdayCloseHour"":17.0,""sundayOpen"":""8:30"",""sundayOpenHour"":8.5,""sundayClose"":""17:00"",""sundayCloseHour"":17.0}	{""weeklyClosingDays"":[],""monthlyClosingDayOfWeeks"":[],""yearlyClosingDays"":[]}	-1	10000	[]	10.0	1.5	0.25	http://place.map.daum.net/8063566	
daum.17360759	별빛누리 공원	33.44518148	126.5494069		여행	관광,명소	공원	대한민국	제주특별자치도	제주시	오등동 산34 	{""weekDayOpen"":""14:00"",""weekDayOpenHour"":14.0,""weekDayClose"":""22:00"",""weekDayCloseHour"":22.0,""saturdayOpen"":""14:00"",""saturdayOpenHour"":14.0,""saturdayClose"":""22:00"",""saturdayCloseHour"":22.0,""sundayOpen"":""14:00"",""sundayOpenHour"":14.0,""sundayClose"":""22:00"",""sundayCloseHour"":22.0}	{""weeklyClosingDays"":[],""monthlyClosingDayOfWeeks"":[],""yearlyClosingDays"":[]}	-1	5000	[]	8.3	1.333333333	0.333333333	http://place.map.daum.net/17360759	
daum.25575890	일레인호텔	33.25461078	126.439031		여행	숙박	호텔	대한민국	제주특별자치도	서귀포시	회수동 659 	{""weekDayOpenHour"":0.0,""weekDayCloseHour"":0.0,""saturdayOpenHour"":0.0,""saturdayCloseHour"":0.0,""sundayOpenHour"":0.0,""sundayCloseHour"":0.0}	{""weeklyClosingDays"":[],""monthlyClosingDayOfWeeks"":[],""yearlyClosingDays"":[]}	-1	-1	[]	10.0	1.0	0.0256	http://place.map.daum.net/25575890	
daum.14505892	돈꼬레	33.54028285295175	126.6699127393344		음식점	한식	육류,고기	대한민국	제주특별자치도	제주시	조천읍 함덕리 960 	{""weekDayOpenHour"":0.0,""weekDayCloseHour"":0.0,""saturdayOpenHour"":0.0,""saturdayCloseHour"":0.0,""sundayOpenHour"":0.0,""sundayCloseHour"":0.0}	{""weeklyClosingDays"":[],""monthlyClosingDayOfWeeks"":[],""yearlyClosingDays"":[]}	-1	-1	[]	10.0	0.5	0.1	http://place.map.daum.net/14505892	
daum.15838018	덕성원 본점	33.24491039	126.5634036		음식점	중식	중화요리	대한민국	제주특별자치도	서귀포시	정방동 474 	{""weekDayOpen"":""10:30"",""weekDayOpenHour"":10.5,""weekDayClose"":""21:00"",""weekDayCloseHour"":21.0,""saturdayOpen"":""10:30"",""saturdayOpenHour"":10.5,""saturdayClose"":""21:00"",""saturdayCloseHour"":21.0,""sundayOpen"":""10:30"",""sundayOpenHour"":10.5,""sundayClose"":""21:00"",""sundayCloseHour"":21.0}	{""weeklyClosingDays"":[],""monthlyClosingDayOfWeeks"":[],""yearlyClosingDays"":[]}	-1	-1	[]	7.1	0.5	0.1	http://place.map.daum.net/15838018	
daum.8130258	하얏트리젠시 제주	33.24462599	126.4059733		여행	숙박	호텔	대한민국	제주특별자치도	서귀포시	색달동 3039-1 	{""weekDayOpenHour"":0.0,""weekDayCloseHour"":0.0,""saturdayOpenHour"":0.0,""saturdayCloseHour"":0.0,""sundayOpenHour"":0.0,""sundayCloseHour"":0.0}	{""weeklyClosingDays"":[],""monthlyClosingDayOfWeeks"":[],""yearlyClosingDays"":[]}	-1	80000	[]	8.2	0.5	0.1	http://place.map.daum.net/8130258	
daum.19358926	요네상회	33.26606128	126.641991		음식점	양식	해산물	대한민국	제주특별자치도	서귀포시	남원읍 신례리 30-6 	{""weekDayOpen"":""12:00"",""weekDayOpenHour"":12.0,""weekDayClose"":""20:00"",""weekDayCloseHour"":20.0,""saturdayOpen"":""12:00"",""saturdayOpenHour"":12.0,""saturdayClose"":""20:00"",""saturdayCloseHour"":20.0,""sundayOpen"":""12:00"",""sundayOpenHour"":12.0,""sundayClose"":""20:00"",""sundayCloseHour"":20.0}	{""weeklyClosingDays"":[""Tuesday""],""monthlyClosingDayOfWeeks"":[],""yearlyClosingDays"":[]}	-1	-1	[]	9.0	0.5	0.1	http://place.map.daum.net/19358926	
daum.8874256	낭뜰에쉼팡	33.47354437	126.6571312		음식점	한식		대한민국	제주특별자치도	제주시	조천읍 와흘리 125 	{""weekDayOpenHour"":0.0,""weekDayCloseHour"":0.0,""saturdayOpenHour"":0.0,""saturdayCloseHour"":0.0,""sundayOpenHour"":0.0,""sundayCloseHour"":0.0}	{""weeklyClosingDays"":[],""monthlyClosingDayOfWeeks"":[],""yearlyClosingDays"":[]}	-1	-1	[]	6.9	0.5	0.1	http://place.map.daum.net/8874256	
daum.15786539	제주현대미술관	33.33966279	126.2655893		문화,예술	문화시설	미술관/박물관	대한민국	제주특별자치도	제주시	한경면 저지리 2114-63 저지문화예술인마을 내 	{""weekDayOpen"":""9:00"",""weekDayOpenHour"":9.0,""weekDayClose"":""18:00"",""weekDayCloseHour"":18.0,""saturdayOpen"":""9:00"",""saturdayOpenHour"":9.0,""saturdayClose"":""18:00"",""saturdayCloseHour"":18.0,""sundayOpen"":""9:00"",""sundayOpenHour"":9.0,""sundayClose"":""18:00"",""sundayCloseHour"":18.0}	{""weeklyClosingDays"":[""Wednesday""],""monthlyClosingDayOfWeeks"":[],""yearlyClosingDays"":[""1월1일,설날,추석""]}	-1	1000	[]	9.0	0.833333333	0.166666667	http://place.map.daum.net/15786539	
daum.25161792	테라로사 제주서귀포점	33.24952513	126.6188628		음식점	카페	커피전문점	대한민국	제주특별자치도	서귀포시	하효동 1306-1 	{""weekDayOpen"":""09:00"",""weekDayOpenHour"":9.0,""weekDayClose"":""21:00"",""weekDayCloseHour"":21.0,""saturdayOpen"":""09:00"",""saturdayOpenHour"":9.0,""saturdayClose"":""21:00"",""saturdayCloseHour"":21.0,""sundayOpen"":""09:00"",""sundayOpenHour"":9.0,""sundayClose"":""21:00"",""sundayCloseHour"":21.0}	{""weeklyClosingDays"":[],""monthlyClosingDayOfWeeks"":[],""yearlyClosingDays"":[]}	-1	-1	[]	6.0	0.5	0.1	http://place.map.daum.net/25161792	
daum.14819290	도순설록다원	33.27307489	126.4828604		여행	관광,명소	관광농원	대한민국	제주특별자치도	서귀포시	도순동 1-1 	{""weekDayOpen"":""9:00"",""weekDayOpenHour"":9.0,""weekDayClose"":""18:00"",""weekDayCloseHour"":18.0,""saturdayOpen"":""9:00"",""saturdayOpenHour"":9.0,""saturdayClose"":""18:00"",""saturdayCloseHour"":18.0,""sundayOpen"":""9:00"",""sundayOpenHour"":9.0,""sundayClose"":""18:00"",""sundayCloseHour"":18.0}	{""weeklyClosingDays"":[],""monthlyClosingDayOfWeeks"":[],""yearlyClosingDays"":[]}	-1	0	[]	0.0	0.333333333	0.083333333	http://place.map.daum.net/14819290	
daum.9299645	우정횟집	33.24965952	126.5632168		음식점	한식	해물/생선	대한민국	제주특별자치도	서귀포시	서귀동 276-6 	{""weekDayOpenHour"":0.0,""weekDayCloseHour"":0.0,""saturdayOpenHour"":0.0,""saturdayCloseHour"":0.0,""sundayOpenHour"":0.0,""sundayCloseHour"":0.0}	{""weeklyClosingDays"":[],""monthlyClosingDayOfWeeks"":[],""yearlyClosingDays"":[]}	-1	-1	[]	9.3	0.5	0.1	http://place.map.daum.net/9299645	
daum.10437289	산방식당	33.22347538	126.2542082		음식점	한식	냉면	대한민국	제주특별자치도	서귀포시	대정읍 하모리 864-3 	{""weekDayOpen"":""11:00"",""weekDayOpenHour"":11.0,""weekDayClose"":""18:00"",""weekDayCloseHour"":18.0,""saturdayOpenHour"":0.0,""saturdayCloseHour"":0.0,""sundayOpenHour"":0.0,""sundayCloseHour"":0.0}	{""weeklyClosingDays"":[],""monthlyClosingDayOfWeeks"":[],""yearlyClosingDays"":[""명절""]}	-1	-1	[]	7.7	0.5	0.1	http://place.map.daum.net/10437289	
daum.8042880	다랑쉬	33.47766962	126.8215274		여행	관광,명소	산봉우리/등산로	대한민국	제주특별자치도	제주시	구좌읍 세화리 산6 	{""weekDayOpen"":""7:30"",""weekDayOpenHour"":7.5,""weekDayClose"":""18:00"",""weekDayCloseHour"":18.0,""saturdayOpen"":""7:30"",""saturdayOpenHour"":7.5,""saturdayClose"":""18:00"",""saturdayCloseHour"":18.0,""sundayOpen"":""7:30"",""sundayOpenHour"":7.5,""sundayClose"":""18:00"",""sundayCloseHour"":18.0}	{""weeklyClosingDays"":[],""monthlyClosingDayOfWeeks"":[],""yearlyClosingDays"":[]}	-1	0	[]	10.0	1.333333333	0.25	http://place.map.daum.net/8042880	
daum.16440052	남또리자연산활어회	33.42696233	126.4109621		음식점	한식	해물/생선	대한민국	제주특별자치도	제주시	애월읍 유수암리 335-3 	{""weekDayOpenHour"":0.0,""weekDayCloseHour"":0.0,""saturdayOpenHour"":0.0,""saturdayCloseHour"":0.0,""sundayOpenHour"":0.0,""sundayCloseHour"":0.0}	{""weeklyClosingDays"":[],""monthlyClosingDayOfWeeks"":[],""yearlyClosingDays"":[]}	-1	-1	[]	7.0	0.5	0.1	http://place.map.daum.net/16440052	
daum.25186462	군산	33.25313318	126.3699625		여행	관광,명소	오름	대한민국	제주특별자치도	서귀포시	안덕면 창천리 564 	{""weekDayOpenHour"":0.0,""weekDayCloseHour"":0.0,""saturdayOpenHour"":0.0,""saturdayCloseHour"":0.0,""sundayOpenHour"":0.0,""sundayCloseHour"":0.0}	{""weeklyClosingDays"":[],""monthlyClosingDayOfWeeks"":[],""yearlyClosingDays"":[]}	-1	-1	[]	9.5	0.5	0.1	http://place.map.daum.net/25186462	
daum.17796633	이어도횟집	33.54138990842566	126.6712306827595		음식점	한식	해물,생선	대한민국	제주특별자치도	제주시	조천읍 함덕리 274 대명리조트 제주 본관동 2층 	{""weekDayOpen"":""07:00"",""weekDayOpenHour"":7.0,""weekDayClose"":""22:00"",""weekDayCloseHour"":22.0,""saturdayOpen"":""07:00"",""saturdayOpenHour"":7.0,""saturdayClose"":""22:00"",""saturdayCloseHour"":22.0,""sundayOpen"":""07:00"",""sundayOpenHour"":7.0,""sundayClose"":""22:00"",""sundayCloseHour"":22.0}	{""weeklyClosingDays"":[],""monthlyClosingDayOfWeeks"":[],""yearlyClosingDays"":[]}	-1	-1	[]	9.7	0.5	0.1	http://place.map.daum.net/17796633	
daum.8085765	차귀도	33.31155496	126.1476252		여행	관광,명소	섬	대한민국	제주특별자치도	제주시	한경면 고산리 125 	{""weekDayOpen"":""9:30"",""weekDayOpenHour"":9.5,""weekDayClose"":""17:00"",""weekDayCloseHour"":17.0,""saturdayOpen"":""9:30"",""saturdayOpenHour"":9.5,""saturdayClose"":""17:00"",""saturdayCloseHour"":17.0,""sundayOpen"":""9:30"",""sundayOpenHour"":9.5,""sundayClose"":""17:00"",""sundayCloseHour"":17.0}	{""weeklyClosingDays"":[],""monthlyClosingDayOfWeeks"":[],""yearlyClosingDays"":[]}	-1	8000	[]	10.0	2.0	0.666666667	http://place.map.daum.net/8085765	
daum.24839193	국수바다 본점	33.25855421	126.4059692		음식점	한식	국수	대한민국	제주특별자치도	서귀포시	색달동 2130 	{""weekDayOpenHour"":0.0,""weekDayCloseHour"":0.0,""saturdayOpenHour"":0.0,""saturdayCloseHour"":0.0,""sundayOpenHour"":0.0,""sundayCloseHour"":0.0}	{""weeklyClosingDays"":[],""monthlyClosingDayOfWeeks"":[],""yearlyClosingDays"":[""둘째"",""넷째 목요일""]}	-1	-1	[]	10.0	0.5	0.1	http://place.map.daum.net/24839193	
daum.13581556	주상절리회국수	33.23858705	126.4310735		음식점	한식	국수	대한민국	제주특별자치도	서귀포시	대포동 2536 	{""weekDayOpenHour"":0.0,""weekDayCloseHour"":0.0,""saturdayOpenHour"":0.0,""saturdayCloseHour"":0.0,""sundayOpenHour"":0.0,""sundayCloseHour"":0.0}	{""weeklyClosingDays"":[],""monthlyClosingDayOfWeeks"":[],""yearlyClosingDays"":[]}	-1	-1	[]	8.5	0.5	0.1	http://place.map.daum.net/13581556	
daum.8258838	덤장 중문점	33.25773504	126.408134		음식점	한식	해물/생선	대한민국	제주특별자치도	서귀포시	색달동 2119 	{""weekDayOpenHour"":0.0,""weekDayCloseHour"":0.0,""saturdayOpenHour"":0.0,""saturdayCloseHour"":0.0,""sundayOpenHour"":0.0,""sundayCloseHour"":0.0}	{""weeklyClosingDays"":[],""monthlyClosingDayOfWeeks"":[],""yearlyClosingDays"":[]}	-1	-1	[]	5.4	0.5	0.1	http://place.map.daum.net/8258838	
daum.7996275	알뜨르비행장	33.20469817	126.2715318		여행	관광,명소	역사유적	대한민국	제주특별자치도	서귀포시	대정읍 상모리 	{""weekDayOpen"":""7:30"",""weekDayOpenHour"":7.5,""weekDayClose"":""18:00"",""weekDayCloseHour"":18.0,""saturdayOpen"":""7:30"",""saturdayOpenHour"":7.5,""saturdayClose"":""18:00"",""saturdayCloseHour"":18.0,""sundayOpen"":""7:30"",""sundayOpenHour"":7.5,""sundayClose"":""18:00"",""sundayCloseHour"":18.0}	{""weeklyClosingDays"":[],""monthlyClosingDayOfWeeks"":[],""yearlyClosingDays"":[]}	-1	0	[]	0.0	0.333333333	0.083333333	http://place.map.daum.net/7996275	
daum.26300269	부농	33.48273196	126.7464244		음식점	한식		대한민국	제주특별자치도	제주시	구좌읍 덕천리 1176 	{""weekDayOpenHour"":0.0,""weekDayCloseHour"":0.0,""saturdayOpenHour"":0.0,""saturdayCloseHour"":0.0,""sundayOpenHour"":0.0,""sundayCloseHour"":0.0}	{""weeklyClosingDays"":[],""monthlyClosingDayOfWeeks"":[],""yearlyClosingDays"":[]}	-1	-1	[]	2.0	0.5	0.1	http://place.map.daum.net/26300269	
daum.27344111	우도해녀식당	33.51442515	126.9488091		음식점	한식	해물/생선	대한민국	제주특별자치도	제주시	우도면 연평리 2308-3 	{""weekDayOpenHour"":0.0,""weekDayCloseHour"":0.0,""saturdayOpenHour"":0.0,""saturdayCloseHour"":0.0,""sundayOpenHour"":0.0,""sundayCloseHour"":0.0}	{""weeklyClosingDays"":[],""monthlyClosingDayOfWeeks"":[],""yearlyClosingDays"":[]}	-1	-1	[]	0.0	0.5	0.1	http://place.map.daum.net/27344111	
daum.12689865	성산포바다향	33.47007539	126.9306887		여행	숙박	펜션	대한민국	제주특별자치도	서귀포시	성산읍 성산리 358-3 	{""weekDayOpen"":""08:00"",""weekDayOpenHour"":8.0,""weekDayClose"":""22:00"",""weekDayCloseHour"":22.0,""saturdayOpenHour"":0.0,""saturdayCloseHour"":0.0,""sundayOpenHour"":0.0,""sundayCloseHour"":0.0}	{""weeklyClosingDays"":[],""monthlyClosingDayOfWeeks"":[],""yearlyClosingDays"":[]}	-1	-1	[]	1.8	0.5	0.1	http://place.map.daum.net/12689865	
daum.26557875	물꼬해녀의집	33.51870277	126.9498399		음식점	양식	해산물	대한민국	제주특별자치도	제주시	우도면 연평리 891 	{""weekDayOpenHour"":0.0,""weekDayCloseHour"":0.0,""saturdayOpenHour"":0.0,""saturdayCloseHour"":0.0,""sundayOpenHour"":0.0,""sundayCloseHour"":0.0}	{""weeklyClosingDays"":[],""monthlyClosingDayOfWeeks"":[],""yearlyClosingDays"":[]}	-1	-1	[]	0.0	0.5	0.1	http://place.map.daum.net/26557875	
daum.7972099	신설오름	33.50541185	126.5415658		음식점	한식		대한민국	제주특별자치도	제주시	일도2동 409-5 	{""weekDayOpenHour"":0.0,""weekDayCloseHour"":0.0,""saturdayOpenHour"":0.0,""saturdayCloseHour"":0.0,""sundayOpenHour"":0.0,""sundayCloseHour"":0.0}	{""weeklyClosingDays"":[],""monthlyClosingDayOfWeeks"":[],""yearlyClosingDays"":[]}	-1	-1	[]	8.4	0.5	0.1	http://place.map.daum.net/7972099	
daum.16841033	홍성방	33.220171	126.2516618		음식점	중식	중화요리	대한민국	제주특별자치도	서귀포시	대정읍 하모리 938-4 	{""weekDayOpenHour"":0.0,""weekDayCloseHour"":0.0,""saturdayOpenHour"":0.0,""saturdayCloseHour"":0.0,""sundayOpenHour"":0.0,""sundayCloseHour"":0.0}	{""weeklyClosingDays"":[],""monthlyClosingDayOfWeeks"":[],""yearlyClosingDays"":[]}	-1	-1	[]	5.5	0.5	0.1	http://place.map.daum.net/16841033	
daum.21499653	은희네소고기해장국 본점	33.50852825	126.5407271		음식점	한식	해장국	대한민국	제주특별자치도	제주시	일도2동 357-4 	{""weekDayOpen"":""06:00"",""weekDayOpenHour"":6.0,""weekDayClose"":""15:00"",""weekDayCloseHour"":15.0,""saturdayOpen"":""06:00"",""saturdayOpenHour"":6.0,""saturdayClose"":""15:00"",""saturdayCloseHour"":15.0,""sundayOpen"":""06:00"",""sundayOpenHour"":6.0,""sundayClose"":""15:00"",""sundayCloseHour"":15.0}	{""weeklyClosingDays"":[],""monthlyClosingDayOfWeeks"":[],""yearlyClosingDays"":[""격주 목요일""]}	-1	-1	[]	9.2	0.5	0.1	http://place.map.daum.net/21499653	
daum.8166457	협재해변	33.39438113	126.2402279		여행	관광,명소	해수욕장/해변	대한민국	제주특별자치도	제주시	한림읍 협재리 2497-1 	{""weekDayOpen"":""8:00"",""weekDayOpenHour"":8.0,""weekDayClose"":""19:00"",""weekDayCloseHour"":19.0,""saturdayOpen"":""8:00"",""saturdayOpenHour"":8.0,""saturdayClose"":""19:00"",""saturdayCloseHour"":19.0,""sundayOpen"":""8:00"",""sundayOpenHour"":8.0,""sundayClose"":""19:00"",""sundayCloseHour"":19.0}	{""weeklyClosingDays"":[],""monthlyClosingDayOfWeeks"":[],""yearlyClosingDays"":[]}	-1	0	[]	9.1	0.5	0.166666667	http://place.map.daum.net/8166457	
daum.10793668	대포주상절리	33.23837534	126.4258132		여행	관광,명소	자연경관	대한민국	제주특별자치도	서귀포시	중문동 2767 	{""weekDayOpen"":""8:00"",""weekDayOpenHour"":8.0,""weekDayClose"":""18:00"",""weekDayCloseHour"":18.0,""saturdayOpen"":""8:00"",""saturdayOpenHour"":8.0,""saturdayClose"":""18:00"",""saturdayCloseHour"":18.0,""sundayOpen"":""8:00"",""sundayOpenHour"":8.0,""sundayClose"":""18:00"",""sundayCloseHour"":18.0}	{""weeklyClosingDays"":[],""monthlyClosingDayOfWeeks"":[],""yearlyClosingDays"":[]}	-1	3000	[]	8.0	0.666666667	0.25	http://place.map.daum.net/10793668	
daum.20307028	제주마당	33.48638675	126.484299		음식점	한식	해물/생선	대한민국	제주특별자치도	제주시	노형동 914-2 	{""weekDayOpen"":""08:30"",""weekDayOpenHour"":8.5,""weekDayClose"":""22:00"",""weekDayCloseHour"":22.0,""saturdayOpen"":""08:30"",""saturdayOpenHour"":8.5,""saturdayClose"":""22:00"",""saturdayCloseHour"":22.0,""sundayOpen"":""08:30"",""sundayOpenHour"":8.5,""sundayClose"":""22:00"",""sundayCloseHour"":22.0}	{""weeklyClosingDays"":[],""monthlyClosingDayOfWeeks"":[],""yearlyClosingDays"":[]}	-1	-1	[]	9.0	0.5	0.1	http://place.map.daum.net/20307028	
daum.18927747	바다어사또	33.543072816127214	126.66404062454194		음식점	한식	해물,생선	대한민국	제주특별자치도	제주시	조천읍 함덕리 1252-43 	{""weekDayOpenHour"":0.0,""weekDayCloseHour"":0.0,""saturdayOpenHour"":0.0,""saturdayCloseHour"":0.0,""sundayOpenHour"":0.0,""sundayCloseHour"":0.0}	{""weeklyClosingDays"":[],""monthlyClosingDayOfWeeks"":[],""yearlyClosingDays"":[]}	-1	-1	[]	8.0	0.5	0.1	http://place.map.daum.net/18927747	
daum.11330871	소인국테마파크	33.29075168	126.3225543		여행	관광,명소	테마파크	대한민국	제주특별자치도	서귀포시	안덕면 서광리 725 	{""weekDayOpen"":""8:30"",""weekDayOpenHour"":8.5,""weekDayClose"":""17:30"",""weekDayCloseHour"":17.5,""saturdayOpen"":""8:30"",""saturdayOpenHour"":8.5,""saturdayClose"":""17:30"",""saturdayCloseHour"":17.5,""sundayOpen"":""8:30"",""sundayOpenHour"":8.5,""sundayClose"":""17:30"",""sundayCloseHour"":17.5}	{""weeklyClosingDays"":[],""monthlyClosingDayOfWeeks"":[],""yearlyClosingDays"":[]}	-1	9000	[]	7.1	0.833333333	0.166666667	http://place.map.daum.net/11330871	
daum.11820185	왕돌이숯불갈비	33.53685573924431	126.6397719633412		음식점	한식	육류,고기	대한민국	제주특별자치도	제주시	조천읍 조천리 2337-2 	{""weekDayOpenHour"":0.0,""weekDayCloseHour"":0.0,""saturdayOpenHour"":0.0,""saturdayCloseHour"":0.0,""sundayOpenHour"":0.0,""sundayCloseHour"":0.0}	{""weeklyClosingDays"":[],""monthlyClosingDayOfWeeks"":[],""yearlyClosingDays"":[]}	-1	-1	[]	8.2	0.5	0.1	http://place.map.daum.net/11820185	
daum.14076470	강정해녀의집	33.22755917	126.4747219		음식점	한식	해물/생선	대한민국	제주특별자치도	서귀포시	강정동 4964 	{""weekDayOpenHour"":0.0,""weekDayCloseHour"":0.0,""saturdayOpenHour"":0.0,""saturdayCloseHour"":0.0,""sundayOpenHour"":0.0,""sundayCloseHour"":0.0}	{""weeklyClosingDays"":[],""monthlyClosingDayOfWeeks"":[],""yearlyClosingDays"":[]}	-1	-1	[]	0.0	0.5	0.1	http://place.map.daum.net/14076470	
daum.17346832	호텔W 신제주점	33.48654548	126.491292		여행	숙박	호텔	대한민국	제주특별자치도	제주시	연동 273-36 	{""weekDayOpenHour"":0.0,""weekDayCloseHour"":0.0,""saturdayOpenHour"":0.0,""saturdayCloseHour"":0.0,""sundayOpenHour"":0.0,""sundayCloseHour"":0.0}	{""weeklyClosingDays"":[],""monthlyClosingDayOfWeeks"":[],""yearlyClosingDays"":[]}	-1	-1	[]	10.0	1.0	0.0256	http://place.map.daum.net/17346832	
daum.20733624	바다속고등어쌈밥	33.4842476	126.4067873		음식점	한식	쌈밥	대한민국	제주특별자치도	제주시	애월읍 하귀1리 1548 	{""weekDayOpenHour"":0.0,""weekDayCloseHour"":0.0,""saturdayOpenHour"":0.0,""saturdayCloseHour"":0.0,""sundayOpenHour"":0.0,""sundayCloseHour"":0.0}	{""weeklyClosingDays"":[],""monthlyClosingDayOfWeeks"":[],""yearlyClosingDays"":[]}	-1	-1	[]	0.0	0.5	0.1	http://place.map.daum.net/20733624	
daum.17600341	제주해녀박물관	33.52358922	126.8634192		문화,예술	문화시설	미술관/박물관	대한민국	제주특별자치도	제주시	구좌읍 하도리 3204-1 	{""weekDayOpen"":""9:00"",""weekDayOpenHour"":9.0,""weekDayClose"":""18:00"",""weekDayCloseHour"":18.0,""saturdayOpen"":""9:00"",""saturdayOpenHour"":9.0,""saturdayClose"":""18:00"",""saturdayCloseHour"":18.0,""sundayOpen"":""9:00"",""sundayOpenHour"":9.0,""sundayClose"":""18:00"",""sundayCloseHour"":18.0}	{""weeklyClosingDays"":[""Monday""],""monthlyClosingDayOfWeeks"":[],""yearlyClosingDays"":[""매월 첫째,셋째 월요일""]}	-1	1100	[]	0.0	0.833333333	0.166666667	http://place.map.daum.net/17600341	
daum.8379101	성산포뚝배기	33.46011112	126.931256		음식점	한식	해물/생선	대한민국	제주특별자치도	서귀포시	성산읍 성산리 399-12 	{""weekDayOpenHour"":0.0,""weekDayCloseHour"":0.0,""saturdayOpenHour"":0.0,""saturdayCloseHour"":0.0,""sundayOpenHour"":0.0,""sundayCloseHour"":0.0}	{""weeklyClosingDays"":[],""monthlyClosingDayOfWeeks"":[],""yearlyClosingDays"":[]}	-1	-1	[]	5.8	0.5	0.1	http://place.map.daum.net/8379101	
daum.27294594	라온호텔앤리조트	33.37848186	126.2404177		여행	숙박	콘도,리조트	대한민국	제주특별자치도	제주시	한림읍 협재리 2838 라온프라이빗타운 	{""weekDayOpenHour"":0.0,""weekDayCloseHour"":0.0,""saturdayOpenHour"":0.0,""saturdayCloseHour"":0.0,""sundayOpenHour"":0.0,""sundayCloseHour"":0.0}	{""weeklyClosingDays"":[],""monthlyClosingDayOfWeeks"":[],""yearlyClosingDays"":[]}	-1	75000	[]	0.0	0.5	0.1	http://place.map.daum.net/27294594	
daum.17796669	어멍가든	33.54138033	126.6717001		음식점	한식	육류/고기	대한민국	제주특별자치도	제주시	조천읍 함덕리 274 대명리조트 제주 	{""weekDayOpen"":""13:00"",""weekDayOpenHour"":13.0,""weekDayClose"":""22:00"",""weekDayCloseHour"":22.0,""saturdayOpen"":""13:00"",""saturdayOpenHour"":13.0,""saturdayClose"":""22:00"",""saturdayCloseHour"":22.0,""sundayOpen"":""13:00"",""sundayOpenHour"":13.0,""sundayClose"":""22:00"",""sundayCloseHour"":22.0}	{""weeklyClosingDays"":[],""monthlyClosingDayOfWeeks"":[],""yearlyClosingDays"":[]}	-1	-1	[]	8.1	0.5	0.1	http://place.map.daum.net/17796669	
daum.13337730	경미휴게소	33.46122308	126.9334108		음식점	한식	해물/생선	대한민국	제주특별자치도	서귀포시	성산읍 성산리 145-4 	{""weekDayOpenHour"":0.0,""weekDayCloseHour"":0.0,""saturdayOpenHour"":0.0,""saturdayCloseHour"":0.0,""sundayOpenHour"":0.0,""sundayCloseHour"":0.0}	{""weeklyClosingDays"":[],""monthlyClosingDayOfWeeks"":[],""yearlyClosingDays"":[]}	-1	-1	[]	3.3	1.0	0.0256	http://place.map.daum.net/13337730	
daum.10329867	모슬포항	33.21558504	126.2501047		교통,수송	교통시설	항구,포구	대한민국	제주특별자치도	서귀포시	대정읍 하모항구로 	{""weekDayOpenHour"":0.0,""weekDayCloseHour"":0.0,""saturdayOpenHour"":0.0,""saturdayCloseHour"":0.0,""sundayOpenHour"":0.0,""sundayCloseHour"":0.0}	{""weeklyClosingDays"":[],""monthlyClosingDayOfWeeks"":[],""yearlyClosingDays"":[]}	-1	-1	[]	0.0	1.0	0.0256	http://place.map.daum.net/10329867	
daum.7918354	산방굴사	33.23794778	126.3130181		문화,예술	종교	불교	대한민국	제주특별자치도	서귀포시	안덕면 사계리 산16 	{""weekDayOpenHour"":0.0,""weekDayCloseHour"":0.0,""saturdayOpenHour"":0.0,""saturdayCloseHour"":0.0,""sundayOpenHour"":0.0,""sundayCloseHour"":0.0}	{""weeklyClosingDays"":[],""monthlyClosingDayOfWeeks"":[],""yearlyClosingDays"":[]}	-1	-1	[]	0.0	1.0	0.0256	http://place.map.daum.net/7918354	
daum.19157131	해녀촌	33.55365442	126.7098939		음식점	한식	해물/생선	대한민국	제주특별자치도	제주시	구좌읍 동복리 1502-1 	{""weekDayOpenHour"":0.0,""weekDayCloseHour"":0.0,""saturdayOpenHour"":0.0,""saturdayCloseHour"":0.0,""sundayOpenHour"":0.0,""sundayCloseHour"":0.0}	{""weeklyClosingDays"":[],""monthlyClosingDayOfWeeks"":[],""yearlyClosingDays"":[]}	-1	-1	[]	7.8	0.5	0.1	http://place.map.daum.net/19157131	
daum.11427241	한림항	33.41467846	126.255829		교통,수송	교통시설	항구,포구	대한민국	제주특별자치도	제주시	한림읍 한림리 	{""weekDayOpenHour"":0.0,""weekDayCloseHour"":0.0,""saturdayOpenHour"":0.0,""saturdayCloseHour"":0.0,""sundayOpenHour"":0.0,""sundayCloseHour"":0.0}	{""weeklyClosingDays"":[],""monthlyClosingDayOfWeeks"":[],""yearlyClosingDays"":[]}	-1	-1	[]	0.0	0.5	0.1	http://place.map.daum.net/11427241	
daum.8375194	서귀포자연휴양림	33.31229131	126.464872		여행	관광,명소	휴양림/숲길걷기	대한민국	제주특별자치도	서귀포시	대포동 산1-8 	{""weekDayOpen"":""7:30"",""weekDayOpenHour"":7.5,""weekDayClose"":""18:00"",""weekDayCloseHour"":18.0,""saturdayOpen"":""7:30"",""saturdayOpenHour"":7.5,""saturdayClose"":""18:00"",""saturdayCloseHour"":18.0,""sundayOpen"":""7:30"",""sundayOpenHour"":7.5,""sundayClose"":""18:00"",""sundayCloseHour"":18.0}	{""weeklyClosingDays"":[],""monthlyClosingDayOfWeeks"":[],""yearlyClosingDays"":[]}	-1	2000	[]	10.0	1.0	0.5	http://place.map.daum.net/8375194	
daum.7916369	사라봉	33.51793874	126.5450389		여행	관광,명소	산봉우리/등산로	대한민국	제주특별자치도	제주시	건입동 387-1 	{""weekDayOpen"":""7:30"",""weekDayOpenHour"":7.5,""weekDayClose"":""18:00"",""weekDayCloseHour"":18.0,""saturdayOpen"":""7:30"",""saturdayOpenHour"":7.5,""saturdayClose"":""18:00"",""saturdayCloseHour"":18.0,""sundayOpen"":""7:30"",""sundayOpenHour"":7.5,""sundayClose"":""18:00"",""sundayCloseHour"":18.0}	{""weeklyClosingDays"":[],""monthlyClosingDayOfWeeks"":[],""yearlyClosingDays"":[]}	-1	0	[]	0.0	1.0	0.166666667	http://place.map.daum.net/7916369	
daum.7923901	삼성혈	33.50442977	126.5287641		여행	관광,명소	역사유적	대한민국	제주특별자치도	제주시	이도1동 1313 	{""weekDayOpen"":""8:30"",""weekDayOpenHour"":8.5,""weekDayClose"":""17:30"",""weekDayCloseHour"":17.5,""saturdayOpen"":""8:30"",""saturdayOpenHour"":8.5,""saturdayClose"":""17:30"",""saturdayCloseHour"":17.5,""sundayOpen"":""8:30"",""sundayOpenHour"":8.5,""sundayClose"":""17:30"",""sundayCloseHour"":17.5}	{""weeklyClosingDays"":[],""monthlyClosingDayOfWeeks"":[],""yearlyClosingDays"":[]}	-1	1000	[]	1.0	0.5	0.166666667	http://place.map.daum.net/7923901	
daum.20303776	넥슨컴퓨터박물관	33.47175131	126.4849796		문화,예술	문화시설	미술관/박물관	대한민국	제주특별자치도	제주시	노형동 86 	{""weekDayOpen"":""10:00"",""weekDayOpenHour"":10.0,""weekDayClose"":""18:00"",""weekDayCloseHour"":18.0,""saturdayOpen"":""10:00"",""saturdayOpenHour"":10.0,""saturdayClose"":""18:00"",""saturdayCloseHour"":18.0,""sundayOpen"":""10:00"",""sundayOpenHour"":10.0,""sundayClose"":""18:00"",""sundayCloseHour"":18.0}	{""weeklyClosingDays"":[""Monday""],""monthlyClosingDayOfWeeks"":[],""yearlyClosingDays"":[""추석 당일"",""설날 및 추석연휴""]}	-1	8000	[]	0.0	1.0	0.166666667	http://place.map.daum.net/20303776	
daum.20034726	성산바다	33.43585357	126.9130798		음식점	한식	해물/생선	대한민국	제주특별자치도	서귀포시	성산읍 고성리 864-1 	{""weekDayOpenHour"":0.0,""weekDayCloseHour"":0.0,""saturdayOpenHour"":0.0,""saturdayCloseHour"":0.0,""sundayOpenHour"":0.0,""sundayCloseHour"":0.0}	{""weeklyClosingDays"":[],""monthlyClosingDayOfWeeks"":[],""yearlyClosingDays"":[]}	-1	-1	[]	10.0	0.5	0.1	http://place.map.daum.net/20034726	
daum.8970084	맛나식당	33.44860804	126.9160743		음식점	한식	육류/고기	대한민국	제주특별자치도	서귀포시	성산읍 고성리 316 	{""weekDayOpenHour"":0.0,""weekDayCloseHour"":0.0,""saturdayOpenHour"":0.0,""saturdayCloseHour"":0.0,""sundayOpenHour"":0.0,""sundayCloseHour"":0.0}	{""weeklyClosingDays"":[],""monthlyClosingDayOfWeeks"":[],""yearlyClosingDays"":[]}	-1	-1	[]	9.0	0.5	0.1	http://place.map.daum.net/8970084	
daum.8671789	관덕정	33.51334915	126.5214571		여행	관광,명소	역사유적	대한민국	제주특별자치도	제주시	삼도2동 983-1 	{""weekDayOpen"":""9:00"",""weekDayOpenHour"":9.0,""weekDayClose"":""18:00"",""weekDayCloseHour"":18.0,""saturdayOpen"":""9:00"",""saturdayOpenHour"":9.0,""saturdayClose"":""18:00"",""saturdayCloseHour"":18.0,""sundayOpen"":""9:00"",""sundayOpenHour"":9.0,""sundayClose"":""18:00"",""sundayCloseHour"":18.0}	{""weeklyClosingDays"":[],""monthlyClosingDayOfWeeks"":[],""yearlyClosingDays"":[]}	-1	1500	[]	0.0	0.5	0.166666667	http://place.map.daum.net/8671789	
daum.9368523	자매국수	33.50809299	126.5323476		음식점	한식	국수	대한민국	제주특별자치도	제주시	일도2동 1034-10 	{""weekDayOpenHour"":0.0,""weekDayCloseHour"":0.0,""saturdayOpenHour"":0.0,""saturdayCloseHour"":0.0,""sundayOpenHour"":0.0,""sundayCloseHour"":0.0}	{""weeklyClosingDays"":[],""monthlyClosingDayOfWeeks"":[],""yearlyClosingDays"":[]}	-1	-1	[]	6.5	0.5	0.1	http://place.map.daum.net/9368523	
daum.7987511	안덕계곡	33.25723098	126.3525738		여행	관광,명소	폭포/계곡	대한민국	제주특별자치도	서귀포시	안덕면 감산리 345 	{""weekDayOpen"":""7:30"",""weekDayOpenHour"":7.5,""weekDayClose"":""18:00"",""weekDayCloseHour"":18.0,""saturdayOpen"":""7:30"",""saturdayOpenHour"":7.5,""saturdayClose"":""18:00"",""saturdayCloseHour"":18.0,""sundayOpen"":""7:30"",""sundayOpenHour"":7.5,""sundayClose"":""18:00"",""sundayCloseHour"":18.0}	{""weeklyClosingDays"":[],""monthlyClosingDayOfWeeks"":[],""yearlyClosingDays"":[]}	-1	0	[]	8.0	0.5	0.166666667	http://place.map.daum.net/7987511	
daum.12501794	성읍민속마을	33.38700667	126.799981		여행	관광,명소	테마파크	대한민국	제주특별자치도	서귀포시	표선면 성읍리 987 	{""weekDayOpen"":""9:00"",""weekDayOpenHour"":9.0,""weekDayClose"":""18:00"",""weekDayCloseHour"":18.0,""saturdayOpen"":""9:00"",""saturdayOpenHour"":9.0,""saturdayClose"":""18:00"",""saturdayCloseHour"":18.0,""sundayOpen"":""9:00"",""sundayOpenHour"":9.0,""sundayClose"":""18:00"",""sundayCloseHour"":18.0}	{""weeklyClosingDays"":[],""monthlyClosingDayOfWeeks"":[],""yearlyClosingDays"":[]}	-1	0	[]	1.3	0.583333333	0.166666667	http://place.map.daum.net/12501794	
daum.11192276	영실기암	33.35662141	126.5020538		여행	관광,명소	오름	대한민국	제주특별자치도	서귀포시	중문동	{""weekDayOpenHour"":0.0,""weekDayCloseHour"":0.0,""saturdayOpenHour"":0.0,""saturdayCloseHour"":0.0,""sundayOpenHour"":0.0,""sundayCloseHour"":0.0}	{""weeklyClosingDays"":[],""monthlyClosingDayOfWeeks"":[],""yearlyClosingDays"":[]}	-1	-1	[]	0.0	1.0	0.0256	http://place.map.daum.net/11192276	
daum.11547525	우진해장국	33.51151871	126.5200034		음식점	한식	해장국	대한민국	제주특별자치도	제주시	삼도2동 831 	{""weekDayOpen"":""00:00"",""weekDayOpenHour"":0.0,""weekDayClose"":""23:59"",""weekDayCloseHour"":23.983333333333334,""saturdayOpenHour"":0.0,""saturdayCloseHour"":0.0,""sundayOpenHour"":0.0,""sundayCloseHour"":0.0}	{""weeklyClosingDays"":[],""monthlyClosingDayOfWeeks"":[],""yearlyClosingDays"":[""명절""]}	-1	-1	[]	7.0	0.5	0.1	http://place.map.daum.net/11547525	
daum.8069764	중문색달해변	33.24508862	126.411494		여행	관광,명소	해수욕장/해변	대한민국	제주특별자치도	서귀포시	색달동 2950-3 	{""weekDayOpen"":""7:30"",""weekDayOpenHour"":7.5,""weekDayClose"":""20:00"",""weekDayCloseHour"":20.0,""saturdayOpen"":""7:30"",""saturdayOpenHour"":7.5,""saturdayClose"":""20:00"",""saturdayCloseHour"":20.0,""sundayOpen"":""7:30"",""sundayOpenHour"":7.5,""sundayClose"":""20:00"",""sundayCloseHour"":20.0}	{""weeklyClosingDays"":[],""monthlyClosingDayOfWeeks"":[],""yearlyClosingDays"":[]}	-1	1000	[]	9.4	0.5	0.166666667	http://place.map.daum.net/8069764	
daum.9733194	네거리식당	33.24849976	126.5595613		음식점	한식	한정식	대한민국	제주특별자치도	서귀포시	서귀동 310-40 	{""weekDayOpenHour"":0.0,""weekDayCloseHour"":0.0,""saturdayOpenHour"":0.0,""saturdayCloseHour"":0.0,""sundayOpenHour"":0.0,""sundayCloseHour"":0.0}	{""weeklyClosingDays"":[],""monthlyClosingDayOfWeeks"":[],""yearlyClosingDays"":[]}	-1	-1	[]	6.5	0.5	0.1	http://place.map.daum.net/9733194	
daum.8182461	제주관음사	33.42375979	126.5585451		여행	관광,명소	종교시설	대한민국	제주특별자치도	제주시	아라1동 387 	{""weekDayOpen"":""7:30"",""weekDayOpenHour"":7.5,""weekDayClose"":""18:00"",""weekDayCloseHour"":18.0,""saturdayOpen"":""7:30"",""saturdayOpenHour"":7.5,""saturdayClose"":""18:00"",""saturdayCloseHour"":18.0,""sundayOpen"":""7:30"",""sundayOpenHour"":7.5,""sundayClose"":""18:00"",""sundayCloseHour"":18.0}	{""weeklyClosingDays"":[],""monthlyClosingDayOfWeeks"":[],""yearlyClosingDays"":[]}	-1	0	[]	10.0	1.0	0.166666667	http://place.map.daum.net/8182461	
daum.7920396	비양도	33.41027771	126.2273484		여행	관광,명소	섬	대한민국	제주특별자치도	제주시	한림읍 협재리 	{""weekDayOpen"":""9:00"",""weekDayOpenHour"":9.0,""weekDayClose"":""15:00"",""weekDayCloseHour"":15.0,""saturdayOpen"":""9:00"",""saturdayOpenHour"":9.0,""saturdayClose"":""15:00"",""saturdayCloseHour"":15.0,""sundayOpen"":""9:00"",""sundayOpenHour"":9.0,""sundayClose"":""15:00"",""sundayCloseHour"":15.0}	{""weeklyClosingDays"":[],""monthlyClosingDayOfWeeks"":[],""yearlyClosingDays"":[]}	-1	2000	[]	9.0	4.0	0.5	http://place.map.daum.net/7920396	
daum.10808261	제주국제공항	33.50707896	126.492769		교통,수송	교통시설	공항	대한민국	제주특별자치도	제주시	용담2동 2002 	{""weekDayOpenHour"":0.0,""weekDayCloseHour"":0.0,""saturdayOpenHour"":0.0,""saturdayCloseHour"":0.0,""sundayOpenHour"":0.0,""sundayCloseHour"":0.0}	{""weeklyClosingDays"":[],""monthlyClosingDayOfWeeks"":[],""yearlyClosingDays"":[]}	-1	-1	[]	7.9	1.0	0.0256	http://place.map.daum.net/10808261	
daum.17583646	박물관은살아있다 제주중문점	33.25492848	126.408741		문화,예술	문화시설	미술관/박물관	대한민국	제주특별자치도	서귀포시	색달동 2629 	{""weekDayOpen"":""9:00"",""weekDayOpenHour"":9.0,""weekDayClose"":""21:30"",""weekDayCloseHour"":21.5,""saturdayOpen"":""9:00"",""saturdayOpenHour"":9.0,""saturdayClose"":""21:30"",""saturdayCloseHour"":21.5,""sundayOpen"":""9:00"",""sundayOpenHour"":9.0,""sundayClose"":""21:30"",""sundayCloseHour"":21.5}	{""weeklyClosingDays"":[],""monthlyClosingDayOfWeeks"":[],""yearlyClosingDays"":[]}	-1	10000	[]	9.8	1.833333333	0.333333333	http://place.map.daum.net/17583646	
daum.8067359	제주절물자연휴양림	33.43915259	126.6280113		여행	관광,명소	휴양림/숲길걷기	대한민국	제주특별자치도	제주시	봉개동 산78-1 	{""weekDayOpen"":""8:00"",""weekDayOpenHour"":8.0,""weekDayClose"":""18:00"",""weekDayCloseHour"":18.0,""saturdayOpen"":""8:00"",""saturdayOpenHour"":8.0,""saturdayClose"":""18:00"",""saturdayCloseHour"":18.0,""sundayOpen"":""8:00"",""sundayOpenHour"":8.0,""sundayClose"":""18:00"",""sundayCloseHour"":18.0}	{""weeklyClosingDays"":[""Tuesday""],""monthlyClosingDayOfWeeks"":[],""yearlyClosingDays"":[]}	-1	1000	[]	9.4	1.0	0.166666667	http://place.map.daum.net/8067359	
daum.21295286	국수마당 본점	33.50807077	126.5321927		음식점	한식	국수	대한민국	제주특별자치도	제주시	일도2동 1034-19 	{""weekDayOpenHour"":0.0,""weekDayCloseHour"":0.0,""saturdayOpenHour"":0.0,""saturdayCloseHour"":0.0,""sundayOpenHour"":0.0,""sundayCloseHour"":0.0}	{""weeklyClosingDays"":[],""monthlyClosingDayOfWeeks"":[],""yearlyClosingDays"":[]}	-1	-1	[]	8.5	0.5	0.1	http://place.map.daum.net/21295286	
daum.19316749	춘심이네 본점	33.26479308	126.3707116		음식점	한식	해물/생선	대한민국	제주특별자치도	서귀포시	안덕면 창천리 160-3 	{""weekDayOpen"":""10:00"",""weekDayOpenHour"":10.0,""weekDayClose"":""21:30"",""weekDayCloseHour"":21.5,""saturdayOpen"":""10:00"",""saturdayOpenHour"":10.0,""saturdayClose"":""21:30"",""saturdayCloseHour"":21.5,""sundayOpen"":""10:00"",""sundayOpenHour"":10.0,""sundayClose"":""21:30"",""sundayCloseHour"":21.5}	{""weeklyClosingDays"":[],""monthlyClosingDayOfWeeks"":[],""yearlyClosingDays"":[]}	-1	-1	[]	5.9	0.5	0.1	http://place.map.daum.net/19316749	
daum.12640510	삼무국수	33.49056164	126.4909672		음식점	한식	국수	대한민국	제주특별자치도	제주시	연동 271-10 	{""weekDayOpenHour"":0.0,""weekDayCloseHour"":0.0,""saturdayOpenHour"":0.0,""saturdayCloseHour"":0.0,""sundayOpenHour"":0.0,""sundayCloseHour"":0.0}	{""weeklyClosingDays"":[],""monthlyClosingDayOfWeeks"":[],""yearlyClosingDays"":[]}	-1	-1	[]	9.9	0.5	0.1	http://place.map.daum.net/12640510	
daum.17809788	색달식당	33.25759804	126.4134707		음식점	한식	해물/생선	대한민국	제주특별자치도	서귀포시	색달동 2276-5 	{""weekDayOpenHour"":0.0,""weekDayCloseHour"":0.0,""saturdayOpenHour"":0.0,""saturdayCloseHour"":0.0,""sundayOpenHour"":0.0,""sundayCloseHour"":0.0}	{""weeklyClosingDays"":[],""monthlyClosingDayOfWeeks"":[],""yearlyClosingDays"":[]}	-1	-1	[]	7.9	0.5	0.1	http://place.map.daum.net/17809788	
daum.11140788	새섬	33.23654516	126.5618959		여행	관광,명소	자연경관	대한민국	제주특별자치도	서귀포시	서귀동 1 	{""weekDayOpen"":""7:30"",""weekDayOpenHour"":7.5,""weekDayClose"":""23:50"",""weekDayCloseHour"":23.833333333333332,""saturdayOpen"":""7:30"",""saturdayOpenHour"":7.5,""saturdayClose"":""23:50"",""saturdayCloseHour"":23.833333333333332,""sundayOpen"":""7:30"",""sundayOpenHour"":7.5,""sundayClose"":""23:50"",""sundayCloseHour"":23.833333333333332}	{""weeklyClosingDays"":[],""monthlyClosingDayOfWeeks"":[],""yearlyClosingDays"":[]}	-1	0	[]	9.0	0.333333333	0.166666667	http://place.map.daum.net/11140788	
daum.11188530	용연횟집	33.51651276	126.5151796		음식점	한식	해물/생선	대한민국	제주특별자치도	제주시	용담1동 408 	{""weekDayOpenHour"":0.0,""weekDayCloseHour"":0.0,""saturdayOpenHour"":0.0,""saturdayCloseHour"":0.0,""sundayOpenHour"":0.0,""sundayCloseHour"":0.0}	{""weeklyClosingDays"":[],""monthlyClosingDayOfWeeks"":[],""yearlyClosingDays"":[]}	-1	-1	[]	8.2	0.5	0.1	http://place.map.daum.net/11188530	
daum.25294439	수월봉	33.2946169	126.1631723		여행	관광,명소	산봉우리/등산로	대한민국	제주특별자치도	제주시	한경면 고산리 3763 	{""weekDayOpen"":""7:30"",""weekDayOpenHour"":7.5,""weekDayClose"":""18:00"",""weekDayCloseHour"":18.0,""saturdayOpen"":""7:30"",""saturdayOpenHour"":7.5,""saturdayClose"":""18:00"",""saturdayCloseHour"":18.0,""sundayOpen"":""7:30"",""sundayOpenHour"":7.5,""sundayClose"":""18:00"",""sundayCloseHour"":18.0}	{""weeklyClosingDays"":[],""monthlyClosingDayOfWeeks"":[],""yearlyClosingDays"":[]}	-1	0	[]	8.0	1.0	0.166666667	http://place.map.daum.net/25294439	
daum.7873185	물영아리	33.36925081	126.6933663		여행	관광,명소	산봉우리/등산로	대한민국	제주특별자치도	서귀포시	남원읍 수망리 산189 	{""weekDayOpen"":""7:30"",""weekDayOpenHour"":7.5,""weekDayClose"":""18:00"",""weekDayCloseHour"":18.0,""saturdayOpen"":""7:30"",""saturdayOpenHour"":7.5,""saturdayClose"":""18:00"",""saturdayCloseHour"":18.0,""sundayOpen"":""7:30"",""sundayOpenHour"":7.5,""sundayClose"":""18:00"",""sundayCloseHour"":18.0}	{""weeklyClosingDays"":[],""monthlyClosingDayOfWeeks"":[],""yearlyClosingDays"":[]}	-1	0	[]	7.0	1.166666667	0.416666667	http://place.map.daum.net/7873185	
daum.7875124	물항식당 탑동점	33.51691261	126.5290839		음식점	한식	해물/생선	대한민국	제주특별자치도	제주시	건입동 1319-14 	{""weekDayOpenHour"":0.0,""weekDayCloseHour"":0.0,""saturdayOpenHour"":0.0,""saturdayCloseHour"":0.0,""sundayOpenHour"":0.0,""sundayCloseHour"":0.0}	{""weeklyClosingDays"":[],""monthlyClosingDayOfWeeks"":[],""yearlyClosingDays"":[]}	-1	-1	[]	6.5	0.5	0.1	http://place.map.daum.net/7875124	
daum.9622782	황금륭버거	33.28666274	126.2228402		음식점	양식	햄버거	대한민국	제주특별자치도	서귀포시	대정읍 신도리 10 	{""weekDayOpenHour"":0.0,""weekDayCloseHour"":0.0,""saturdayOpenHour"":0.0,""saturdayCloseHour"":0.0,""sundayOpenHour"":0.0,""sundayCloseHour"":0.0}	{""weeklyClosingDays"":[],""monthlyClosingDayOfWeeks"":[],""yearlyClosingDays"":[]}	-1	-1	[]	6.1	0.5	0.1	http://place.map.daum.net/9622782	
daum.11540370	용두암	33.51611062	126.5119571		여행	관광,명소	자연경관	대한민국	제주특별자치도	제주시	용담2동 483 	{""weekDayOpen"":""5:30"",""weekDayOpenHour"":5.5,""weekDayClose"":""19:30"",""weekDayCloseHour"":19.5,""saturdayOpen"":""5:30"",""saturdayOpenHour"":5.5,""saturdayClose"":""19:30"",""saturdayCloseHour"":19.5,""sundayOpen"":""5:30"",""sundayOpenHour"":5.5,""sundayClose"":""19:30"",""sundayCloseHour"":19.5}	{""weeklyClosingDays"":[],""monthlyClosingDayOfWeeks"":[],""yearlyClosingDays"":[]}	-1	0	[]	5.5	0.25	0.083333333	http://place.map.daum.net/11540370	
daum.8062098	제주해군호텔	33.45898715	126.4486468		여행	숙박	호텔	대한민국	제주특별자치도	제주시	해안동 2378-1 	{""weekDayOpenHour"":0.0,""weekDayCloseHour"":0.0,""saturdayOpenHour"":0.0,""saturdayCloseHour"":0.0,""sundayOpenHour"":0.0,""sundayCloseHour"":0.0}	{""weeklyClosingDays"":[],""monthlyClosingDayOfWeeks"":[],""yearlyClosingDays"":[]}	-1	-1	[]	8.0	1.0	0.0256	http://place.map.daum.net/8062098	
daum.7944328	성산포항	33.47345966	126.9332938		교통,수송	교통시설	항구,포구	대한민국	제주특별자치도	서귀포시	성산읍 성산리 	{""weekDayOpenHour"":0.0,""weekDayCloseHour"":0.0,""saturdayOpenHour"":0.0,""saturdayCloseHour"":0.0,""sundayOpenHour"":0.0,""sundayCloseHour"":0.0}	{""weeklyClosingDays"":[],""monthlyClosingDayOfWeeks"":[],""yearlyClosingDays"":[]}	-1	-1	[]	0.0	0.5	0.1	http://place.map.daum.net/7944328	
daum.14613349	만복횟집	33.24357036	126.3268885		음식점	한식	해물/생선	대한민국	제주특별자치도	서귀포시	안덕면 화순리 1868-3 	{""weekDayOpenHour"":0.0,""weekDayCloseHour"":0.0,""saturdayOpenHour"":0.0,""saturdayCloseHour"":0.0,""sundayOpenHour"":0.0,""sundayCloseHour"":0.0}	{""weeklyClosingDays"":[],""monthlyClosingDayOfWeeks"":[],""yearlyClosingDays"":[]}	-1	-1	[]	8.6	0.5	0.1	http://place.map.daum.net/14613349	
daum.7832439	돈내코유원지	33.30036663	126.5841333		여행	관광,명소	폭포/계곡	대한민국	제주특별자치도	서귀포시	상효동 1459 	{""weekDayOpen"":""9:00"",""weekDayOpenHour"":9.0,""weekDayClose"":""18:00"",""weekDayCloseHour"":18.0,""saturdayOpen"":""9:00"",""saturdayOpenHour"":9.0,""saturdayClose"":""18:00"",""saturdayCloseHour"":18.0,""sundayOpen"":""9:00"",""sundayOpenHour"":9.0,""sundayClose"":""18:00"",""sundayCloseHour"":18.0}	{""weeklyClosingDays"":[],""monthlyClosingDayOfWeeks"":[],""yearlyClosingDays"":[]}	-1	0	[]	8.0	0.666666667	0.166666667	http://place.map.daum.net/7832439	
daum.8386141	산방산	33.24130404	126.3134253		여행	관광,명소	산	대한민국	제주특별자치도	서귀포시	안덕면 사계리 	{""weekDayOpenHour"":0.0,""weekDayCloseHour"":0.0,""saturdayOpenHour"":0.0,""saturdayCloseHour"":0.0,""sundayOpenHour"":0.0,""sundayCloseHour"":0.0}	{""weeklyClosingDays"":[],""monthlyClosingDayOfWeeks"":[],""yearlyClosingDays"":[]}	-1	-1	[]	9.2	1.0	0.0256	http://place.map.daum.net/8386141	
daum.21627106	한라산국립공원 성판악탐방로	33.37139067	126.5698219		여행	관광,명소	산봉우리/등산로	대한민국	제주특별자치도	서귀포시	남원읍	{""weekDayOpen"":""6:30"",""weekDayOpenHour"":6.5,""weekDayClose"":""18:00"",""weekDayCloseHour"":18.0,""saturdayOpen"":""6:30"",""saturdayOpenHour"":6.5,""saturdayClose"":""18:00"",""saturdayCloseHour"":18.0,""sundayOpen"":""6:30"",""sundayOpenHour"":6.5,""sundayClose"":""18:00"",""sundayCloseHour"":18.0}	{""weeklyClosingDays"":[],""monthlyClosingDayOfWeeks"":[],""yearlyClosingDays"":[]}	-1	1800	[]	0.0	9.0	0.9	http://place.map.daum.net/21627106	
daum.8894680	도두해녀의집	33.50618302	126.4666349		음식점	한식	해물/생선	대한민국	제주특별자치도	제주시	도두1동 2587-4 	{""weekDayOpenHour"":0.0,""weekDayCloseHour"":0.0,""saturdayOpenHour"":0.0,""saturdayCloseHour"":0.0,""sundayOpenHour"":0.0,""sundayCloseHour"":0.0}	{""weeklyClosingDays"":[],""monthlyClosingDayOfWeeks"":[],""yearlyClosingDays"":[]}	-1	-1	[]	9.0	0.5	0.1	http://place.map.daum.net/8894680	
daum.10686012	한라산 웃세붉은오름	33.36035534	126.5207017		여행	관광,명소	산봉우리/등산로	대한민국	제주특별자치도	서귀포시	서호동 산183-1 	{""weekDayOpen"":""7:30"",""weekDayOpenHour"":7.5,""weekDayClose"":""18:00"",""weekDayCloseHour"":18.0,""saturdayOpen"":""7:30"",""saturdayOpenHour"":7.5,""saturdayClose"":""18:00"",""saturdayCloseHour"":18.0,""sundayOpen"":""7:30"",""sundayOpenHour"":7.5,""sundayClose"":""18:00"",""sundayCloseHour"":18.0}	{""weeklyClosingDays"":[],""monthlyClosingDayOfWeeks"":[],""yearlyClosingDays"":[]}	-1	0	[]	10.0	1.0	0.166666667	http://place.map.daum.net/10686012	
daum.23183577	롯데시티호텔 제주점	33.49069458	126.4864772		여행	숙박	호텔	대한민국	제주특별자치도	제주시	연동 2324-6 	{""weekDayOpenHour"":0.0,""weekDayCloseHour"":0.0,""saturdayOpenHour"":0.0,""saturdayCloseHour"":0.0,""sundayOpenHour"":0.0,""sundayCloseHour"":0.0}	{""weeklyClosingDays"":[],""monthlyClosingDayOfWeeks"":[],""yearlyClosingDays"":[]}	-1	80000	[]	5.3	0.5	0.1	http://place.map.daum.net/23183577	
daum.7934984	삼양검은모래해변	33.52605216	126.5859024		여행	관광,명소	해수욕장/해변	대한민국	제주특별자치도	제주시	삼양2동	{""weekDayOpen"":""7:30"",""weekDayOpenHour"":7.5,""weekDayClose"":""20:00"",""weekDayCloseHour"":20.0,""saturdayOpen"":""7:30"",""saturdayOpenHour"":7.5,""saturdayClose"":""20:00"",""saturdayCloseHour"":20.0,""sundayOpen"":""7:30"",""sundayOpenHour"":7.5,""sundayClose"":""20:00"",""sundayCloseHour"":20.0}	{""weeklyClosingDays"":[],""monthlyClosingDayOfWeeks"":[],""yearlyClosingDays"":[]}	-1	1000	[]	10.0	0.5	0.166666667	http://place.map.daum.net/7934984	
daum.10626439	용눈이오름	33.45969247	126.8325145		여행	관광,명소	산봉우리/등산로	대한민국	제주특별자치도	제주시	구좌읍 종달리 산28 	{""weekDayOpen"":""7:30"",""weekDayOpenHour"":7.5,""weekDayClose"":""18:00"",""weekDayCloseHour"":18.0,""saturdayOpen"":""7:30"",""saturdayOpenHour"":7.5,""saturdayClose"":""18:00"",""saturdayCloseHour"":18.0,""sundayOpen"":""7:30"",""sundayOpenHour"":7.5,""sundayClose"":""18:00"",""sundayCloseHour"":18.0}	{""weeklyClosingDays"":[],""monthlyClosingDayOfWeeks"":[],""yearlyClosingDays"":[]}	-1	0	[]	9.3	1.0	0.166666667	http://place.map.daum.net/10626439	
daum.8164833	호텔하니크라운	33.50491611	126.527681		여행	숙박	호텔	대한민국	제주특별자치도	제주시	이도1동 1315 	{""weekDayOpenHour"":0.0,""weekDayCloseHour"":0.0,""saturdayOpenHour"":0.0,""saturdayCloseHour"":0.0,""sundayOpenHour"":0.0,""sundayCloseHour"":0.0}	{""weeklyClosingDays"":[],""monthlyClosingDayOfWeeks"":[],""yearlyClosingDays"":[]}	-1	-1	[]	1.0	1.0	0.0256	http://place.map.daum.net/8164833	
daum.10500084	서귀포KAL호텔	33.24650264	126.5817617		여행	숙박	호텔	대한민국	제주특별자치도	서귀포시	토평동 486-3 	{""weekDayOpenHour"":0.0,""weekDayCloseHour"":0.0,""saturdayOpenHour"":0.0,""saturdayCloseHour"":0.0,""sundayOpenHour"":0.0,""sundayCloseHour"":0.0}	{""weeklyClosingDays"":[],""monthlyClosingDayOfWeeks"":[],""yearlyClosingDays"":[]}	-1	45000	[]	7.3	0.5	0.1	http://place.map.daum.net/10500084	
daum.9940398	옥돔식당	33.21997108	126.2490075		음식점	한식	국수	대한민국	제주특별자치도	서귀포시	대정읍 하모리 1067-23 	{""weekDayOpenHour"":0.0,""weekDayCloseHour"":0.0,""saturdayOpenHour"":0.0,""saturdayCloseHour"":0.0,""sundayOpenHour"":0.0,""sundayCloseHour"":0.0}	{""weeklyClosingDays"":[""Wednesday""],""monthlyClosingDayOfWeeks"":[],""yearlyClosingDays"":[]}	-1	-1	[]	8.0	0.5	0.1	http://place.map.daum.net/9940398	
daum.7919123	삼성혈해물탕	33.48796458	126.4997066		음식점	한식	해물/생선	대한민국	제주특별자치도	제주시	연동 312-27 	{""weekDayOpenHour"":0.0,""weekDayCloseHour"":0.0,""saturdayOpenHour"":0.0,""saturdayCloseHour"":0.0,""sundayOpenHour"":0.0,""sundayCloseHour"":0.0}	{""weeklyClosingDays"":[],""monthlyClosingDayOfWeeks"":[],""yearlyClosingDays"":[]}	-1	-1	[]	6.8	0.5	0.1	http://place.map.daum.net/7919123	
daum.19639423	카페서연의집	33.26940687	126.6555871		음식점	카페		대한민국	제주특별자치도	서귀포시	남원읍 위미리 2975 	{""weekDayOpen"":""09:00"",""weekDayOpenHour"":9.0,""weekDayClose"":""21:00"",""weekDayCloseHour"":21.0,""saturdayOpen"":""09:00"",""saturdayOpenHour"":9.0,""saturdayClose"":""21:00"",""saturdayCloseHour"":21.0,""sundayOpen"":""09:00"",""sundayOpenHour"":9.0,""sundayClose"":""21:00"",""sundayCloseHour"":21.0}	{""weeklyClosingDays"":[],""monthlyClosingDayOfWeeks"":[],""yearlyClosingDays"":[]}	-1	-1	[]	8.0	0.5	0.1	http://place.map.daum.net/19639423	
daum.7991509	아프리카박물관	33.23974044	126.4293493		여행	관광,명소	미술관/박물관	대한민국	제주특별자치도	서귀포시	대포동 1833 	{""weekDayOpen"":""9:00"",""weekDayOpenHour"":9.0,""weekDayClose"":""19:00"",""weekDayCloseHour"":19.0,""saturdayOpen"":""9:00"",""saturdayOpenHour"":9.0,""saturdayClose"":""19:00"",""saturdayCloseHour"":19.0,""sundayOpen"":""9:00"",""sundayOpenHour"":9.0,""sundayClose"":""19:00"",""sundayCloseHour"":19.0}	{""weeklyClosingDays"":[],""monthlyClosingDayOfWeeks"":[],""yearlyClosingDays"":[]}	-1	8000	[]	7.9	1.0	0.166666667	http://place.map.daum.net/7991509	
daum.8015989	옛날옛적	33.46677192	126.9307257		음식점	한식		대한민국	제주특별자치도	서귀포시	성산읍 성산리 382-10 	{""weekDayOpenHour"":0.0,""weekDayCloseHour"":0.0,""saturdayOpenHour"":0.0,""saturdayCloseHour"":0.0,""sundayOpenHour"":0.0,""sundayCloseHour"":0.0}	{""weeklyClosingDays"":[],""monthlyClosingDayOfWeeks"":[],""yearlyClosingDays"":[]}	-1	-1	[]	7.1	1.0	0.0256	http://place.map.daum.net/8015989	
daum.17154562	제주어장	33.51682833	126.5156428		음식점	한식	해물/생선	대한민국	제주특별자치도	제주시	용담1동 425 	{""weekDayOpenHour"":0.0,""weekDayCloseHour"":0.0,""saturdayOpenHour"":0.0,""saturdayCloseHour"":0.0,""sundayOpenHour"":0.0,""sundayCloseHour"":0.0}	{""weeklyClosingDays"":[],""monthlyClosingDayOfWeeks"":[],""yearlyClosingDays"":[]}	-1	-1	[]	0.0	0.5	0.1	http://place.map.daum.net/17154562	
daum.7957266	송악공원	33.19997922	126.2912266		여행	관광,명소	공원	대한민국	제주특별자치도	서귀포시	대정읍 상모리 산2 	{""weekDayOpen"":""7:30"",""weekDayOpenHour"":7.5,""weekDayClose"":""18:00"",""weekDayCloseHour"":18.0,""saturdayOpen"":""7:30"",""saturdayOpenHour"":7.5,""saturdayClose"":""18:00"",""saturdayCloseHour"":18.0,""sundayOpen"":""7:30"",""sundayOpenHour"":7.5,""sundayClose"":""18:00"",""sundayCloseHour"":18.0}	{""weeklyClosingDays"":[],""monthlyClosingDayOfWeeks"":[],""yearlyClosingDays"":[]}	-1	0	[]	9.0	1.0	0.166666667	http://place.map.daum.net/7957266	
daum.8045145	이중섭미술관	33.24587856	126.5648967		여행	관광,명소	미술관/박물관	대한민국	제주특별자치도	서귀포시	서귀동 532-1 	{""weekDayOpen"":""9:00"",""weekDayOpenHour"":9.0,""weekDayClose"":""18:00"",""weekDayCloseHour"":18.0,""saturdayOpen"":""9:00"",""saturdayOpenHour"":9.0,""saturdayClose"":""18:00"",""saturdayCloseHour"":18.0,""sundayOpen"":""9:00"",""sundayOpenHour"":9.0,""sundayClose"":""18:00"",""sundayCloseHour"":18.0}	{""weeklyClosingDays"":[""Monday""],""monthlyClosingDayOfWeeks"":[],""yearlyClosingDays"":[""추석"",""설날"",""1월 1일""]}	-1	1300	[]	9.5	1.0	0.166666667	http://place.map.daum.net/8045145	
daum.14583406	칠돈가 본점	33.50413345	126.5127605		음식점	한식	육류/고기	대한민국	제주특별자치도	제주시	용담1동 189-3 	{""weekDayOpenHour"":0.0,""weekDayCloseHour"":0.0,""saturdayOpenHour"":0.0,""saturdayCloseHour"":0.0,""sundayOpenHour"":0.0,""sundayCloseHour"":0.0}	{""weeklyClosingDays"":[],""monthlyClosingDayOfWeeks"":[],""yearlyClosingDays"":[]}	-1	-1	[]	8.9	0.5	0.1	http://place.map.daum.net/14583406	
daum.7912384	홍조단괴해수욕장	33.50240607	126.9430478		여행	관광,명소	해수욕장,해변	대한민국	제주특별자치도	제주시	우도면 연평리 	{""weekDayOpenHour"":0.0,""weekDayCloseHour"":0.0,""saturdayOpenHour"":0.0,""saturdayCloseHour"":0.0,""sundayOpenHour"":0.0,""sundayCloseHour"":0.0}	{""weeklyClosingDays"":[],""monthlyClosingDayOfWeeks"":[],""yearlyClosingDays"":[]}	-1	-1	[]	8.7	1.0	0.0256	http://place.map.daum.net/7912384	
daum.10880885	퍼시픽랜드 돌고래쇼	33.24525528	126.4154802		여행	관광,명소	테마파크	대한민국	제주특별자치도	서귀포시	색달동 2950-5 	{""weekDayOpen"":""11:00"",""weekDayOpenHour"":11.0,""weekDayClose"":""16:30"",""weekDayCloseHour"":16.5,""saturdayOpen"":""11:00"",""saturdayOpenHour"":11.0,""saturdayClose"":""16:30"",""saturdayCloseHour"":16.5,""sundayOpen"":""11:00"",""sundayOpenHour"":11.0,""sundayClose"":""16:30"",""sundayCloseHour"":16.5}	{""weeklyClosingDays"":[],""monthlyClosingDayOfWeeks"":[],""yearlyClosingDays"":[]}	-1	12000	[]	10.0	1.166666667	0.333333333	http://place.map.daum.net/10880885	
daum.8173573	화순금모래해변	33.24005765	126.3335849		여행	관광,명소	해수욕장/해변	대한민국	제주특별자치도	서귀포시	안덕면 화순리 776-8 	{""weekDayOpen"":""7:30"",""weekDayOpenHour"":7.5,""weekDayClose"":""20:00"",""weekDayCloseHour"":20.0,""saturdayOpen"":""7:30"",""saturdayOpenHour"":7.5,""saturdayClose"":""20:00"",""saturdayCloseHour"":20.0,""sundayOpen"":""7:30"",""sundayOpenHour"":7.5,""sundayClose"":""20:00"",""sundayCloseHour"":20.0}	{""weeklyClosingDays"":[],""monthlyClosingDayOfWeeks"":[],""yearlyClosingDays"":[]}	-1	1000	[]	7.4	0.5	0.166666667	http://place.map.daum.net/8173573	
daum.9701541	대게촌	33.51037346	126.4827619		음식점	한식	해물/생선	대한민국	제주특별자치도	제주시	도두2동 706-11 	{""weekDayOpenHour"":0.0,""weekDayCloseHour"":0.0,""saturdayOpenHour"":0.0,""saturdayCloseHour"":0.0,""sundayOpenHour"":0.0,""sundayCloseHour"":0.0}	{""weeklyClosingDays"":[],""monthlyClosingDayOfWeeks"":[],""yearlyClosingDays"":[]}	-1	-1	[]	9.0	0.5	0.1	http://place.map.daum.net/9701541	
daum.11600257	쌍둥이횟집	33.24656772	126.5629275		음식점	한식	해물/생선	대한민국	제주특별자치도	서귀포시	서귀동 496-18 	{""weekDayOpen"":""11:00"",""weekDayOpenHour"":11.0,""weekDayClose"":""23:59"",""weekDayCloseHour"":23.983333333333334,""saturdayOpen"":""11:00"",""saturdayOpenHour"":11.0,""saturdayClose"":""23:59"",""saturdayCloseHour"":23.983333333333334,""sundayOpen"":""11:00"",""sundayOpenHour"":11.0,""sundayClose"":""23:59"",""sundayCloseHour"":23.983333333333334}	{""weeklyClosingDays"":[],""monthlyClosingDayOfWeeks"":[],""yearlyClosingDays"":[]}	-1	-1	[]	6.2	0.5	0.1	http://place.map.daum.net/11600257	
daum.11055702	사계해변	33.22363523	126.2984292		여행	관광,명소	해수욕장/해변	대한민국	제주특별자치도	서귀포시	안덕면 사계리 	{""weekDayOpen"":""7:30"",""weekDayOpenHour"":7.5,""weekDayClose"":""20:00"",""weekDayCloseHour"":20.0,""saturdayOpen"":""7:30"",""saturdayOpenHour"":7.5,""saturdayClose"":""20:00"",""saturdayCloseHour"":20.0,""sundayOpen"":""7:30"",""sundayOpenHour"":7.5,""sundayClose"":""20:00"",""sundayCloseHour"":20.0}	{""weeklyClosingDays"":[],""monthlyClosingDayOfWeeks"":[],""yearlyClosingDays"":[]}	-1	1000	[]	0.0	0.5	0.166666667	http://place.map.daum.net/11055702	
daum.10599658	아부오름	33.4485914	126.7772236		여행	관광,명소	산봉우리/등산로	대한민국	제주특별자치도	제주시	구좌읍 송당리 산164-1 	{""weekDayOpen"":""7:30"",""weekDayOpenHour"":7.5,""weekDayClose"":""18:00"",""weekDayCloseHour"":18.0,""saturdayOpen"":""7:30"",""saturdayOpenHour"":7.5,""saturdayClose"":""18:00"",""saturdayCloseHour"":18.0,""sundayOpen"":""7:30"",""sundayOpenHour"":7.5,""sundayClose"":""18:00"",""sundayCloseHour"":18.0}	{""weeklyClosingDays"":[],""monthlyClosingDayOfWeeks"":[],""yearlyClosingDays"":[]}	-1	0	[]	9.0	1.0	0.166666667	http://place.map.daum.net/10599658	
daum.10627937	오성토속음식점	33.25565231	126.4146126		음식점	한식		대한민국	제주특별자치도	서귀포시	색달동 2507-1 	{""weekDayOpenHour"":0.0,""weekDayCloseHour"":0.0,""saturdayOpenHour"":0.0,""saturdayCloseHour"":0.0,""sundayOpenHour"":0.0,""sundayCloseHour"":0.0}	{""weeklyClosingDays"":[],""monthlyClosingDayOfWeeks"":[],""yearlyClosingDays"":[]}	-1	-1	[]	5.0	0.5	0.1	http://place.map.daum.net/10627937	
daum.13322621	제주돌문화공원	33.44820741	126.6590594		여행	관광,명소	테마파크	대한민국	제주특별자치도	제주시	조천읍 교래리 산95 	{""weekDayOpen"":""09:00"",""weekDayOpenHour"":9.0,""weekDayClose"":""18:00"",""weekDayCloseHour"":18.0,""saturdayOpen"":""09:00"",""saturdayOpenHour"":9.0,""saturdayClose"":""18:00"",""saturdayCloseHour"":18.0,""sundayOpen"":""09:00"",""sundayOpenHour"":9.0,""sundayClose"":""18:00"",""sundayCloseHour"":18.0}	{""weeklyClosingDays"":[],""monthlyClosingDayOfWeeks"":[],""yearlyClosingDays"":[]}	-1	-1	[]	10.0	1.0	0.0256	http://place.map.daum.net/13322621	
daum.25354927	저지오름	33.33268661	126.2508601		여행	관광,명소	산봉우리/등산로	대한민국	제주특별자치도	제주시	한경면 저지리 산51 	{""weekDayOpen"":""7:30"",""weekDayOpenHour"":7.5,""weekDayClose"":""18:00"",""weekDayCloseHour"":18.0,""saturdayOpen"":""7:30"",""saturdayOpenHour"":7.5,""saturdayClose"":""18:00"",""saturdayCloseHour"":18.0,""sundayOpen"":""7:30"",""sundayOpenHour"":7.5,""sundayClose"":""18:00"",""sundayCloseHour"":18.0}	{""weeklyClosingDays"":[],""monthlyClosingDayOfWeeks"":[],""yearlyClosingDays"":[]}	-1	0	[]	10.0	1.25	0.25	http://place.map.daum.net/25354927	
daum.12717410	신옛촌	33.23315288	126.3087685		음식점	한식		대한민국	제주특별자치도	서귀포시	안덕면 사계리 135-1 	{""weekDayOpenHour"":0.0,""weekDayCloseHour"":0.0,""saturdayOpenHour"":0.0,""saturdayCloseHour"":0.0,""sundayOpenHour"":0.0,""sundayCloseHour"":0.0}	{""weeklyClosingDays"":[],""monthlyClosingDayOfWeeks"":[],""yearlyClosingDays"":[]}	-1	-1	[]	10.0	0.5	0.1	http://place.map.daum.net/12717410	
daum.7967458	제주신라호텔	33.2474596	126.4080144		여행	숙박	호텔	대한민국	제주특별자치도	서귀포시	색달동 3039-3 	{""weekDayOpenHour"":0.0,""weekDayCloseHour"":0.0,""saturdayOpenHour"":0.0,""saturdayCloseHour"":0.0,""sundayOpenHour"":0.0,""sundayCloseHour"":0.0}	{""weeklyClosingDays"":[],""monthlyClosingDayOfWeeks"":[],""yearlyClosingDays"":[]}	-1	180000	[]	8.0	0.5	0.1	http://place.map.daum.net/7967458	
daum.7830447	오션그랜드호텔	33.54257463	126.6651838		여행	숙박	호텔	대한민국	제주특별자치도	제주시	조천읍 함덕리 1252-55 	{""weekDayOpenHour"":0.0,""weekDayCloseHour"":0.0,""saturdayOpenHour"":0.0,""saturdayCloseHour"":0.0,""sundayOpenHour"":0.0,""sundayCloseHour"":0.0}	{""weeklyClosingDays"":[],""monthlyClosingDayOfWeeks"":[],""yearlyClosingDays"":[]}	-1	-1	[]	1.0	1.0	0.0256	http://place.map.daum.net/7830447	
daum.10809103	제주오리엔탈호텔	33.51767052	126.5198403		여행	숙박	호텔	대한민국	제주특별자치도	제주시	삼도2동 1197 	{""weekDayOpenHour"":0.0,""weekDayCloseHour"":0.0,""saturdayOpenHour"":0.0,""saturdayCloseHour"":0.0,""sundayOpenHour"":0.0,""sundayCloseHour"":0.0}	{""weeklyClosingDays"":[],""monthlyClosingDayOfWeeks"":[],""yearlyClosingDays"":[]}	-1	-1	[]	2.3	1.0	0.0256	http://place.map.daum.net/10809103	
daum.9980893	중문대들보	33.25370357	126.4197336		음식점	한식		대한민국	제주특별자치도	서귀포시	중문동 1489-2 	{""weekDayOpenHour"":0.0,""weekDayCloseHour"":0.0,""saturdayOpenHour"":0.0,""saturdayCloseHour"":0.0,""sundayOpenHour"":0.0,""sundayCloseHour"":0.0}	{""weeklyClosingDays"":[],""monthlyClosingDayOfWeeks"":[],""yearlyClosingDays"":[]}	-1	-1	[]	8.0	0.5	0.1	http://place.map.daum.net/9980893	
daum.7956367	송악산	33.19921553	126.2901175		여행	관광,명소	산봉우리/등산로	대한민국	제주특별자치도	서귀포시	대정읍 상모리 산2 	{""weekDayOpen"":""7:30"",""weekDayOpenHour"":7.5,""weekDayClose"":""18:00"",""weekDayCloseHour"":18.0,""saturdayOpen"":""7:30"",""saturdayOpenHour"":7.5,""saturdayClose"":""18:00"",""saturdayCloseHour"":18.0,""sundayOpen"":""7:30"",""sundayOpenHour"":7.5,""sundayClose"":""18:00"",""sundayCloseHour"":18.0}	{""weeklyClosingDays"":[],""monthlyClosingDayOfWeeks"":[],""yearlyClosingDays"":[]}	-1	0	[]	10.0	0.666666667	0.166666667	http://place.map.daum.net/7956367	
daum.10717401	정방폭포	33.24483415	126.5715546		여행	관광,명소	폭포/계곡	대한민국	제주특별자치도	서귀포시	서귀동 962 	{""weekDayOpen"":""8:30"",""weekDayOpenHour"":8.5,""weekDayClose"":""17:30"",""weekDayCloseHour"":17.5,""saturdayOpen"":""8:30"",""saturdayOpenHour"":8.5,""saturdayClose"":""17:30"",""saturdayCloseHour"":17.5,""sundayOpen"":""8:30"",""sundayOpenHour"":8.5,""sundayClose"":""17:30"",""sundayCloseHour"":17.5}	{""weeklyClosingDays"":[],""monthlyClosingDayOfWeeks"":[],""yearlyClosingDays"":[]}	-1	2000	[]	10.0	0.5	0.166666667	http://place.map.daum.net/10717401	
daum.7923446	새로나분식	33.24853765	126.5641753		음식점	분식		대한민국	제주특별자치도	서귀포시	서귀동 273-5 	{""weekDayOpenHour"":0.0,""weekDayCloseHour"":0.0,""saturdayOpenHour"":0.0,""saturdayCloseHour"":0.0,""sundayOpenHour"":0.0,""sundayCloseHour"":0.0}	{""weeklyClosingDays"":[],""monthlyClosingDayOfWeeks"":[],""yearlyClosingDays"":[]}	-1	-1	[]	7.7	0.5	0.1	http://place.map.daum.net/7923446	
daum.11332661	오설록티뮤지엄	33.30592655	126.289443		여행	관광,명소	미술관/박물관	대한민국	제주특별자치도	서귀포시	안덕면 서광리 1235-1 	{""weekDayOpen"":""10:00"",""weekDayOpenHour"":10.0,""weekDayClose"":""17:30"",""weekDayCloseHour"":17.5,""saturdayOpen"":""10:00"",""saturdayOpenHour"":10.0,""saturdayClose"":""17:30"",""saturdayCloseHour"":17.5,""sundayOpen"":""10:00"",""sundayOpenHour"":10.0,""sundayClose"":""17:30"",""sundayCloseHour"":17.5}	{""weeklyClosingDays"":[],""monthlyClosingDayOfWeeks"":[],""yearlyClosingDays"":[]}	-1	0	[]	7.0	1.0	0.166666667	http://place.map.daum.net/11332661	
daum.12284733	제주허브동산	33.32968333	126.8151318		여행	관광,명소	관광농원	대한민국	제주특별자치도	서귀포시	표선면 표선리 2608 	{""weekDayOpenHour"":0.0,""weekDayCloseHour"":0.0,""saturdayOpenHour"":0.0,""saturdayCloseHour"":0.0,""sundayOpenHour"":0.0,""sundayCloseHour"":0.0}	{""weeklyClosingDays"":[],""monthlyClosingDayOfWeeks"":[],""yearlyClosingDays"":[]}	-1	-1	[]	6.4	1.0	0.0256	http://place.map.daum.net/12284733	
daum.8070344	한라산 장오름	33.35632486	126.4671038		여행	관광,명소	오름	대한민국	제주특별자치도	서귀포시	중문동 산1 	{""weekDayOpenHour"":0.0,""weekDayCloseHour"":0.0,""saturdayOpenHour"":0.0,""saturdayCloseHour"":0.0,""sundayOpenHour"":0.0,""sundayCloseHour"":0.0}	{""weeklyClosingDays"":[],""monthlyClosingDayOfWeeks"":[],""yearlyClosingDays"":[]}	-1	-1	[]	0.0	1.0	0.0256	http://place.map.daum.net/8070344	
daum.18815393	와랑와랑	33.27229069	126.6765534		음식점	카페	커피전문점	대한민국	제주특별자치도	서귀포시	남원읍 위미리 875-1 	{""weekDayOpenHour"":0.0,""weekDayCloseHour"":0.0,""saturdayOpenHour"":0.0,""saturdayCloseHour"":0.0,""sundayOpenHour"":0.0,""sundayCloseHour"":0.0}	{""weeklyClosingDays"":[""Monday""],""monthlyClosingDayOfWeeks"":[],""yearlyClosingDays"":[]}	-1	-1	[]	5.5	0.5	0.1	http://place.map.daum.net/18815393	
daum.20203650	엠제이호텔	33.4890364	126.4884023		여행	숙박	호텔	대한민국	제주특별자치도	제주시	연동 261-67 	{""weekDayOpenHour"":0.0,""weekDayCloseHour"":0.0,""saturdayOpenHour"":0.0,""saturdayCloseHour"":0.0,""sundayOpenHour"":0.0,""sundayCloseHour"":0.0}	{""weeklyClosingDays"":[],""monthlyClosingDayOfWeeks"":[],""yearlyClosingDays"":[]}	-1	-1	[]	10.0	1.0	0.0256	http://place.map.daum.net/20203650	
